<?xml version="1.0" encoding="UTF-8"?>
<gpx version="1.1" creator="Where Am I App" xmlns="http://www.topografix.com/GPX/1/1">
  <metadata>
    <name>Trip on 2026-09-08 18:40</name>
    <time>2026-09-08T16:40:11Z</time>
  </metadata>
  <wpt lat="49.8553563" lon="19.3449696">
    <name>Andrychów</name>
    <desc>pow. wadowicki • woj. małopolskie</desc>
    <time>2026-09-08T16:40:11Z</time>
  </wpt>
  <wpt lat="49.865838" lon="19.311367">
    <name>Bulowice</name>
    <desc>pow. oświęcimski • woj. małopolskie</desc>
    <time>2026-09-08T16:45:05Z</time>
  </wpt>
  <wpt lat="49.8507441" lon="19.2878174">
    <name>Czaniec</name>
    <desc>pow. bielski • woj. śląskie</desc>
    <time>2026-09-08T16:49:27Z</time>
  </wpt>
  <trk>
    <name>Trip on 2026-09-08 18:40</name>
    <trkseg>
      <trkpt lat="49.8553563" lon="19.3449696"/>
      <trkpt lat="49.8552942" lon="19.3443984"/>
      <trkpt lat="49.8552793" lon="19.3442713"/>
      <trkpt lat="49.8552632" lon="19.3441296"/>
      <trkpt lat="49.8552473" lon="19.3440005"/>
      <trkpt lat="49.8552297" lon="19.3438607"/>
      <trkpt lat="49.8552157" lon="19.3437304"/>
      <trkpt lat="49.8551921" lon="19.3434782"/>
      <trkpt lat="49.8551778" lon="19.3433443"/>
      <trkpt lat="49.8551641" lon="19.3432054"/>
      <trkpt lat="49.8551498" lon="19.3430749"/>
      <trkpt lat="49.8551349" lon="19.3429301"/>
      <trkpt lat="49.8551186" lon="19.3428045"/>
      <trkpt lat="49.8551064" lon="19.3426706"/>
      <trkpt lat="49.8550907" lon="19.3424194"/>
      <trkpt lat="49.8550776" lon="19.342288"/>
      <trkpt lat="49.8550654" lon="19.34219"/>
      <trkpt lat="49.8550519" lon="19.3420986"/>
      <trkpt lat="49.8550399" lon="19.3419974"/>
      <trkpt lat="49.8550395" lon="19.3419267"/>
      <trkpt lat="49.8550289" lon="19.3417985"/>
      <trkpt lat="49.855006" lon="19.3415356"/>
      <trkpt lat="49.8549425" lon="19.3411123"/>
      <trkpt lat="49.8549333" lon="19.3410374"/>
      <trkpt lat="49.8549247" lon="19.3409434"/>
      <trkpt lat="49.8549115" lon="19.3408392"/>
      <trkpt lat="49.8548982" lon="19.3406383"/>
      <trkpt lat="49.854897" lon="19.3404246"/>
      <trkpt lat="49.8548949" lon="19.3403102"/>
      <trkpt lat="49.8548965" lon="19.3401781"/>
      <trkpt lat="49.8548943" lon="19.3400407"/>
      <trkpt lat="49.8548938" lon="19.339909"/>
      <trkpt lat="49.8549024" lon="19.3397723"/>
      <trkpt lat="49.8549068" lon="19.3396398"/>
      <trkpt lat="49.854913" lon="19.3394119"/>
      <trkpt lat="49.8549189" lon="19.3393082"/>
      <trkpt lat="49.8549224" lon="19.3391971"/>
      <trkpt lat="49.8549331" lon="19.3391052"/>
      <trkpt lat="49.8549399" lon="19.3390257"/>
      <trkpt lat="49.8550048" lon="19.3382967"/>
      <trkpt lat="49.8550154" lon="19.3382045"/>
      <trkpt lat="49.8550461" lon="19.3380725"/>
      <trkpt lat="49.8550683" lon="19.3379877"/>
      <trkpt lat="49.855088" lon="19.337915"/>
      <trkpt lat="49.8551078" lon="19.3378349"/>
      <trkpt lat="49.8551321" lon="19.3377324"/>
      <trkpt lat="49.8551539" lon="19.3376425"/>
      <trkpt lat="49.855178" lon="19.3375475"/>
      <trkpt lat="49.8552301" lon="19.3373521"/>
      <trkpt lat="49.8552741" lon="19.3371742"/>
      <trkpt lat="49.855295" lon="19.3370833"/>
      <trkpt lat="49.8553187" lon="19.3369831"/>
      <trkpt lat="49.855343" lon="19.3368706"/>
      <trkpt lat="49.8553696" lon="19.336769"/>
      <trkpt lat="49.8553944" lon="19.3366624"/>
      <trkpt lat="49.8554184" lon="19.3365636"/>
      <trkpt lat="49.8554496" lon="19.3364434"/>
      <trkpt lat="49.8554774" lon="19.33633"/>
      <trkpt lat="49.8555079" lon="19.3362105"/>
      <trkpt lat="49.8555379" lon="19.336086"/>
      <trkpt lat="49.8555704" lon="19.3359488"/>
      <trkpt lat="49.8556243" lon="19.3357188"/>
      <trkpt lat="49.855656" lon="19.335592"/>
      <trkpt lat="49.8556859" lon="19.3354539"/>
      <trkpt lat="49.855717" lon="19.3353236"/>
      <trkpt lat="49.8557481" lon="19.3351901"/>
      <trkpt lat="49.8557782" lon="19.3350652"/>
      <trkpt lat="49.8558115" lon="19.3349322"/>
      <trkpt lat="49.8558468" lon="19.3347831"/>
      <trkpt lat="49.8559106" lon="19.3345065"/>
      <trkpt lat="49.8559447" lon="19.3343685"/>
      <trkpt lat="49.8560099" lon="19.3340925"/>
      <trkpt lat="49.8560429" lon="19.3339625"/>
      <trkpt lat="49.8560848" lon="19.3337906"/>
      <trkpt lat="49.8561492" lon="19.3335219"/>
      <trkpt lat="49.8561756" lon="19.3333954"/>
      <trkpt lat="49.8562133" lon="19.3332484"/>
      <trkpt lat="49.8562425" lon="19.3331218"/>
      <trkpt lat="49.8562812" lon="19.3329693"/>
      <trkpt lat="49.8563202" lon="19.3328167"/>
      <trkpt lat="49.8563502" lon="19.3326859"/>
      <trkpt lat="49.8563821" lon="19.3325559"/>
      <trkpt lat="49.8564217" lon="19.3324047"/>
      <trkpt lat="49.8564502" lon="19.332277"/>
      <trkpt lat="49.8564863" lon="19.3321294"/>
      <trkpt lat="49.8565213" lon="19.331982"/>
      <trkpt lat="49.8565629" lon="19.331812"/>
      <trkpt lat="49.8566296" lon="19.3315321"/>
      <trkpt lat="49.8566934" lon="19.3312726"/>
      <trkpt lat="49.8567549" lon="19.3310245"/>
      <trkpt lat="49.8567863" lon="19.3308944"/>
      <trkpt lat="49.8568217" lon="19.330757"/>
      <trkpt lat="49.8568765" lon="19.3305368"/>
      <trkpt lat="49.8569154" lon="19.3303709"/>
      <trkpt lat="49.8570097" lon="19.329971"/>
      <trkpt lat="49.8570325" lon="19.3298769"/>
      <trkpt lat="49.857058" lon="19.3297685"/>
      <trkpt lat="49.8570875" lon="19.3296552"/>
      <trkpt lat="49.8571173" lon="19.3295306"/>
      <trkpt lat="49.8571752" lon="19.3292906"/>
      <trkpt lat="49.8572218" lon="19.3291216"/>
      <trkpt lat="49.8572482" lon="19.3290464"/>
      <trkpt lat="49.8574525" lon="19.3281273"/>
      <trkpt lat="49.8574983" lon="19.3279566"/>
      <trkpt lat="49.8575364" lon="19.3277877"/>
      <trkpt lat="49.8575763" lon="19.3276052"/>
      <trkpt lat="49.8576535" lon="19.3272763"/>
      <trkpt lat="49.8577006" lon="19.3270812"/>
      <trkpt lat="49.8577798" lon="19.3267438"/>
      <trkpt lat="49.8578211" lon="19.3265654"/>
      <trkpt lat="49.857863" lon="19.3264056"/>
      <trkpt lat="49.8579086" lon="19.3262214"/>
      <trkpt lat="49.8580006" lon="19.3258966"/>
      <trkpt lat="49.8580964" lon="19.3255654"/>
      <trkpt lat="49.8581446" lon="19.3254256"/>
      <trkpt lat="49.8582062" lon="19.3252891"/>
      <trkpt lat="49.8582739" lon="19.3251409"/>
      <trkpt lat="49.8583362" lon="19.3250007"/>
      <trkpt lat="49.8584216" lon="19.3248581"/>
      <trkpt lat="49.8584897" lon="19.3247251"/>
      <trkpt lat="49.8585656" lon="19.3245949"/>
      <trkpt lat="49.8586429" lon="19.3244494"/>
      <trkpt lat="49.8587165" lon="19.324323"/>
      <trkpt lat="49.8587909" lon="19.3241842"/>
      <trkpt lat="49.85888" lon="19.3240203"/>
      <trkpt lat="49.858958" lon="19.3238752"/>
      <trkpt lat="49.8590298" lon="19.3237446"/>
      <trkpt lat="49.8591001" lon="19.3236126"/>
      <trkpt lat="49.8591845" lon="19.3234583"/>
      <trkpt lat="49.8593425" lon="19.3231714"/>
      <trkpt lat="49.8594066" lon="19.3230583"/>
      <trkpt lat="49.8594688" lon="19.3229471"/>
      <trkpt lat="49.8595407" lon="19.322817"/>
      <trkpt lat="49.8595981" lon="19.3227139"/>
      <trkpt lat="49.8596508" lon="19.3226209"/>
      <trkpt lat="49.8597007" lon="19.3225349"/>
      <trkpt lat="49.8597656" lon="19.3224281"/>
      <trkpt lat="49.8598609" lon="19.3223016"/>
      <trkpt lat="49.8599239" lon="19.3222515"/>
      <trkpt lat="49.859995" lon="19.3222192"/>
      <trkpt lat="49.8600502" lon="19.322179"/>
      <trkpt lat="49.8600885" lon="19.3220934"/>
      <trkpt lat="49.8601055" lon="19.3219138"/>
      <trkpt lat="49.8601562" lon="19.3217428"/>
      <trkpt lat="49.860198" lon="19.3216519"/>
      <trkpt lat="49.8602417" lon="19.3215597"/>
      <trkpt lat="49.8602932" lon="19.3214674"/>
      <trkpt lat="49.8603452" lon="19.3213668"/>
      <trkpt lat="49.8604104" lon="19.3212438"/>
      <trkpt lat="49.8605245" lon="19.3210452"/>
      <trkpt lat="49.8605941" lon="19.3209183"/>
      <trkpt lat="49.8607295" lon="19.3206695"/>
      <trkpt lat="49.8608804" lon="19.3204049"/>
      <trkpt lat="49.8610289" lon="19.3201321"/>
      <trkpt lat="49.8611128" lon="19.3199836"/>
      <trkpt lat="49.8612068" lon="19.3198108"/>
      <trkpt lat="49.8613593" lon="19.319531"/>
      <trkpt lat="49.8614379" lon="19.3193843"/>
      <trkpt lat="49.8615196" lon="19.3192358"/>
      <trkpt lat="49.8616084" lon="19.3190812"/>
      <trkpt lat="49.8616838" lon="19.3189388"/>
      <trkpt lat="49.8617784" lon="19.3187704"/>
      <trkpt lat="49.8618553" lon="19.3186271"/>
      <trkpt lat="49.8619434" lon="19.3184638"/>
      <trkpt lat="49.862024" lon="19.3183135"/>
      <trkpt lat="49.8621055" lon="19.3181676"/>
      <trkpt lat="49.8621921" lon="19.3180107"/>
      <trkpt lat="49.8622685" lon="19.3178637"/>
      <trkpt lat="49.862453" lon="19.3175406"/>
      <trkpt lat="49.8625612" lon="19.317342"/>
      <trkpt lat="49.8627126" lon="19.3170608"/>
      <trkpt lat="49.8627963" lon="19.3169134"/>
      <trkpt lat="49.8628759" lon="19.3167605"/>
      <trkpt lat="49.862968" lon="19.3165946"/>
      <trkpt lat="49.863062" lon="19.3164264"/>
      <trkpt lat="49.8631446" lon="19.3162785"/>
      <trkpt lat="49.8633224" lon="19.3159525"/>
      <trkpt lat="49.863418" lon="19.3157795"/>
      <trkpt lat="49.8635329" lon="19.3155709"/>
      <trkpt lat="49.8636743" lon="19.3153132"/>
      <trkpt lat="49.8637647" lon="19.3151488"/>
      <trkpt lat="49.8638911" lon="19.3149193"/>
      <trkpt lat="49.8640377" lon="19.3146509"/>
      <trkpt lat="49.8641269" lon="19.3144876"/>
      <trkpt lat="49.8642229" lon="19.3143078"/>
      <trkpt lat="49.8644076" lon="19.3139721"/>
      <trkpt lat="49.8645019" lon="19.3138004"/>
      <trkpt lat="49.8645879" lon="19.3136382"/>
      <trkpt lat="49.86468" lon="19.3134725"/>
      <trkpt lat="49.8647933" lon="19.3132647"/>
      <trkpt lat="49.8649585" lon="19.3129674"/>
      <trkpt lat="49.8650671" lon="19.312773"/>
      <trkpt lat="49.865221" lon="19.3124972"/>
      <trkpt lat="49.865316" lon="19.3123257"/>
      <trkpt lat="49.8654047" lon="19.3121666"/>
      <trkpt lat="49.8654857" lon="19.3120161"/>
      <trkpt lat="49.8656684" lon="19.3116798"/>
      <trkpt lat="49.865755" lon="19.3115155"/>
      <trkpt lat="49.865838" lon="19.311367"/>
      <trkpt lat="49.8659355" lon="19.311188"/>
      <trkpt lat="49.8661137" lon="19.3108648"/>
      <trkpt lat="49.866198" lon="19.3107078"/>
      <trkpt lat="49.8663782" lon="19.3103766"/>
      <trkpt lat="49.8664689" lon="19.3102125"/>
      <trkpt lat="49.8665631" lon="19.310041"/>
      <trkpt lat="49.866666" lon="19.30985"/>
      <trkpt lat="49.8667604" lon="19.3096819"/>
      <trkpt lat="49.8668602" lon="19.309499"/>
      <trkpt lat="49.8669501" lon="19.3093341"/>
      <trkpt lat="49.8670564" lon="19.3091461"/>
      <trkpt lat="49.8671755" lon="19.308927"/>
      <trkpt lat="49.8673424" lon="19.3086261"/>
      <trkpt lat="49.8675386" lon="19.3082696"/>
      <trkpt lat="49.8677255" lon="19.3079322"/>
      <trkpt lat="49.8679107" lon="19.307595"/>
      <trkpt lat="49.8679887" lon="19.3074472"/>
      <trkpt lat="49.8680889" lon="19.307267"/>
      <trkpt lat="49.8682215" lon="19.3070217"/>
      <trkpt lat="49.8682854" lon="19.3069075"/>
      <trkpt lat="49.8683474" lon="19.3067994"/>
      <trkpt lat="49.8683766" lon="19.306715"/>
      <trkpt lat="49.8683509" lon="19.3066391"/>
      <trkpt lat="49.8683115" lon="19.30657"/>
      <trkpt lat="49.8682755" lon="19.3065196"/>
      <trkpt lat="49.8682415" lon="19.3064651"/>
      <trkpt lat="49.8682098" lon="19.3064138"/>
      <trkpt lat="49.8681487" lon="19.3063165"/>
      <trkpt lat="49.8680409" lon="19.3061019"/>
      <trkpt lat="49.8680096" lon="19.306032"/>
      <trkpt lat="49.8679659" lon="19.3059557"/>
      <trkpt lat="49.8678277" lon="19.3055165"/>
      <trkpt lat="49.8677731" lon="19.30541"/>
      <trkpt lat="49.8677258" lon="19.3053175"/>
      <trkpt lat="49.8676747" lon="19.3052033"/>
      <trkpt lat="49.8676166" lon="19.3050924"/>
      <trkpt lat="49.8675598" lon="19.3049781"/>
      <trkpt lat="49.8674844" lon="19.3048191"/>
      <trkpt lat="49.8673867" lon="19.3046164"/>
      <trkpt lat="49.8672954" lon="19.3044198"/>
      <trkpt lat="49.8671829" lon="19.3041984"/>
      <trkpt lat="49.8670692" lon="19.3040123"/>
      <trkpt lat="49.8669728" lon="19.3039067"/>
      <trkpt lat="49.8667799" lon="19.3037153"/>
      <trkpt lat="49.8665518" lon="19.3035168"/>
      <trkpt lat="49.8664288" lon="19.3034036"/>
      <trkpt lat="49.8662936" lon="19.3032896"/>
      <trkpt lat="49.8660686" lon="19.303065"/>
      <trkpt lat="49.86595" lon="19.302974"/>
      <trkpt lat="49.8658387" lon="19.3028748"/>
      <trkpt lat="49.8657098" lon="19.3027508"/>
      <trkpt lat="49.865595" lon="19.3026591"/>
      <trkpt lat="49.8654879" lon="19.3025826"/>
      <trkpt lat="49.8653731" lon="19.3024878"/>
      <trkpt lat="49.8651479" lon="19.30228"/>
      <trkpt lat="49.8650521" lon="19.3021907"/>
      <trkpt lat="49.8649542" lon="19.3020906"/>
      <trkpt lat="49.8648524" lon="19.3019847"/>
      <trkpt lat="49.8646888" lon="19.3017528"/>
      <trkpt lat="49.8646051" lon="19.3016527"/>
      <trkpt lat="49.8645176" lon="19.3015476"/>
      <trkpt lat="49.8644447" lon="19.3014238"/>
      <trkpt lat="49.8643205" lon="19.3012053"/>
      <trkpt lat="49.8642453" lon="19.3010831"/>
      <trkpt lat="49.8641202" lon="19.3008673"/>
      <trkpt lat="49.8640507" lon="19.3007569"/>
      <trkpt lat="49.8639116" lon="19.3005303"/>
      <trkpt lat="49.8638278" lon="19.3004077"/>
      <trkpt lat="49.8637544" lon="19.3002774"/>
      <trkpt lat="49.8636843" lon="19.3001616"/>
      <trkpt lat="49.8636124" lon="19.3000434"/>
      <trkpt lat="49.8635467" lon="19.2999319"/>
      <trkpt lat="49.8634814" lon="19.2997989"/>
      <trkpt lat="49.8634025" lon="19.2996753"/>
      <trkpt lat="49.8632759" lon="19.2994482"/>
      <trkpt lat="49.8632091" lon="19.2993267"/>
      <trkpt lat="49.8631436" lon="19.2992166"/>
      <trkpt lat="49.8630666" lon="19.2990811"/>
      <trkpt lat="49.8629309" lon="19.2988513"/>
      <trkpt lat="49.86286" lon="19.2987383"/>
      <trkpt lat="49.8627917" lon="19.2986353"/>
      <trkpt lat="49.8627197" lon="19.2985219"/>
      <trkpt lat="49.8626413" lon="19.2984191"/>
      <trkpt lat="49.8625672" lon="19.2982983"/>
      <trkpt lat="49.8624354" lon="19.2980946"/>
      <trkpt lat="49.8623743" lon="19.2979787"/>
      <trkpt lat="49.8623119" lon="19.2978414"/>
      <trkpt lat="49.8622595" lon="19.2977174"/>
      <trkpt lat="49.862208" lon="19.297608"/>
      <trkpt lat="49.8621435" lon="19.297339"/>
      <trkpt lat="49.8620877" lon="19.2972331"/>
      <trkpt lat="49.8619411" lon="19.2970564"/>
      <trkpt lat="49.8618217" lon="19.2970198"/>
      <trkpt lat="49.8615946" lon="19.2969288"/>
      <trkpt lat="49.8614935" lon="19.2968987"/>
      <trkpt lat="49.8613996" lon="19.2968346"/>
      <trkpt lat="49.8613106" lon="19.2967725"/>
      <trkpt lat="49.8612248" lon="19.2966918"/>
      <trkpt lat="49.861146" lon="19.2965918"/>
      <trkpt lat="49.861065" lon="19.2964744"/>
      <trkpt lat="49.8609891" lon="19.2963716"/>
      <trkpt lat="49.8609159" lon="19.2962606"/>
      <trkpt lat="49.8608132" lon="19.2961374"/>
      <trkpt lat="49.8606588" lon="19.2959903"/>
      <trkpt lat="49.8605697" lon="19.295923"/>
      <trkpt lat="49.8604725" lon="19.2958437"/>
      <trkpt lat="49.8603898" lon="19.295779"/>
      <trkpt lat="49.8602976" lon="19.2957067"/>
      <trkpt lat="49.8601872" lon="19.2956264"/>
      <trkpt lat="49.8600134" lon="19.2954831"/>
      <trkpt lat="49.8599163" lon="19.2954143"/>
      <trkpt lat="49.8598294" lon="19.2953491"/>
      <trkpt lat="49.8597384" lon="19.2952774"/>
      <trkpt lat="49.8596169" lon="19.2951861"/>
      <trkpt lat="49.8594388" lon="19.2950472"/>
      <trkpt lat="49.8593453" lon="19.2949728"/>
      <trkpt lat="49.859249" lon="19.294896"/>
      <trkpt lat="49.8591232" lon="19.2948055"/>
      <trkpt lat="49.8589333" lon="19.2946557"/>
      <trkpt lat="49.8588364" lon="19.2945816"/>
      <trkpt lat="49.8587251" lon="19.2944972"/>
      <trkpt lat="49.8585231" lon="19.2943454"/>
      <trkpt lat="49.8584159" lon="19.2942622"/>
      <trkpt lat="49.8583123" lon="19.2941814"/>
      <trkpt lat="49.8582102" lon="19.2941027"/>
      <trkpt lat="49.8580284" lon="19.2939598"/>
      <trkpt lat="49.8579233" lon="19.2938828"/>
      <trkpt lat="49.8578196" lon="19.2937966"/>
      <trkpt lat="49.8577096" lon="19.2937229"/>
      <trkpt lat="49.8576229" lon="19.2936491"/>
      <trkpt lat="49.8575025" lon="19.2935881"/>
      <trkpt lat="49.8573893" lon="19.2935016"/>
      <trkpt lat="49.8572989" lon="19.2934329"/>
      <trkpt lat="49.8572062" lon="19.2933569"/>
      <trkpt lat="49.8571161" lon="19.2932795"/>
      <trkpt lat="49.8569992" lon="19.2931888"/>
      <trkpt lat="49.8568089" lon="19.293044"/>
      <trkpt lat="49.8566688" lon="19.29295"/>
      <trkpt lat="49.8566002" lon="19.2929042"/>
      <trkpt lat="49.8565213" lon="19.2928519"/>
      <trkpt lat="49.8564601" lon="19.2928111"/>
      <trkpt lat="49.8563852" lon="19.2927418"/>
      <trkpt lat="49.856325" lon="19.2926818"/>
      <trkpt lat="49.8562612" lon="19.2926417"/>
      <trkpt lat="49.8561937" lon="19.292624"/>
      <trkpt lat="49.8561152" lon="19.2926363"/>
      <trkpt lat="49.8560529" lon="19.2926806"/>
      <trkpt lat="49.8559764" lon="19.2928622"/>
      <trkpt lat="49.8559533" lon="19.2929684"/>
      <trkpt lat="49.8559129" lon="19.2930829"/>
      <trkpt lat="49.8558783" lon="19.2931754"/>
      <trkpt lat="49.8558484" lon="19.2932751"/>
      <trkpt lat="49.8558087" lon="19.2933962"/>
      <trkpt lat="49.8557783" lon="19.2934954"/>
      <trkpt lat="49.8557405" lon="19.293608"/>
      <trkpt lat="49.8556925" lon="19.293704"/>
      <trkpt lat="49.8556215" lon="19.2937766"/>
      <trkpt lat="49.8555472" lon="19.2938184"/>
      <trkpt lat="49.8554688" lon="19.2938057"/>
      <trkpt lat="49.8553688" lon="19.2937195"/>
      <trkpt lat="49.8553129" lon="19.2936466"/>
      <trkpt lat="49.8552686" lon="19.2935832"/>
      <trkpt lat="49.8552217" lon="19.2935224"/>
      <trkpt lat="49.8551659" lon="19.2934474"/>
      <trkpt lat="49.8551155" lon="19.2933778"/>
      <trkpt lat="49.8550634" lon="19.2933136"/>
      <trkpt lat="49.855004" lon="19.2932359"/>
      <trkpt lat="49.8549335" lon="19.2931532"/>
      <trkpt lat="49.8548082" lon="19.2928102"/>
      <trkpt lat="49.8547365" lon="19.2927136"/>
      <trkpt lat="49.8546651" lon="19.2926235"/>
      <trkpt lat="49.8545924" lon="19.2925409"/>
      <trkpt lat="49.8545055" lon="19.2924467"/>
      <trkpt lat="49.8544333" lon="19.2923748"/>
      <trkpt lat="49.8542745" lon="19.2922163"/>
      <trkpt lat="49.8541883" lon="19.2921328"/>
      <trkpt lat="49.8541134" lon="19.2920542"/>
      <trkpt lat="49.8539496" lon="19.2919011"/>
      <trkpt lat="49.8537948" lon="19.2917545"/>
      <trkpt lat="49.8537019" lon="19.2916575"/>
      <trkpt lat="49.853617" lon="19.2915625"/>
      <trkpt lat="49.8535357" lon="19.2914695"/>
      <trkpt lat="49.8534589" lon="19.2913801"/>
      <trkpt lat="49.8533728" lon="19.2912785"/>
      <trkpt lat="49.8532777" lon="19.2911626"/>
      <trkpt lat="49.8531933" lon="19.2910656"/>
      <trkpt lat="49.8531157" lon="19.2909673"/>
      <trkpt lat="49.8530237" lon="19.2908577"/>
      <trkpt lat="49.8528653" lon="19.2906545"/>
      <trkpt lat="49.8527828" lon="19.2905591"/>
      <trkpt lat="49.8527032" lon="19.290441"/>
      <trkpt lat="49.8526312" lon="19.2902811"/>
      <trkpt lat="49.8525407" lon="19.2900857"/>
      <trkpt lat="49.8524857" lon="19.2899693"/>
      <trkpt lat="49.8524325" lon="19.2898623"/>
      <trkpt lat="49.8523673" lon="19.2897306"/>
      <trkpt lat="49.8523032" lon="19.289622"/>
      <trkpt lat="49.8522321" lon="19.289525"/>
      <trkpt lat="49.8521612" lon="19.2894342"/>
      <trkpt lat="49.8520832" lon="19.2893562"/>
      <trkpt lat="49.851999" lon="19.2892816"/>
      <trkpt lat="49.8519213" lon="19.2892093"/>
      <trkpt lat="49.8518445" lon="19.2891534"/>
      <trkpt lat="49.851771" lon="19.2890923"/>
      <trkpt lat="49.8516829" lon="19.2890262"/>
      <trkpt lat="49.8516119" lon="19.2889692"/>
      <trkpt lat="49.8515298" lon="19.2889064"/>
      <trkpt lat="49.8514492" lon="19.2888386"/>
      <trkpt lat="49.8513696" lon="19.2887674"/>
      <trkpt lat="49.8512967" lon="19.2887003"/>
      <trkpt lat="49.8512212" lon="19.2886141"/>
      <trkpt lat="49.8511478" lon="19.2885031"/>
      <trkpt lat="49.8511" lon="19.2884072"/>
      <trkpt lat="49.8510392" lon="19.2883027"/>
      <trkpt lat="49.8509835" lon="19.2881969"/>
      <trkpt lat="49.8509312" lon="19.2880951"/>
      <trkpt lat="49.85087" lon="19.2879779"/>
      <trkpt lat="49.8507441" lon="19.2878174"/>
      <trkpt lat="49.8506717" lon="19.2877481"/>
      <trkpt lat="49.8505998" lon="19.2876857"/>
      <trkpt lat="49.8505179" lon="19.2876238"/>
      <trkpt lat="49.8503698" lon="19.2875225"/>
      <trkpt lat="49.8502965" lon="19.2874722"/>
      <trkpt lat="49.8502205" lon="19.2874233"/>
      <trkpt lat="49.8501425" lon="19.2873738"/>
      <trkpt lat="49.8500086" lon="19.2872899"/>
      <trkpt lat="49.8499036" lon="19.2872274"/>
      <trkpt lat="49.8498536" lon="19.2871694"/>
    </trkseg>
  </trk>
</gpx>
