<?xml version="1.0" encoding="UTF-8"?>
<gpx version="1.1" creator="Where Am I App" xmlns="http://www.topografix.com/GPX/1/1">
  <metadata>
    <name>Trip on 2026-09-09 10:21</name>
    <time>2026-09-09T08:21:36Z</time>
  </metadata>
  <wpt lat="49.8499319" lon="19.2873559">
    <name>Czaniec</name>
    <desc>pow. bielski • woj. śląskie</desc>
    <time>2026-09-09T08:21:36Z</time>
  </wpt>
  <wpt lat="49.8511364" lon="19.2885185">
    <name>Bulowice</name>
    <desc>pow. oświęcimski • woj. małopolskie</desc>
    <time>2026-09-09T08:21:53Z</time>
  </wpt>
  <wpt lat="49.8606075" lon="19.3208471">
    <name>Andrychów</name>
    <desc>pow. wadowicki • woj. małopolskie</desc>
    <time>2026-09-09T08:26:54Z</time>
  </wpt>
  <wpt lat="49.8574305" lon="19.3673164">
    <name>Inwałd</name>
    <desc>pow. wadowicki • woj. małopolskie</desc>
    <time>2026-09-09T08:36:57Z</time>
  </wpt>
  <wpt lat="49.8685514" lon="19.4230965">
    <name>Chocznia</name>
    <desc>pow. wadowicki • woj. małopolskie</desc>
    <time>2026-09-09T08:41:16Z</time>
  </wpt>
  <wpt lat="49.8846134" lon="19.4741881">
    <name>Wadowice</name>
    <desc>pow. wadowicki • woj. małopolskie</desc>
    <time>2026-09-09T08:46:32Z</time>
  </wpt>
  <wpt lat="49.8752033" lon="19.5193905">
    <name>Jaroszowice</name>
    <desc>pow. wadowicki • woj. małopolskie</desc>
    <time>2026-09-09T08:57:52Z</time>
  </wpt>
  <wpt lat="49.8743655" lon="19.5249785">
    <name>Klecza Dolna</name>
    <desc>pow. wadowicki • woj. małopolskie</desc>
    <time>2026-09-09T08:58:18Z</time>
  </wpt>
  <wpt lat="49.8726973" lon="19.5343665">
    <name>Klecza Górna</name>
    <desc>pow. wadowicki • woj. małopolskie</desc>
    <time>2026-09-09T08:59:11Z</time>
  </wpt>
  <wpt lat="49.8724507" lon="19.53557">
    <name>Klecza Dolna</name>
    <desc>pow. wadowicki • woj. małopolskie</desc>
    <time>2026-09-09T08:59:17Z</time>
  </wpt>
  <wpt lat="49.869697" lon="19.5487787">
    <name>Klecza Górna</name>
    <desc>pow. wadowicki • woj. małopolskie</desc>
    <time>2026-09-09T09:00:30Z</time>
  </wpt>
  <wpt lat="49.8696008" lon="19.5497998">
    <name>Klecza Dolna</name>
    <desc>pow. wadowicki • woj. małopolskie</desc>
    <time>2026-09-09T09:00:35Z</time>
  </wpt>
  <wpt lat="49.8683181" lon="19.5557322">
    <name>Klecza Górna</name>
    <desc>pow. wadowicki • woj. małopolskie</desc>
    <time>2026-09-09T09:01:02Z</time>
  </wpt>
  <wpt lat="49.8676605" lon="19.557985">
    <name>Klecza Dolna</name>
    <desc>pow. wadowicki • woj. małopolskie</desc>
    <time>2026-09-09T09:01:13Z</time>
  </wpt>
  <wpt lat="49.867133" lon="19.5598039">
    <name>Klecza Górna</name>
    <desc>pow. wadowicki • woj. małopolskie</desc>
    <time>2026-09-09T09:01:22Z</time>
  </wpt>
  <wpt lat="49.8668846" lon="19.5608418">
    <name>Klecza Dolna</name>
    <desc>pow. wadowicki • woj. małopolskie</desc>
    <time>2026-09-09T09:01:27Z</time>
  </wpt>
  <wpt lat="49.8667856" lon="19.5619275">
    <name>Klecza Górna</name>
    <desc>pow. wadowicki • woj. małopolskie</desc>
    <time>2026-09-09T09:01:32Z</time>
  </wpt>
  <wpt lat="49.8663967" lon="19.5667444">
    <name>Barwałd Dolny</name>
    <desc>pow. wadowicki • woj. małopolskie</desc>
    <time>2026-09-09T09:01:52Z</time>
  </wpt>
  <wpt lat="49.8656853" lon="19.5763161">
    <name>Klecza Górna</name>
    <desc>pow. wadowicki • woj. małopolskie</desc>
    <time>2026-09-09T09:02:32Z</time>
  </wpt>
  <wpt lat="49.865618" lon="19.5772286">
    <name>Barwałd Dolny</name>
    <desc>pow. wadowicki • woj. małopolskie</desc>
    <time>2026-09-09T09:02:36Z</time>
  </wpt>
  <wpt lat="49.8652621" lon="19.5817143">
    <name>Klecza Górna</name>
    <desc>pow. wadowicki • woj. małopolskie</desc>
    <time>2026-09-09T09:02:56Z</time>
  </wpt>
  <wpt lat="49.865111" lon="19.5833406">
    <name>Barwałd Średni</name>
    <desc>pow. wadowicki • woj. małopolskie</desc>
    <time>2026-09-09T09:03:03Z</time>
  </wpt>
  <wpt lat="49.8645678" lon="19.6054354">
    <name>Klecza Górna</name>
    <desc>pow. wadowicki • woj. małopolskie</desc>
    <time>2026-09-09T09:04:48Z</time>
  </wpt>
  <wpt lat="49.8644833" lon="19.6065259">
    <name>Barwałd Górny</name>
    <desc>pow. wadowicki • woj. małopolskie</desc>
    <time>2026-09-09T09:04:53Z</time>
  </wpt>
  <wpt lat="49.8654207" lon="19.6228538">
    <name>Kalwaria Zebrzydowska</name>
    <desc>pow. wadowicki • woj. małopolskie</desc>
    <time>2026-09-09T09:06:14Z</time>
  </wpt>
  <wpt lat="49.8658388" lon="19.623548">
    <name>Barwałd Górny</name>
    <desc>pow. wadowicki • woj. małopolskie</desc>
    <time>2026-09-09T09:06:18Z</time>
  </wpt>
  <wpt lat="49.8686302" lon="19.6314764">
    <name>Kalwaria Zebrzydowska</name>
    <desc>pow. wadowicki • woj. małopolskie</desc>
    <time>2026-09-09T09:06:57Z</time>
  </wpt>
  <wpt lat="49.8689028" lon="19.632499">
    <name>Barwałd Górny</name>
    <desc>pow. wadowicki • woj. małopolskie</desc>
    <time>2026-09-09T09:07:02Z</time>
  </wpt>
  <trk>
    <name>Trip on 2026-09-09 10:21</name>
    <trkseg>
      <trkpt lat="49.8499319" lon="19.2873559"/>
      <trkpt lat="49.8511364" lon="19.2885185"/>
      <trkpt lat="49.8512028" lon="19.2886163"/>
      <trkpt lat="49.8512783" lon="19.2887156"/>
      <trkpt lat="49.851362" lon="19.2888087"/>
      <trkpt lat="49.8514465" lon="19.288881"/>
      <trkpt lat="49.8515419" lon="19.288959"/>
      <trkpt lat="49.8516646" lon="19.2890343"/>
      <trkpt lat="49.8517589" lon="19.2890993"/>
      <trkpt lat="49.8518473" lon="19.2891677"/>
      <trkpt lat="49.8519338" lon="19.2892465"/>
      <trkpt lat="49.8520322" lon="19.2893288"/>
      <trkpt lat="49.8521432" lon="19.2894171"/>
      <trkpt lat="49.8522482" lon="19.2895063"/>
      <trkpt lat="49.8523405" lon="19.2896365"/>
      <trkpt lat="49.8524142" lon="19.2897547"/>
      <trkpt lat="49.8524809" lon="19.2899046"/>
      <trkpt lat="49.8525516" lon="19.2900468"/>
      <trkpt lat="49.8526045" lon="19.2901912"/>
      <trkpt lat="49.8526639" lon="19.2903363"/>
      <trkpt lat="49.8527323" lon="19.2904732"/>
      <trkpt lat="49.8528114" lon="19.2906228"/>
      <trkpt lat="49.8529684" lon="19.2908648"/>
      <trkpt lat="49.853058" lon="19.2909956"/>
      <trkpt lat="49.853211" lon="19.2911888"/>
      <trkpt lat="49.8532887" lon="19.2912874"/>
      <trkpt lat="49.8533729" lon="19.2913924"/>
      <trkpt lat="49.8534517" lon="19.2914794"/>
      <trkpt lat="49.8535423" lon="19.2915724"/>
      <trkpt lat="49.8536265" lon="19.2916619"/>
      <trkpt lat="49.8537057" lon="19.2917472"/>
      <trkpt lat="49.8538009" lon="19.2918505"/>
      <trkpt lat="49.8539607" lon="19.292003"/>
      <trkpt lat="49.8540482" lon="19.2920834"/>
      <trkpt lat="49.8541267" lon="19.2921623"/>
      <trkpt lat="49.8542209" lon="19.2922389"/>
      <trkpt lat="49.8543895" lon="19.2923832"/>
      <trkpt lat="49.8544897" lon="19.2924768"/>
      <trkpt lat="49.8545744" lon="19.292569"/>
      <trkpt lat="49.8546746" lon="19.2926781"/>
      <trkpt lat="49.8547577" lon="19.2927843"/>
      <trkpt lat="49.8548342" lon="19.2928797"/>
      <trkpt lat="49.8549184" lon="19.2929956"/>
      <trkpt lat="49.8550031" lon="19.2931282"/>
      <trkpt lat="49.8551518" lon="19.2933998"/>
      <trkpt lat="49.8552215" lon="19.2935191"/>
      <trkpt lat="49.855279" lon="19.293657"/>
      <trkpt lat="49.8553409" lon="19.2937711"/>
      <trkpt lat="49.8553949" lon="19.2938779"/>
      <trkpt lat="49.8554538" lon="19.2939242"/>
      <trkpt lat="49.8555813" lon="19.2938964"/>
      <trkpt lat="49.8556487" lon="19.2938368"/>
      <trkpt lat="49.8557053" lon="19.2937769"/>
      <trkpt lat="49.8557465" lon="19.2936823"/>
      <trkpt lat="49.8557786" lon="19.2935818"/>
      <trkpt lat="49.8558212" lon="19.2934582"/>
      <trkpt lat="49.8558592" lon="19.2933372"/>
      <trkpt lat="49.8558895" lon="19.2932101"/>
      <trkpt lat="49.8559272" lon="19.293107"/>
      <trkpt lat="49.8559682" lon="19.2929707"/>
      <trkpt lat="49.8560005" lon="19.2928561"/>
      <trkpt lat="49.8560552" lon="19.2927459"/>
      <trkpt lat="49.8561246" lon="19.2926841"/>
      <trkpt lat="49.8561978" lon="19.2926426"/>
      <trkpt lat="49.8563072" lon="19.2926334"/>
      <trkpt lat="49.8565044" lon="19.2927398"/>
      <trkpt lat="49.8565862" lon="19.292792"/>
      <trkpt lat="49.856668" lon="19.2928652"/>
      <trkpt lat="49.8567719" lon="19.2929548"/>
      <trkpt lat="49.8568803" lon="19.2930235"/>
      <trkpt lat="49.8569837" lon="19.2930963"/>
      <trkpt lat="49.8570861" lon="19.2931567"/>
      <trkpt lat="49.8571818" lon="19.2932351"/>
      <trkpt lat="49.8572802" lon="19.2933171"/>
      <trkpt lat="49.8573863" lon="19.2933956"/>
      <trkpt lat="49.8574833" lon="19.293498"/>
      <trkpt lat="49.8575846" lon="19.2935999"/>
      <trkpt lat="49.8576857" lon="19.2936896"/>
      <trkpt lat="49.8578023" lon="19.2937854"/>
      <trkpt lat="49.8579044" lon="19.2938762"/>
      <trkpt lat="49.8580082" lon="19.2939717"/>
      <trkpt lat="49.8581174" lon="19.2940622"/>
      <trkpt lat="49.8582262" lon="19.294146"/>
      <trkpt lat="49.8583257" lon="19.2942266"/>
      <trkpt lat="49.8584332" lon="19.2943147"/>
      <trkpt lat="49.8585456" lon="19.2944002"/>
      <trkpt lat="49.858637" lon="19.2944742"/>
      <trkpt lat="49.8587393" lon="19.2945497"/>
      <trkpt lat="49.858847" lon="19.2946252"/>
      <trkpt lat="49.8589547" lon="19.2947"/>
      <trkpt lat="49.8590552" lon="19.2947837"/>
      <trkpt lat="49.859157" lon="19.294865"/>
      <trkpt lat="49.8592675" lon="19.2949475"/>
      <trkpt lat="49.859374" lon="19.2950343"/>
      <trkpt lat="49.8594823" lon="19.2951124"/>
      <trkpt lat="49.8595942" lon="19.2951996"/>
      <trkpt lat="49.8596999" lon="19.2952782"/>
      <trkpt lat="49.8599278" lon="19.2954494"/>
      <trkpt lat="49.8600485" lon="19.2955361"/>
      <trkpt lat="49.8602811" lon="19.2957181"/>
      <trkpt lat="49.8604005" lon="19.2958049"/>
      <trkpt lat="49.8605166" lon="19.2958962"/>
      <trkpt lat="49.8606347" lon="19.2959875"/>
      <trkpt lat="49.8607398" lon="19.2960814"/>
      <trkpt lat="49.8608375" lon="19.2961888"/>
      <trkpt lat="49.8609429" lon="19.2963124"/>
      <trkpt lat="49.8610332" lon="19.2964158"/>
      <trkpt lat="49.861121" lon="19.2965319"/>
      <trkpt lat="49.8612109" lon="19.2966533"/>
      <trkpt lat="49.8613074" lon="19.2967722"/>
      <trkpt lat="49.8614033" lon="19.2968756"/>
      <trkpt lat="49.861511" lon="19.2969285"/>
      <trkpt lat="49.8616222" lon="19.2969844"/>
      <trkpt lat="49.8617343" lon="19.2970324"/>
      <trkpt lat="49.8618489" lon="19.2970842"/>
      <trkpt lat="49.8619684" lon="19.2971707"/>
      <trkpt lat="49.8621326" lon="19.2974117"/>
      <trkpt lat="49.8622035" lon="19.2975551"/>
      <trkpt lat="49.8622741" lon="19.2977207"/>
      <trkpt lat="49.862332" lon="19.2978727"/>
      <trkpt lat="49.8624047" lon="19.2980168"/>
      <trkpt lat="49.8625525" lon="19.2982726"/>
      <trkpt lat="49.8626323" lon="19.2983997"/>
      <trkpt lat="49.8627235" lon="19.2985469"/>
      <trkpt lat="49.8628792" lon="19.2987823"/>
      <trkpt lat="49.8629536" lon="19.2989086"/>
      <trkpt lat="49.8630284" lon="19.2990297"/>
      <trkpt lat="49.8631057" lon="19.2991648"/>
      <trkpt lat="49.863183" lon="19.2993024"/>
      <trkpt lat="49.8632606" lon="19.2994325"/>
      <trkpt lat="49.8633451" lon="19.299579"/>
      <trkpt lat="49.8634254" lon="19.2997094"/>
      <trkpt lat="49.8635007" lon="19.2998473"/>
      <trkpt lat="49.8635813" lon="19.2999829"/>
      <trkpt lat="49.8636642" lon="19.3001236"/>
      <trkpt lat="49.8637436" lon="19.3002578"/>
      <trkpt lat="49.8638353" lon="19.3004097"/>
      <trkpt lat="49.8639256" lon="19.3005602"/>
      <trkpt lat="49.864006" lon="19.3006922"/>
      <trkpt lat="49.8640978" lon="19.3008406"/>
      <trkpt lat="49.8641828" lon="19.3009843"/>
      <trkpt lat="49.8642626" lon="19.3011169"/>
      <trkpt lat="49.8643548" lon="19.3012698"/>
      <trkpt lat="49.8644372" lon="19.3013972"/>
      <trkpt lat="49.8645251" lon="19.3015565"/>
      <trkpt lat="49.8646231" lon="19.3016908"/>
      <trkpt lat="49.8647056" lon="19.3018094"/>
      <trkpt lat="49.8648132" lon="19.3019598"/>
      <trkpt lat="49.8649181" lon="19.3021183"/>
      <trkpt lat="49.8650207" lon="19.302232"/>
      <trkpt lat="49.8651239" lon="19.302325"/>
      <trkpt lat="49.8652528" lon="19.3024382"/>
      <trkpt lat="49.8653709" lon="19.3025366"/>
      <trkpt lat="49.8654798" lon="19.3026369"/>
      <trkpt lat="49.8655991" lon="19.3027446"/>
      <trkpt lat="49.8657054" lon="19.3028421"/>
      <trkpt lat="49.8658161" lon="19.3029388"/>
      <trkpt lat="49.8659337" lon="19.303045"/>
      <trkpt lat="49.8660424" lon="19.3031316"/>
      <trkpt lat="49.8661356" lon="19.3032252"/>
      <trkpt lat="49.8662445" lon="19.3033343"/>
      <trkpt lat="49.8663391" lon="19.3034142"/>
      <trkpt lat="49.8664445" lon="19.3035049"/>
      <trkpt lat="49.8666269" lon="19.3036939"/>
      <trkpt lat="49.8667102" lon="19.303781"/>
      <trkpt lat="49.8667991" lon="19.3038618"/>
      <trkpt lat="49.8669032" lon="19.3039458"/>
      <trkpt lat="49.8670001" lon="19.3040375"/>
      <trkpt lat="49.8670795" lon="19.3041212"/>
      <trkpt lat="49.8671721" lon="19.3042433"/>
      <trkpt lat="49.8672811" lon="19.3044486"/>
      <trkpt lat="49.867336" lon="19.3045847"/>
      <trkpt lat="49.8673976" lon="19.3046926"/>
      <trkpt lat="49.8674753" lon="19.3048402"/>
      <trkpt lat="49.8675831" lon="19.3050053"/>
      <trkpt lat="49.8676366" lon="19.3051112"/>
      <trkpt lat="49.8676821" lon="19.3052193"/>
      <trkpt lat="49.8677439" lon="19.3053346"/>
      <trkpt lat="49.8677919" lon="19.3054285"/>
      <trkpt lat="49.8678413" lon="19.3055396"/>
      <trkpt lat="49.8678895" lon="19.3056386"/>
      <trkpt lat="49.8679632" lon="19.305801"/>
      <trkpt lat="49.8679908" lon="19.3058841"/>
      <trkpt lat="49.8680469" lon="19.3059924"/>
      <trkpt lat="49.868084" lon="19.306076"/>
      <trkpt lat="49.8681284" lon="19.3061675"/>
      <trkpt lat="49.8681609" lon="19.3062482"/>
      <trkpt lat="49.8681972" lon="19.3063314"/>
      <trkpt lat="49.8682285" lon="19.3064052"/>
      <trkpt lat="49.8682683" lon="19.3064915"/>
      <trkpt lat="49.8682882" lon="19.3065594"/>
      <trkpt lat="49.8683166" lon="19.306619"/>
      <trkpt lat="49.8682735" lon="19.3068784"/>
      <trkpt lat="49.8682377" lon="19.3069502"/>
      <trkpt lat="49.8681889" lon="19.3070345"/>
      <trkpt lat="49.8681324" lon="19.3071372"/>
      <trkpt lat="49.868082" lon="19.3072353"/>
      <trkpt lat="49.8680235" lon="19.3073452"/>
      <trkpt lat="49.8679598" lon="19.3074532"/>
      <trkpt lat="49.8678943" lon="19.3075889"/>
      <trkpt lat="49.8678135" lon="19.3077377"/>
      <trkpt lat="49.8677431" lon="19.3078654"/>
      <trkpt lat="49.8676643" lon="19.3080088"/>
      <trkpt lat="49.8675925" lon="19.308145"/>
      <trkpt lat="49.8675165" lon="19.3082795"/>
      <trkpt lat="49.8674331" lon="19.3084269"/>
      <trkpt lat="49.8673397" lon="19.3085966"/>
      <trkpt lat="49.8672465" lon="19.3087693"/>
      <trkpt lat="49.8671715" lon="19.3089121"/>
      <trkpt lat="49.8670903" lon="19.3090532"/>
      <trkpt lat="49.867" lon="19.3092071"/>
      <trkpt lat="49.8669172" lon="19.3093668"/>
      <trkpt lat="49.8668282" lon="19.3095112"/>
      <trkpt lat="49.866739" lon="19.309676"/>
      <trkpt lat="49.8666515" lon="19.3098344"/>
      <trkpt lat="49.8665622" lon="19.3099878"/>
      <trkpt lat="49.8664818" lon="19.3101399"/>
      <trkpt lat="49.8663996" lon="19.3102882"/>
      <trkpt lat="49.8606075" lon="19.3208471"/>
      <trkpt lat="49.860524" lon="19.320999"/>
      <trkpt lat="49.8604316" lon="19.3211595"/>
      <trkpt lat="49.8603546" lon="19.3213118"/>
      <trkpt lat="49.8602752" lon="19.3214477"/>
      <trkpt lat="49.8601825" lon="19.3215656"/>
      <trkpt lat="49.8601183" lon="19.3216561"/>
      <trkpt lat="49.8600504" lon="19.3217392"/>
      <trkpt lat="49.8599123" lon="19.3217659"/>
      <trkpt lat="49.8598327" lon="19.3218157"/>
      <trkpt lat="49.8597877" lon="19.321905"/>
      <trkpt lat="49.859775" lon="19.3220347"/>
      <trkpt lat="49.8597808" lon="19.322145"/>
      <trkpt lat="49.8597621" lon="19.3222532"/>
      <trkpt lat="49.8597356" lon="19.3223433"/>
      <trkpt lat="49.859689" lon="19.3224499"/>
      <trkpt lat="49.8596476" lon="19.3225403"/>
      <trkpt lat="49.8595941" lon="19.3226493"/>
      <trkpt lat="49.8595443" lon="19.322742"/>
      <trkpt lat="49.8594816" lon="19.3228557"/>
      <trkpt lat="49.8594274" lon="19.3229572"/>
      <trkpt lat="49.8593584" lon="19.3230837"/>
      <trkpt lat="49.8592393" lon="19.3233015"/>
      <trkpt lat="49.8591616" lon="19.3234379"/>
      <trkpt lat="49.8590928" lon="19.3235536"/>
      <trkpt lat="49.8590225" lon="19.3236874"/>
      <trkpt lat="49.8588863" lon="19.3239382"/>
      <trkpt lat="49.8588214" lon="19.3240566"/>
      <trkpt lat="49.8586991" lon="19.3242807"/>
      <trkpt lat="49.858622" lon="19.3244244"/>
      <trkpt lat="49.8585529" lon="19.3245587"/>
      <trkpt lat="49.858462" lon="19.3247305"/>
      <trkpt lat="49.8568703" lon="19.3304362"/>
      <trkpt lat="49.8568147" lon="19.3307402"/>
      <trkpt lat="49.8565972" lon="19.3316305"/>
      <trkpt lat="49.8565013" lon="19.3320155"/>
      <trkpt lat="49.8562585" lon="19.333022"/>
      <trkpt lat="49.8561226" lon="19.3335139"/>
      <trkpt lat="49.8560625" lon="19.3337269"/>
      <trkpt lat="49.8559466" lon="19.3342884"/>
      <trkpt lat="49.8558997" lon="19.3344408"/>
      <trkpt lat="49.8558108" lon="19.3347793"/>
      <trkpt lat="49.8557627" lon="19.3349915"/>
      <trkpt lat="49.8557407" lon="19.3350689"/>
      <trkpt lat="49.8557143" lon="19.3351558"/>
      <trkpt lat="49.8556872" lon="19.3352457"/>
      <trkpt lat="49.8556575" lon="19.3353399"/>
      <trkpt lat="49.8556287" lon="19.3354384"/>
      <trkpt lat="49.8556021" lon="19.3355356"/>
      <trkpt lat="49.8555784" lon="19.3356295"/>
      <trkpt lat="49.8555566" lon="19.3357335"/>
      <trkpt lat="49.8555186" lon="19.3359"/>
      <trkpt lat="49.8554974" lon="19.3359958"/>
      <trkpt lat="49.8554783" lon="19.3360864"/>
      <trkpt lat="49.8554436" lon="19.3362398"/>
      <trkpt lat="49.8554241" lon="19.3363245"/>
      <trkpt lat="49.8554066" lon="19.3363957"/>
      <trkpt lat="49.8553871" lon="19.3364586"/>
      <trkpt lat="49.8553673" lon="19.3365368"/>
      <trkpt lat="49.8553302" lon="19.3366871"/>
      <trkpt lat="49.8553063" lon="19.3367862"/>
      <trkpt lat="49.8552829" lon="19.3368813"/>
      <trkpt lat="49.8552609" lon="19.3369792"/>
      <trkpt lat="49.8552343" lon="19.337089"/>
      <trkpt lat="49.8552091" lon="19.3371947"/>
      <trkpt lat="49.8551828" lon="19.3373156"/>
      <trkpt lat="49.8551563" lon="19.3374393"/>
      <trkpt lat="49.8551372" lon="19.3375453"/>
      <trkpt lat="49.8551133" lon="19.3376602"/>
      <trkpt lat="49.8550663" lon="19.3378689"/>
      <trkpt lat="49.8550466" lon="19.337954"/>
      <trkpt lat="49.8550253" lon="19.3380498"/>
      <trkpt lat="49.8549973" lon="19.338175"/>
      <trkpt lat="49.8549704" lon="19.3382815"/>
      <trkpt lat="49.8549459" lon="19.3383554"/>
      <trkpt lat="49.8549253" lon="19.3384428"/>
      <trkpt lat="49.8549084" lon="19.3385439"/>
      <trkpt lat="49.8548974" lon="19.3387498"/>
      <trkpt lat="49.8548931" lon="19.3388705"/>
      <trkpt lat="49.8548879" lon="19.3389872"/>
      <trkpt lat="49.8548837" lon="19.3391171"/>
      <trkpt lat="49.8548812" lon="19.3392428"/>
      <trkpt lat="49.8548801" lon="19.3393803"/>
      <trkpt lat="49.8548735" lon="19.3395021"/>
      <trkpt lat="49.8548641" lon="19.3396365"/>
      <trkpt lat="49.8548619" lon="19.3397172"/>
      <trkpt lat="49.8548448" lon="19.3399652"/>
      <trkpt lat="49.8548425" lon="19.3400458"/>
      <trkpt lat="49.8548404" lon="19.3401453"/>
      <trkpt lat="49.854839" lon="19.3402571"/>
      <trkpt lat="49.8548423" lon="19.3403614"/>
      <trkpt lat="49.8548417" lon="19.3404782"/>
      <trkpt lat="49.8548442" lon="19.3406048"/>
      <trkpt lat="49.8548454" lon="19.3407409"/>
      <trkpt lat="49.8548476" lon="19.3408653"/>
      <trkpt lat="49.8548537" lon="19.3409892"/>
      <trkpt lat="49.8548632" lon="19.341121"/>
      <trkpt lat="49.8548775" lon="19.3412315"/>
      <trkpt lat="49.8548983" lon="19.3413624"/>
      <trkpt lat="49.8549162" lon="19.3414746"/>
      <trkpt lat="49.8549375" lon="19.3416013"/>
      <trkpt lat="49.8549596" lon="19.3417452"/>
      <trkpt lat="49.8549961" lon="19.3419767"/>
      <trkpt lat="49.8550134" lon="19.342108"/>
      <trkpt lat="49.8550275" lon="19.3422307"/>
      <trkpt lat="49.8550427" lon="19.3423829"/>
      <trkpt lat="49.8550548" lon="19.342508"/>
      <trkpt lat="49.8550716" lon="19.3426316"/>
      <trkpt lat="49.8550906" lon="19.3427711"/>
      <trkpt lat="49.8550995" lon="19.3428975"/>
      <trkpt lat="49.8551116" lon="19.3430322"/>
      <trkpt lat="49.8551273" lon="19.3431781"/>
      <trkpt lat="49.8551406" lon="19.3433099"/>
      <trkpt lat="49.8551525" lon="19.3434502"/>
      <trkpt lat="49.8551674" lon="19.3436018"/>
      <trkpt lat="49.8551782" lon="19.3437377"/>
      <trkpt lat="49.8551929" lon="19.3438826"/>
      <trkpt lat="49.8552072" lon="19.3440277"/>
      <trkpt lat="49.8552235" lon="19.344176"/>
      <trkpt lat="49.8552372" lon="19.3443172"/>
      <trkpt lat="49.8552498" lon="19.3444483"/>
      <trkpt lat="49.8552599" lon="19.3445713"/>
      <trkpt lat="49.8552733" lon="19.3446856"/>
      <trkpt lat="49.8552813" lon="19.3447965"/>
      <trkpt lat="49.8552963" lon="19.3449306"/>
      <trkpt lat="49.8553195" lon="19.3451478"/>
      <trkpt lat="49.8553326" lon="19.3452792"/>
      <trkpt lat="49.8553619" lon="19.3455748"/>
      <trkpt lat="49.8553735" lon="19.3456968"/>
      <trkpt lat="49.855384" lon="19.3458328"/>
      <trkpt lat="49.8553937" lon="19.345948"/>
      <trkpt lat="49.8554086" lon="19.346115"/>
      <trkpt lat="49.8554422" lon="19.346483"/>
      <trkpt lat="49.8554582" lon="19.3466424"/>
      <trkpt lat="49.8554741" lon="19.3468195"/>
      <trkpt lat="49.8554799" lon="19.3469219"/>
      <trkpt lat="49.8554878" lon="19.3470384"/>
      <trkpt lat="49.8554972" lon="19.347173"/>
      <trkpt lat="49.8555099" lon="19.3473185"/>
      <trkpt lat="49.8555257" lon="19.3475824"/>
      <trkpt lat="49.8555373" lon="19.3477262"/>
      <trkpt lat="49.8555506" lon="19.3478776"/>
      <trkpt lat="49.8555652" lon="19.3480359"/>
      <trkpt lat="49.8555808" lon="19.3481741"/>
      <trkpt lat="49.8555976" lon="19.3483125"/>
      <trkpt lat="49.8556056" lon="19.348436"/>
      <trkpt lat="49.8556191" lon="19.3485806"/>
      <trkpt lat="49.8556293" lon="19.3487146"/>
      <trkpt lat="49.8556438" lon="19.3488574"/>
      <trkpt lat="49.8556594" lon="19.3490067"/>
      <trkpt lat="49.855673" lon="19.3491453"/>
      <trkpt lat="49.8556866" lon="19.3492934"/>
      <trkpt lat="49.8556951" lon="19.3494447"/>
      <trkpt lat="49.8557061" lon="19.3496055"/>
      <trkpt lat="49.8557227" lon="19.3497535"/>
      <trkpt lat="49.8557389" lon="19.3499222"/>
      <trkpt lat="49.855757" lon="19.3500976"/>
      <trkpt lat="49.8557887" lon="19.3504223"/>
      <trkpt lat="49.8558032" lon="19.3505786"/>
      <trkpt lat="49.8558214" lon="19.3507607"/>
      <trkpt lat="49.8558396" lon="19.3509429"/>
      <trkpt lat="49.8558587" lon="19.3511297"/>
      <trkpt lat="49.8558735" lon="19.351294"/>
      <trkpt lat="49.8558909" lon="19.3514623"/>
      <trkpt lat="49.8559089" lon="19.3516565"/>
      <trkpt lat="49.8559273" lon="19.3518447"/>
      <trkpt lat="49.8559513" lon="19.3520498"/>
      <trkpt lat="49.855977" lon="19.3522483"/>
      <trkpt lat="49.8560173" lon="19.3526046"/>
      <trkpt lat="49.8560371" lon="19.3528103"/>
      <trkpt lat="49.8560569" lon="19.3530187"/>
      <trkpt lat="49.856077" lon="19.3532102"/>
      <trkpt lat="49.856099" lon="19.353407"/>
      <trkpt lat="49.8561228" lon="19.3536114"/>
      <trkpt lat="49.8561435" lon="19.3538212"/>
      <trkpt lat="49.8561624" lon="19.3540045"/>
      <trkpt lat="49.8561837" lon="19.3542223"/>
      <trkpt lat="49.8562041" lon="19.3544231"/>
      <trkpt lat="49.8562236" lon="19.3546127"/>
      <trkpt lat="49.8562446" lon="19.3548197"/>
      <trkpt lat="49.8562616" lon="19.3549829"/>
      <trkpt lat="49.8562793" lon="19.3551599"/>
      <trkpt lat="49.8562964" lon="19.3553318"/>
      <trkpt lat="49.8563112" lon="19.3555397"/>
      <trkpt lat="49.8563263" lon="19.3557237"/>
      <trkpt lat="49.8563472" lon="19.3559261"/>
      <trkpt lat="49.8563631" lon="19.3561022"/>
      <trkpt lat="49.8563835" lon="19.356328"/>
      <trkpt lat="49.8564037" lon="19.3565492"/>
      <trkpt lat="49.856424" lon="19.3567704"/>
      <trkpt lat="49.8564687" lon="19.3572445"/>
      <trkpt lat="49.8565089" lon="19.3576669"/>
      <trkpt lat="49.8565512" lon="19.3581015"/>
      <trkpt lat="49.8565717" lon="19.3583185"/>
      <trkpt lat="49.8565937" lon="19.3585459"/>
      <trkpt lat="49.8566227" lon="19.3588189"/>
      <trkpt lat="49.8566635" lon="19.3592608"/>
      <trkpt lat="49.8566871" lon="19.3595145"/>
      <trkpt lat="49.8567071" lon="19.3597331"/>
      <trkpt lat="49.8567284" lon="19.3599778"/>
      <trkpt lat="49.8567665" lon="19.3604194"/>
      <trkpt lat="49.8567904" lon="19.360673"/>
      <trkpt lat="49.8568365" lon="19.3611357"/>
      <trkpt lat="49.8568588" lon="19.3613771"/>
      <trkpt lat="49.8568802" lon="19.3615928"/>
      <trkpt lat="49.8569267" lon="19.362067"/>
      <trkpt lat="49.8569529" lon="19.3623401"/>
      <trkpt lat="49.8569748" lon="19.3625651"/>
      <trkpt lat="49.8569973" lon="19.3627879"/>
      <trkpt lat="49.8570234" lon="19.3630603"/>
      <trkpt lat="49.8570445" lon="19.3632876"/>
      <trkpt lat="49.8570742" lon="19.3635751"/>
      <trkpt lat="49.857116" lon="19.3640221"/>
      <trkpt lat="49.8571415" lon="19.3642828"/>
      <trkpt lat="49.8571629" lon="19.3645232"/>
      <trkpt lat="49.8571921" lon="19.364792"/>
      <trkpt lat="49.8572212" lon="19.3650816"/>
      <trkpt lat="49.8572411" lon="19.3653152"/>
      <trkpt lat="49.857265" lon="19.3655626"/>
      <trkpt lat="49.8572906" lon="19.3658266"/>
      <trkpt lat="49.8573135" lon="19.3660871"/>
      <trkpt lat="49.8573587" lon="19.3665712"/>
      <trkpt lat="49.8573838" lon="19.366832"/>
      <trkpt lat="49.8574059" lon="19.3670677"/>
      <trkpt lat="49.8574305" lon="19.3673164"/>
      <trkpt lat="49.8574495" lon="19.3675364"/>
      <trkpt lat="49.8574724" lon="19.3677896"/>
      <trkpt lat="49.8574894" lon="19.3680065"/>
      <trkpt lat="49.857508" lon="19.3682441"/>
      <trkpt lat="49.8575258" lon="19.368465"/>
      <trkpt lat="49.8575452" lon="19.3686829"/>
      <trkpt lat="49.8575667" lon="19.3688971"/>
      <trkpt lat="49.8575867" lon="19.3690996"/>
      <trkpt lat="49.8576069" lon="19.3693377"/>
      <trkpt lat="49.8576266" lon="19.3695433"/>
      <trkpt lat="49.8576478" lon="19.3697509"/>
      <trkpt lat="49.857666" lon="19.3699583"/>
      <trkpt lat="49.8576879" lon="19.3701947"/>
      <trkpt lat="49.8577078" lon="19.3704029"/>
      <trkpt lat="49.8577276" lon="19.3706166"/>
      <trkpt lat="49.8577476" lon="19.3708277"/>
      <trkpt lat="49.8577676" lon="19.3710674"/>
      <trkpt lat="49.8577863" lon="19.3712952"/>
      <trkpt lat="49.8578074" lon="19.3715312"/>
      <trkpt lat="49.8578284" lon="19.371779"/>
      <trkpt lat="49.8578513" lon="19.372003"/>
      <trkpt lat="49.8578681" lon="19.3722377"/>
      <trkpt lat="49.8578894" lon="19.3724655"/>
      <trkpt lat="49.857908" lon="19.3726846"/>
      <trkpt lat="49.8579332" lon="19.3729198"/>
      <trkpt lat="49.8579551" lon="19.3731891"/>
      <trkpt lat="49.8579926" lon="19.3736109"/>
      <trkpt lat="49.8580178" lon="19.3738693"/>
      <trkpt lat="49.8580591" lon="19.3743102"/>
      <trkpt lat="49.8581011" lon="19.3747397"/>
      <trkpt lat="49.8581217" lon="19.3749566"/>
      <trkpt lat="49.8581474" lon="19.3752074"/>
      <trkpt lat="49.8581741" lon="19.3754636"/>
      <trkpt lat="49.8581949" lon="19.3756731"/>
      <trkpt lat="49.8582173" lon="19.3759156"/>
      <trkpt lat="49.8582409" lon="19.3761506"/>
      <trkpt lat="49.8582645" lon="19.3763706"/>
      <trkpt lat="49.8582872" lon="19.3766096"/>
      <trkpt lat="49.8583116" lon="19.3768498"/>
      <trkpt lat="49.8583339" lon="19.3770491"/>
      <trkpt lat="49.8583684" lon="19.3772744"/>
      <trkpt lat="49.8584072" lon="19.3774931"/>
      <trkpt lat="49.8584481" lon="19.3776854"/>
      <trkpt lat="49.8584994" lon="19.377899"/>
      <trkpt lat="49.8585645" lon="19.3781143"/>
      <trkpt lat="49.8586208" lon="19.378293"/>
      <trkpt lat="49.8586828" lon="19.3784885"/>
      <trkpt lat="49.8587439" lon="19.3786747"/>
      <trkpt lat="49.8588121" lon="19.3788843"/>
      <trkpt lat="49.8588674" lon="19.3790677"/>
      <trkpt lat="49.8589285" lon="19.3792644"/>
      <trkpt lat="49.859037" lon="19.3796089"/>
      <trkpt lat="49.8590992" lon="19.3797983"/>
      <trkpt lat="49.8591512" lon="19.3799696"/>
      <trkpt lat="49.8592141" lon="19.3801705"/>
      <trkpt lat="49.8592734" lon="19.3803517"/>
      <trkpt lat="49.8593338" lon="19.3805459"/>
      <trkpt lat="49.8593982" lon="19.3807448"/>
      <trkpt lat="49.85952" lon="19.3811267"/>
      <trkpt lat="49.8595807" lon="19.3813141"/>
      <trkpt lat="49.8596445" lon="19.3815154"/>
      <trkpt lat="49.8597143" lon="19.3817285"/>
      <trkpt lat="49.859795" lon="19.3819598"/>
      <trkpt lat="49.8599094" lon="19.3823183"/>
      <trkpt lat="49.8599775" lon="19.3825257"/>
      <trkpt lat="49.8600504" lon="19.3827509"/>
      <trkpt lat="49.860113" lon="19.3829436"/>
      <trkpt lat="49.860189" lon="19.3831839"/>
      <trkpt lat="49.8602566" lon="19.3833945"/>
      <trkpt lat="49.8603202" lon="19.3836034"/>
      <trkpt lat="49.8603974" lon="19.3838374"/>
      <trkpt lat="49.8604681" lon="19.3840571"/>
      <trkpt lat="49.8605399" lon="19.3842769"/>
      <trkpt lat="49.8606198" lon="19.3845232"/>
      <trkpt lat="49.8607058" lon="19.3847838"/>
      <trkpt lat="49.8607747" lon="19.3849927"/>
      <trkpt lat="49.8608414" lon="19.3852019"/>
      <trkpt lat="49.8609073" lon="19.385411"/>
      <trkpt lat="49.8609758" lon="19.3856281"/>
      <trkpt lat="49.8610466" lon="19.3858456"/>
      <trkpt lat="49.861118" lon="19.3860747"/>
      <trkpt lat="49.8611921" lon="19.3862989"/>
      <trkpt lat="49.8612655" lon="19.3865269"/>
      <trkpt lat="49.8613276" lon="19.3867187"/>
      <trkpt lat="49.8613877" lon="19.3869028"/>
      <trkpt lat="49.861453" lon="19.3871031"/>
      <trkpt lat="49.8615163" lon="19.3872972"/>
      <trkpt lat="49.8615783" lon="19.387491"/>
      <trkpt lat="49.8616513" lon="19.387714"/>
      <trkpt lat="49.8617152" lon="19.3879108"/>
      <trkpt lat="49.861788" lon="19.3881368"/>
      <trkpt lat="49.8619079" lon="19.3885154"/>
      <trkpt lat="49.8619681" lon="19.3887028"/>
      <trkpt lat="49.862044" lon="19.3889418"/>
      <trkpt lat="49.8621015" lon="19.3891221"/>
      <trkpt lat="49.8621613" lon="19.3893125"/>
      <trkpt lat="49.8622254" lon="19.3895113"/>
      <trkpt lat="49.8622982" lon="19.3897397"/>
      <trkpt lat="49.8624177" lon="19.3901011"/>
      <trkpt lat="49.8624762" lon="19.3902934"/>
      <trkpt lat="49.8625311" lon="19.3904605"/>
      <trkpt lat="49.8626038" lon="19.3906864"/>
      <trkpt lat="49.8627112" lon="19.3910147"/>
      <trkpt lat="49.8627646" lon="19.3911807"/>
      <trkpt lat="49.8628723" lon="19.3915039"/>
      <trkpt lat="49.8629302" lon="19.3916776"/>
      <trkpt lat="49.8629859" lon="19.3918427"/>
      <trkpt lat="49.8630435" lon="19.3920177"/>
      <trkpt lat="49.8631349" lon="19.3923492"/>
      <trkpt lat="49.8631719" lon="19.3925293"/>
      <trkpt lat="49.8632015" lon="19.3927229"/>
      <trkpt lat="49.8632289" lon="19.3929106"/>
      <trkpt lat="49.863257" lon="19.3931226"/>
      <trkpt lat="49.8632873" lon="19.3933283"/>
      <trkpt lat="49.863318" lon="19.3935468"/>
      <trkpt lat="49.8633754" lon="19.3939338"/>
      <trkpt lat="49.8634088" lon="19.3941517"/>
      <trkpt lat="49.8634381" lon="19.3943525"/>
      <trkpt lat="49.8634756" lon="19.3945994"/>
      <trkpt lat="49.8635081" lon="19.394809"/>
      <trkpt lat="49.8635375" lon="19.3950113"/>
      <trkpt lat="49.8635738" lon="19.3952535"/>
      <trkpt lat="49.8636179" lon="19.395569"/>
      <trkpt lat="49.8636688" lon="19.3959183"/>
      <trkpt lat="49.8637045" lon="19.3961699"/>
      <trkpt lat="49.8637372" lon="19.3963984"/>
      <trkpt lat="49.8637697" lon="19.3966254"/>
      <trkpt lat="49.8638033" lon="19.3968597"/>
      <trkpt lat="49.8638361" lon="19.3970889"/>
      <trkpt lat="49.863867" lon="19.3973068"/>
      <trkpt lat="49.8639011" lon="19.3975468"/>
      <trkpt lat="49.8639395" lon="19.3977759"/>
      <trkpt lat="49.8639717" lon="19.3980274"/>
      <trkpt lat="49.8640085" lon="19.3982672"/>
      <trkpt lat="49.8640815" lon="19.3987262"/>
      <trkpt lat="49.8641119" lon="19.3989444"/>
      <trkpt lat="49.8641376" lon="19.3991607"/>
      <trkpt lat="49.8641966" lon="19.3996245"/>
      <trkpt lat="49.8642276" lon="19.3998396"/>
      <trkpt lat="49.8642599" lon="19.4000431"/>
      <trkpt lat="49.8643005" lon="19.4002727"/>
      <trkpt lat="49.8643425" lon="19.4004688"/>
      <trkpt lat="49.8643917" lon="19.4006876"/>
      <trkpt lat="49.864442" lon="19.4008806"/>
      <trkpt lat="49.8644977" lon="19.4010856"/>
      <trkpt lat="49.8645588" lon="19.4012832"/>
      <trkpt lat="49.8646737" lon="19.4016419"/>
      <trkpt lat="49.8647406" lon="19.4018402"/>
      <trkpt lat="49.8647975" lon="19.4020299"/>
      <trkpt lat="49.8648531" lon="19.4022228"/>
      <trkpt lat="49.8649199" lon="19.4024253"/>
      <trkpt lat="49.8649904" lon="19.4026263"/>
      <trkpt lat="49.8650616" lon="19.4028422"/>
      <trkpt lat="49.8651295" lon="19.4030413"/>
      <trkpt lat="49.8652014" lon="19.4032663"/>
      <trkpt lat="49.865288" lon="19.4035268"/>
      <trkpt lat="49.8654275" lon="19.4039614"/>
      <trkpt lat="49.8654934" lon="19.4041628"/>
      <trkpt lat="49.8655618" lon="19.4043759"/>
      <trkpt lat="49.8656376" lon="19.4046131"/>
      <trkpt lat="49.8657054" lon="19.4048278"/>
      <trkpt lat="49.8657848" lon="19.4050901"/>
      <trkpt lat="49.8658627" lon="19.4053284"/>
      <trkpt lat="49.8659426" lon="19.4055702"/>
      <trkpt lat="49.8660899" lon="19.4060266"/>
      <trkpt lat="49.8661594" lon="19.4062418"/>
      <trkpt lat="49.8662397" lon="19.4064912"/>
      <trkpt lat="49.8663072" lon="19.4067016"/>
      <trkpt lat="49.866387" lon="19.4069473"/>
      <trkpt lat="49.8664552" lon="19.407163"/>
      <trkpt lat="49.8665214" lon="19.4073629"/>
      <trkpt lat="49.8665905" lon="19.4075809"/>
      <trkpt lat="49.8666553" lon="19.4077766"/>
      <trkpt lat="49.8667237" lon="19.4079916"/>
      <trkpt lat="49.8667829" lon="19.4081766"/>
      <trkpt lat="49.866862" lon="19.4084195"/>
      <trkpt lat="49.8669878" lon="19.408815"/>
      <trkpt lat="49.8670435" lon="19.4089978"/>
      <trkpt lat="49.8671095" lon="19.4092096"/>
      <trkpt lat="49.8671724" lon="19.409411"/>
      <trkpt lat="49.8672851" lon="19.4097737"/>
      <trkpt lat="49.8673551" lon="19.4100027"/>
      <trkpt lat="49.8674206" lon="19.4102161"/>
      <trkpt lat="49.8674774" lon="19.4103919"/>
      <trkpt lat="49.8675451" lon="19.4105939"/>
      <trkpt lat="49.8676117" lon="19.4108022"/>
      <trkpt lat="49.8676688" lon="19.4109825"/>
      <trkpt lat="49.8677279" lon="19.4111712"/>
      <trkpt lat="49.8677941" lon="19.4113896"/>
      <trkpt lat="49.8679099" lon="19.4118164"/>
      <trkpt lat="49.8679949" lon="19.4122123"/>
      <trkpt lat="49.8680291" lon="19.412413"/>
      <trkpt lat="49.868063" lon="19.4126499"/>
      <trkpt lat="49.8680883" lon="19.4128985"/>
      <trkpt lat="49.8681043" lon="19.4131187"/>
      <trkpt lat="49.8681192" lon="19.4133517"/>
      <trkpt lat="49.8681328" lon="19.4135827"/>
      <trkpt lat="49.8681416" lon="19.4138292"/>
      <trkpt lat="49.8681541" lon="19.4140727"/>
      <trkpt lat="49.8681788" lon="19.4145819"/>
      <trkpt lat="49.8682024" lon="19.4150806"/>
      <trkpt lat="49.8682117" lon="19.4153233"/>
      <trkpt lat="49.8682208" lon="19.4155561"/>
      <trkpt lat="49.8682295" lon="19.415787"/>
      <trkpt lat="49.8682407" lon="19.4160444"/>
      <trkpt lat="49.8682604" lon="19.4165385"/>
      <trkpt lat="49.8682697" lon="19.4168106"/>
      <trkpt lat="49.868276" lon="19.4170529"/>
      <trkpt lat="49.8682869" lon="19.4173081"/>
      <trkpt lat="49.8683117" lon="19.4178315"/>
      <trkpt lat="49.8683304" lon="19.4183826"/>
      <trkpt lat="49.8683548" lon="19.4188225"/>
      <trkpt lat="49.8683677" lon="19.4190915"/>
      <trkpt lat="49.868381" lon="19.4193191"/>
      <trkpt lat="49.8684" lon="19.4195685"/>
      <trkpt lat="49.8684118" lon="19.4198075"/>
      <trkpt lat="49.8684213" lon="19.4200688"/>
      <trkpt lat="49.8684305" lon="19.4202944"/>
      <trkpt lat="49.8684404" lon="19.4205339"/>
      <trkpt lat="49.8684498" lon="19.4207666"/>
      <trkpt lat="49.8684583" lon="19.4209814"/>
      <trkpt lat="49.8684668" lon="19.4212002"/>
      <trkpt lat="49.8684777" lon="19.4214362"/>
      <trkpt lat="49.8684862" lon="19.4216463"/>
      <trkpt lat="49.8684956" lon="19.4218496"/>
      <trkpt lat="49.8685047" lon="19.4220638"/>
      <trkpt lat="49.868513" lon="19.4222622"/>
      <trkpt lat="49.8685231" lon="19.422473"/>
      <trkpt lat="49.8685319" lon="19.4226661"/>
      <trkpt lat="49.8685411" lon="19.4228858"/>
      <trkpt lat="49.8685514" lon="19.4230965"/>
      <trkpt lat="49.8685616" lon="19.4232917"/>
      <trkpt lat="49.8685747" lon="19.4235225"/>
      <trkpt lat="49.8685986" lon="19.4239227"/>
      <trkpt lat="49.8686186" lon="19.4243115"/>
      <trkpt lat="49.8686281" lon="19.4245387"/>
      <trkpt lat="49.8686363" lon="19.4247258"/>
      <trkpt lat="49.8686464" lon="19.4249424"/>
      <trkpt lat="49.868657" lon="19.4251544"/>
      <trkpt lat="49.8686657" lon="19.4253468"/>
      <trkpt lat="49.8686748" lon="19.4255383"/>
      <trkpt lat="49.8686844" lon="19.4257554"/>
      <trkpt lat="49.8686931" lon="19.4259616"/>
      <trkpt lat="49.868702" lon="19.4261817"/>
      <trkpt lat="49.8687096" lon="19.4263803"/>
      <trkpt lat="49.86872" lon="19.4266369"/>
      <trkpt lat="49.8687296" lon="19.4268607"/>
      <trkpt lat="49.8687386" lon="19.4270682"/>
      <trkpt lat="49.8687493" lon="19.4272894"/>
      <trkpt lat="49.8687621" lon="19.4275447"/>
      <trkpt lat="49.8687714" lon="19.4277669"/>
      <trkpt lat="49.8687815" lon="19.4280165"/>
      <trkpt lat="49.8687924" lon="19.4282585"/>
      <trkpt lat="49.8688015" lon="19.428515"/>
      <trkpt lat="49.8688111" lon="19.4287351"/>
      <trkpt lat="49.8688226" lon="19.4289767"/>
      <trkpt lat="49.868832" lon="19.4292165"/>
      <trkpt lat="49.8688407" lon="19.4294817"/>
      <trkpt lat="49.8688523" lon="19.429717"/>
      <trkpt lat="49.8688631" lon="19.4299639"/>
      <trkpt lat="49.8688731" lon="19.4301958"/>
      <trkpt lat="49.8688849" lon="19.4304487"/>
      <trkpt lat="49.8688936" lon="19.4306693"/>
      <trkpt lat="49.8689051" lon="19.4309291"/>
      <trkpt lat="49.868913" lon="19.431158"/>
      <trkpt lat="49.8689225" lon="19.4314037"/>
      <trkpt lat="49.8689348" lon="19.4316513"/>
      <trkpt lat="49.8689432" lon="19.4318651"/>
      <trkpt lat="49.8689516" lon="19.4320802"/>
      <trkpt lat="49.8689632" lon="19.4323202"/>
      <trkpt lat="49.8689729" lon="19.4325788"/>
      <trkpt lat="49.8689829" lon="19.4327954"/>
      <trkpt lat="49.868996" lon="19.4330402"/>
      <trkpt lat="49.8690144" lon="19.4334153"/>
      <trkpt lat="49.869024" lon="19.4336336"/>
      <trkpt lat="49.8690346" lon="19.4338618"/>
      <trkpt lat="49.8690446" lon="19.4340831"/>
      <trkpt lat="49.8690541" lon="19.434296"/>
      <trkpt lat="49.8690643" lon="19.4345189"/>
      <trkpt lat="49.869073" lon="19.4347391"/>
      <trkpt lat="49.8690824" lon="19.4349467"/>
      <trkpt lat="49.869095" lon="19.4351636"/>
      <trkpt lat="49.8691054" lon="19.4353687"/>
      <trkpt lat="49.8691138" lon="19.4355593"/>
      <trkpt lat="49.8691247" lon="19.4357822"/>
      <trkpt lat="49.8691324" lon="19.4359674"/>
      <trkpt lat="49.8691396" lon="19.436153"/>
      <trkpt lat="49.8691482" lon="19.4363549"/>
      <trkpt lat="49.8691601" lon="19.4366042"/>
      <trkpt lat="49.8691744" lon="19.4369714"/>
      <trkpt lat="49.8691839" lon="19.4371847"/>
      <trkpt lat="49.8691922" lon="19.4373789"/>
      <trkpt lat="49.8692079" lon="19.4377859"/>
      <trkpt lat="49.8692187" lon="19.4379831"/>
      <trkpt lat="49.869228" lon="19.4382058"/>
      <trkpt lat="49.8692364" lon="19.4384018"/>
      <trkpt lat="49.8692494" lon="19.4386475"/>
      <trkpt lat="49.8692564" lon="19.4388492"/>
      <trkpt lat="49.8692673" lon="19.4391151"/>
      <trkpt lat="49.8692851" lon="19.4395184"/>
      <trkpt lat="49.8692946" lon="19.439737"/>
      <trkpt lat="49.8693029" lon="19.4399786"/>
      <trkpt lat="49.8693119" lon="19.4402002"/>
      <trkpt lat="49.8693224" lon="19.440419"/>
      <trkpt lat="49.8693356" lon="19.4406353"/>
      <trkpt lat="49.8693496" lon="19.4408818"/>
      <trkpt lat="49.869372" lon="19.4410852"/>
      <trkpt lat="49.8693997" lon="19.4412995"/>
      <trkpt lat="49.8694361" lon="19.4415186"/>
      <trkpt lat="49.8694744" lon="19.4417166"/>
      <trkpt lat="49.8695262" lon="19.4419123"/>
      <trkpt lat="49.8695885" lon="19.4421196"/>
      <trkpt lat="49.8696548" lon="19.4422934"/>
      <trkpt lat="49.8697324" lon="19.4424809"/>
      <trkpt lat="49.8698087" lon="19.442658"/>
      <trkpt lat="49.8698833" lon="19.4428405"/>
      <trkpt lat="49.8699614" lon="19.4430242"/>
      <trkpt lat="49.8701179" lon="19.4433926"/>
      <trkpt lat="49.8702609" lon="19.4437286"/>
      <trkpt lat="49.8703356" lon="19.4439048"/>
      <trkpt lat="49.8704102" lon="19.4440821"/>
      <trkpt lat="49.870479" lon="19.4442464"/>
      <trkpt lat="49.8705539" lon="19.4444241"/>
      <trkpt lat="49.8706519" lon="19.4446466"/>
      <trkpt lat="49.870752" lon="19.4448837"/>
      <trkpt lat="49.8708621" lon="19.445143"/>
      <trkpt lat="49.8709452" lon="19.4453351"/>
      <trkpt lat="49.8710315" lon="19.4455396"/>
      <trkpt lat="49.8711795" lon="19.445886"/>
      <trkpt lat="49.8712522" lon="19.4460559"/>
      <trkpt lat="49.8713266" lon="19.4462216"/>
      <trkpt lat="49.8714133" lon="19.4464318"/>
      <trkpt lat="49.871489" lon="19.4466087"/>
      <trkpt lat="49.8715837" lon="19.4468331"/>
      <trkpt lat="49.8716653" lon="19.4470258"/>
      <trkpt lat="49.8718094" lon="19.4473708"/>
      <trkpt lat="49.8718885" lon="19.4475602"/>
      <trkpt lat="49.8719611" lon="19.4477334"/>
      <trkpt lat="49.8720516" lon="19.4479456"/>
      <trkpt lat="49.8721297" lon="19.4481271"/>
      <trkpt lat="49.8722048" lon="19.4483058"/>
      <trkpt lat="49.8722858" lon="19.4484962"/>
      <trkpt lat="49.872376" lon="19.4487084"/>
      <trkpt lat="49.8725259" lon="19.4490617"/>
      <trkpt lat="49.87261" lon="19.4492633"/>
      <trkpt lat="49.8726828" lon="19.4494369"/>
      <trkpt lat="49.8727616" lon="19.4496215"/>
      <trkpt lat="49.8728396" lon="19.4498078"/>
      <trkpt lat="49.8729104" lon="19.4499734"/>
      <trkpt lat="49.8729872" lon="19.4501549"/>
      <trkpt lat="49.8730644" lon="19.450341"/>
      <trkpt lat="49.8731414" lon="19.4505231"/>
      <trkpt lat="49.8732131" lon="19.4506922"/>
      <trkpt lat="49.8732952" lon="19.4508845"/>
      <trkpt lat="49.8733677" lon="19.4510576"/>
      <trkpt lat="49.8734417" lon="19.4512348"/>
      <trkpt lat="49.8735781" lon="19.4515595"/>
      <trkpt lat="49.873652" lon="19.4517323"/>
      <trkpt lat="49.8737216" lon="19.4518948"/>
      <trkpt lat="49.8737934" lon="19.4520609"/>
      <trkpt lat="49.8738562" lon="19.45221"/>
      <trkpt lat="49.8739369" lon="19.4523991"/>
      <trkpt lat="49.874056" lon="19.4526695"/>
      <trkpt lat="49.8741103" lon="19.4527974"/>
      <trkpt lat="49.8741744" lon="19.4529447"/>
      <trkpt lat="49.8742273" lon="19.4530685"/>
      <trkpt lat="49.8742831" lon="19.4532041"/>
      <trkpt lat="49.8743378" lon="19.453331"/>
      <trkpt lat="49.8743985" lon="19.4534711"/>
      <trkpt lat="49.8744957" lon="19.4537064"/>
      <trkpt lat="49.8745743" lon="19.453892"/>
      <trkpt lat="49.8746096" lon="19.4539758"/>
      <trkpt lat="49.8746406" lon="19.454048"/>
      <trkpt lat="49.874673" lon="19.4541305"/>
      <trkpt lat="49.8747382" lon="19.4542793"/>
      <trkpt lat="49.8747829" lon="19.4543637"/>
      <trkpt lat="49.8748772" lon="19.454605"/>
      <trkpt lat="49.8749149" lon="19.4547324"/>
      <trkpt lat="49.8749586" lon="19.4548319"/>
      <trkpt lat="49.8749942" lon="19.4549229"/>
      <trkpt lat="49.8750307" lon="19.455014"/>
      <trkpt lat="49.8750737" lon="19.4551154"/>
      <trkpt lat="49.875117" lon="19.4552046"/>
      <trkpt lat="49.8751626" lon="19.4553155"/>
      <trkpt lat="49.8752088" lon="19.4554339"/>
      <trkpt lat="49.8752615" lon="19.4555577"/>
      <trkpt lat="49.8753158" lon="19.4556855"/>
      <trkpt lat="49.8753667" lon="19.455804"/>
      <trkpt lat="49.8754285" lon="19.4559489"/>
      <trkpt lat="49.8754917" lon="19.4560876"/>
      <trkpt lat="49.8755445" lon="19.4562179"/>
      <trkpt lat="49.875597" lon="19.4563458"/>
      <trkpt lat="49.875655" lon="19.4564871"/>
      <trkpt lat="49.8757156" lon="19.4566314"/>
      <trkpt lat="49.8757765" lon="19.4567732"/>
      <trkpt lat="49.875836" lon="19.456923"/>
      <trkpt lat="49.8759578" lon="19.457203"/>
      <trkpt lat="49.8760417" lon="19.4574021"/>
      <trkpt lat="49.8761778" lon="19.4577144"/>
      <trkpt lat="49.8763071" lon="19.4580241"/>
      <trkpt lat="49.8764344" lon="19.45832"/>
      <trkpt lat="49.8765046" lon="19.4584895"/>
      <trkpt lat="49.8765734" lon="19.4586343"/>
      <trkpt lat="49.8766301" lon="19.4587776"/>
      <trkpt lat="49.8766908" lon="19.4589265"/>
      <trkpt lat="49.8767503" lon="19.4590742"/>
      <trkpt lat="49.876813" lon="19.4592157"/>
      <trkpt lat="49.8769538" lon="19.4594945"/>
      <trkpt lat="49.8770173" lon="19.4596525"/>
      <trkpt lat="49.8770899" lon="19.4598225"/>
      <trkpt lat="49.8771552" lon="19.4599825"/>
      <trkpt lat="49.8772144" lon="19.4601285"/>
      <trkpt lat="49.8772954" lon="19.460323"/>
      <trkpt lat="49.8774256" lon="19.4606294"/>
      <trkpt lat="49.8774997" lon="19.4608072"/>
      <trkpt lat="49.8775685" lon="19.4609504"/>
      <trkpt lat="49.8776338" lon="19.4611095"/>
      <trkpt lat="49.8777021" lon="19.4612561"/>
      <trkpt lat="49.8778359" lon="19.4615721"/>
      <trkpt lat="49.8779521" lon="19.4618399"/>
      <trkpt lat="49.8780082" lon="19.4619838"/>
      <trkpt lat="49.8780634" lon="19.462128"/>
      <trkpt lat="49.878125" lon="19.4622634"/>
      <trkpt lat="49.8781775" lon="19.4623918"/>
      <trkpt lat="49.8782343" lon="19.4625371"/>
      <trkpt lat="49.878291" lon="19.4626678"/>
      <trkpt lat="49.8783541" lon="19.4628217"/>
      <trkpt lat="49.8784154" lon="19.4629564"/>
      <trkpt lat="49.8784705" lon="19.463094"/>
      <trkpt lat="49.8785356" lon="19.4632354"/>
      <trkpt lat="49.8785991" lon="19.463392"/>
      <trkpt lat="49.8786645" lon="19.4635601"/>
      <trkpt lat="49.8787279" lon="19.4637025"/>
      <trkpt lat="49.8787921" lon="19.4638512"/>
      <trkpt lat="49.8788573" lon="19.4640091"/>
      <trkpt lat="49.8790033" lon="19.4643433"/>
      <trkpt lat="49.8791294" lon="19.4646439"/>
      <trkpt lat="49.8791935" lon="19.4648022"/>
      <trkpt lat="49.8792654" lon="19.4649645"/>
      <trkpt lat="49.8793322" lon="19.4651272"/>
      <trkpt lat="49.8794126" lon="19.4653226"/>
      <trkpt lat="49.8795378" lon="19.4656189"/>
      <trkpt lat="49.8796114" lon="19.4657921"/>
      <trkpt lat="49.8796884" lon="19.4659769"/>
      <trkpt lat="49.8797549" lon="19.4661362"/>
      <trkpt lat="49.8798183" lon="19.4662863"/>
      <trkpt lat="49.8798957" lon="19.4664794"/>
      <trkpt lat="49.8799606" lon="19.4666286"/>
      <trkpt lat="49.8800274" lon="19.4667895"/>
      <trkpt lat="49.8800959" lon="19.4669449"/>
      <trkpt lat="49.880209" lon="19.4672268"/>
      <trkpt lat="49.8802718" lon="19.4673676"/>
      <trkpt lat="49.8803264" lon="19.4675029"/>
      <trkpt lat="49.8803962" lon="19.4676685"/>
      <trkpt lat="49.880449" lon="19.4678027"/>
      <trkpt lat="49.8805222" lon="19.4679797"/>
      <trkpt lat="49.8806224" lon="19.4682187"/>
      <trkpt lat="49.8806857" lon="19.4683677"/>
      <trkpt lat="49.8807461" lon="19.468513"/>
      <trkpt lat="49.8808609" lon="19.4687859"/>
      <trkpt lat="49.8809194" lon="19.468926"/>
      <trkpt lat="49.8809788" lon="19.4690651"/>
      <trkpt lat="49.8810369" lon="19.4692014"/>
      <trkpt lat="49.8810978" lon="19.4693455"/>
      <trkpt lat="49.8811598" lon="19.4694917"/>
      <trkpt lat="49.8812144" lon="19.4696237"/>
      <trkpt lat="49.8812844" lon="19.4697775"/>
      <trkpt lat="49.8813517" lon="19.4699482"/>
      <trkpt lat="49.8814626" lon="19.4702066"/>
      <trkpt lat="49.8815255" lon="19.4703665"/>
      <trkpt lat="49.8815672" lon="19.4705011"/>
      <trkpt lat="49.881633" lon="19.4706476"/>
      <trkpt lat="49.8817015" lon="19.4708107"/>
      <trkpt lat="49.881767" lon="19.4709593"/>
      <trkpt lat="49.881835" lon="19.4711328"/>
      <trkpt lat="49.8819143" lon="19.4712955"/>
      <trkpt lat="49.8819786" lon="19.4714429"/>
      <trkpt lat="49.8820641" lon="19.471603"/>
      <trkpt lat="49.8821582" lon="19.4717687"/>
      <trkpt lat="49.8822505" lon="19.4719097"/>
      <trkpt lat="49.882356" lon="19.4720482"/>
      <trkpt lat="49.8824735" lon="19.4721732"/>
      <trkpt lat="49.8825886" lon="19.4722753"/>
      <trkpt lat="49.882732" lon="19.472374"/>
      <trkpt lat="49.8829952" lon="19.4725165"/>
      <trkpt lat="49.8831326" lon="19.472586"/>
      <trkpt lat="49.8832874" lon="19.4726646"/>
      <trkpt lat="49.8834218" lon="19.4727424"/>
      <trkpt lat="49.8836759" lon="19.4729414"/>
      <trkpt lat="49.8838005" lon="19.4730745"/>
      <trkpt lat="49.8839186" lon="19.4732202"/>
      <trkpt lat="49.8840405" lon="19.4733907"/>
      <trkpt lat="49.8842647" lon="19.473695"/>
      <trkpt lat="49.8843966" lon="19.4738808"/>
      <trkpt lat="49.8846134" lon="19.4741881"/>
      <trkpt lat="49.8848419" lon="19.4745062"/>
      <trkpt lat="49.884964" lon="19.474674"/>
      <trkpt lat="49.8850988" lon="19.4748601"/>
      <trkpt lat="49.8853461" lon="19.4752098"/>
      <trkpt lat="49.8855722" lon="19.4755371"/>
      <trkpt lat="49.8856909" lon="19.4757018"/>
      <trkpt lat="49.8858075" lon="19.4758684"/>
      <trkpt lat="49.885947" lon="19.4760766"/>
      <trkpt lat="49.8861534" lon="19.4764447"/>
      <trkpt lat="49.8862597" lon="19.4766801"/>
      <trkpt lat="49.8863476" lon="19.476923"/>
      <trkpt lat="49.8864044" lon="19.4771445"/>
      <trkpt lat="49.8864612" lon="19.4773775"/>
      <trkpt lat="49.8865134" lon="19.4776179"/>
      <trkpt lat="49.8866165" lon="19.4780945"/>
      <trkpt lat="49.8867169" lon="19.4785132"/>
      <trkpt lat="49.8867551" lon="19.4787473"/>
      <trkpt lat="49.8868067" lon="19.4789416"/>
      <trkpt lat="49.886853" lon="19.4791526"/>
      <trkpt lat="49.8868915" lon="19.4793419"/>
      <trkpt lat="49.8869376" lon="19.4795427"/>
      <trkpt lat="49.8869801" lon="19.4797356"/>
      <trkpt lat="49.8870151" lon="19.4798975"/>
      <trkpt lat="49.8870503" lon="19.4800674"/>
      <trkpt lat="49.8870818" lon="19.480211"/>
      <trkpt lat="49.8871056" lon="19.4803511"/>
      <trkpt lat="49.8871214" lon="19.4804473"/>
      <trkpt lat="49.8871363" lon="19.4805208"/>
      <trkpt lat="49.8871645" lon="19.4807227"/>
      <trkpt lat="49.887166" lon="19.480829"/>
      <trkpt lat="49.8871579" lon="19.4809094"/>
      <trkpt lat="49.8871549" lon="19.4809984"/>
      <trkpt lat="49.887175" lon="19.4810741"/>
      <trkpt lat="49.8872022" lon="19.4811487"/>
      <trkpt lat="49.8872534" lon="19.4811978"/>
      <trkpt lat="49.8873042" lon="19.4812849"/>
      <trkpt lat="49.8873711" lon="19.4814925"/>
      <trkpt lat="49.8873992" lon="19.481594"/>
      <trkpt lat="49.8874294" lon="19.4817157"/>
      <trkpt lat="49.8874595" lon="19.4818358"/>
      <trkpt lat="49.8874948" lon="19.4819864"/>
      <trkpt lat="49.8875313" lon="19.4821399"/>
      <trkpt lat="49.8875656" lon="19.4822849"/>
      <trkpt lat="49.887638" lon="19.4825804"/>
      <trkpt lat="49.8876686" lon="19.4827054"/>
      <trkpt lat="49.8877019" lon="19.4828445"/>
      <trkpt lat="49.8877345" lon="19.4829721"/>
      <trkpt lat="49.8877692" lon="19.4831116"/>
      <trkpt lat="49.8878001" lon="19.4832238"/>
      <trkpt lat="49.887835" lon="19.4833676"/>
      <trkpt lat="49.8878818" lon="19.4835557"/>
      <trkpt lat="49.8879053" lon="19.4836648"/>
      <trkpt lat="49.8879323" lon="19.4837636"/>
      <trkpt lat="49.8879623" lon="19.4838827"/>
      <trkpt lat="49.8881537" lon="19.4845553"/>
      <trkpt lat="49.8882067" lon="19.484782"/>
      <trkpt lat="49.8882047" lon="19.48493"/>
      <trkpt lat="49.8882255" lon="19.4850075"/>
      <trkpt lat="49.8882466" lon="19.4850982"/>
      <trkpt lat="49.8882805" lon="19.4852526"/>
      <trkpt lat="49.8883011" lon="19.4853256"/>
      <trkpt lat="49.8883212" lon="19.4854006"/>
      <trkpt lat="49.8883527" lon="19.4855262"/>
      <trkpt lat="49.8884525" lon="19.4857707"/>
      <trkpt lat="49.8884816" lon="19.4858986"/>
      <trkpt lat="49.8887954" lon="19.4872237"/>
      <trkpt lat="49.8888827" lon="19.4876526"/>
      <trkpt lat="49.888945" lon="19.4878743"/>
      <trkpt lat="49.889701" lon="19.4909973"/>
      <trkpt lat="49.8897587" lon="19.4915052"/>
      <trkpt lat="49.8898198" lon="19.4915646"/>
      <trkpt lat="49.8898952" lon="19.4917554"/>
      <trkpt lat="49.8899219" lon="19.4918336"/>
      <trkpt lat="49.8899673" lon="19.4920126"/>
      <trkpt lat="49.8899972" lon="19.4921337"/>
      <trkpt lat="49.8900459" lon="19.4923487"/>
      <trkpt lat="49.8900683" lon="19.4924897"/>
      <trkpt lat="49.8900894" lon="19.4926381"/>
      <trkpt lat="49.890113" lon="19.4927848"/>
      <trkpt lat="49.8901288" lon="19.4929438"/>
      <trkpt lat="49.8901454" lon="19.4930993"/>
      <trkpt lat="49.8901537" lon="19.4932626"/>
      <trkpt lat="49.8901639" lon="19.4934248"/>
      <trkpt lat="49.8901687" lon="19.4936147"/>
      <trkpt lat="49.890164" lon="19.4938011"/>
      <trkpt lat="49.890138" lon="19.4941348"/>
      <trkpt lat="49.8901274" lon="19.4943195"/>
      <trkpt lat="49.8901076" lon="19.4945193"/>
      <trkpt lat="49.8900848" lon="19.4947025"/>
      <trkpt lat="49.8900538" lon="19.4948868"/>
      <trkpt lat="49.8900248" lon="19.4950813"/>
      <trkpt lat="49.8899493" lon="19.4954264"/>
      <trkpt lat="49.8898702" lon="19.4957194"/>
      <trkpt lat="49.8898259" lon="19.4958608"/>
      <trkpt lat="49.8897778" lon="19.4960044"/>
      <trkpt lat="49.8896793" lon="19.4962608"/>
      <trkpt lat="49.8896145" lon="19.4964033"/>
      <trkpt lat="49.8894727" lon="19.4966969"/>
      <trkpt lat="49.8893405" lon="19.4969426"/>
      <trkpt lat="49.8892617" lon="19.4970758"/>
      <trkpt lat="49.88918" lon="19.4971987"/>
      <trkpt lat="49.8890977" lon="19.4973185"/>
      <trkpt lat="49.8890112" lon="19.4974357"/>
      <trkpt lat="49.8889053" lon="19.4975529"/>
      <trkpt lat="49.888709" lon="19.4977218"/>
      <trkpt lat="49.8886032" lon="19.4978173"/>
      <trkpt lat="49.8884919" lon="19.4979259"/>
      <trkpt lat="49.8883802" lon="19.4980227"/>
      <trkpt lat="49.8881719" lon="19.4982179"/>
      <trkpt lat="49.8880698" lon="19.4983109"/>
      <trkpt lat="49.8879675" lon="19.4984048"/>
      <trkpt lat="49.8878686" lon="19.4984938"/>
      <trkpt lat="49.8877566" lon="19.4985957"/>
      <trkpt lat="49.8876542" lon="19.4986812"/>
      <trkpt lat="49.8875216" lon="19.4987903"/>
      <trkpt lat="49.887291" lon="19.4989587"/>
      <trkpt lat="49.8871743" lon="19.4990344"/>
      <trkpt lat="49.8870489" lon="19.4991119"/>
      <trkpt lat="49.8869316" lon="19.4991955"/>
      <trkpt lat="49.8867037" lon="19.4993406"/>
      <trkpt lat="49.886604" lon="19.4994197"/>
      <trkpt lat="49.8864946" lon="19.4995143"/>
      <trkpt lat="49.8863934" lon="19.4996006"/>
      <trkpt lat="49.886282" lon="19.4997172"/>
      <trkpt lat="49.8860825" lon="19.4999286"/>
      <trkpt lat="49.8858811" lon="19.5001452"/>
      <trkpt lat="49.8856877" lon="19.5003452"/>
      <trkpt lat="49.8855869" lon="19.5004457"/>
      <trkpt lat="49.8853905" lon="19.5006294"/>
      <trkpt lat="49.8852883" lon="19.5007196"/>
      <trkpt lat="49.8851914" lon="19.5008044"/>
      <trkpt lat="49.8850829" lon="19.5008985"/>
      <trkpt lat="49.8849871" lon="19.500987"/>
      <trkpt lat="49.8848816" lon="19.5010858"/>
      <trkpt lat="49.8847879" lon="19.5011796"/>
      <trkpt lat="49.8846918" lon="19.5012866"/>
      <trkpt lat="49.8846061" lon="19.5013897"/>
      <trkpt lat="49.8845182" lon="19.5015032"/>
      <trkpt lat="49.8844297" lon="19.5016089"/>
      <trkpt lat="49.8843563" lon="19.5017051"/>
      <trkpt lat="49.8842879" lon="19.5017835"/>
      <trkpt lat="49.8842249" lon="19.5018638"/>
      <trkpt lat="49.8841797" lon="19.5019093"/>
      <trkpt lat="49.8840921" lon="19.5020363"/>
      <trkpt lat="49.8839954" lon="19.5021527"/>
      <trkpt lat="49.8839609" lon="19.5021993"/>
      <trkpt lat="49.8839116" lon="19.5022578"/>
      <trkpt lat="49.8838366" lon="19.502336"/>
      <trkpt lat="49.8837771" lon="19.5024092"/>
      <trkpt lat="49.8837215" lon="19.5024811"/>
      <trkpt lat="49.8836008" lon="19.5026299"/>
      <trkpt lat="49.8835389" lon="19.502709"/>
      <trkpt lat="49.883478" lon="19.5027832"/>
      <trkpt lat="49.8834023" lon="19.5028765"/>
      <trkpt lat="49.883246" lon="19.5030659"/>
      <trkpt lat="49.8830961" lon="19.5032493"/>
      <trkpt lat="49.8829445" lon="19.5034491"/>
      <trkpt lat="49.8828662" lon="19.5035471"/>
      <trkpt lat="49.8827853" lon="19.5036513"/>
      <trkpt lat="49.8826868" lon="19.5037697"/>
      <trkpt lat="49.8825105" lon="19.5039659"/>
      <trkpt lat="49.8824162" lon="19.5040557"/>
      <trkpt lat="49.8823217" lon="19.5041359"/>
      <trkpt lat="49.8822248" lon="19.5042253"/>
      <trkpt lat="49.8821187" lon="19.5043241"/>
      <trkpt lat="49.882028" lon="19.5043982"/>
      <trkpt lat="49.8819356" lon="19.5044787"/>
      <trkpt lat="49.8818449" lon="19.5045605"/>
      <trkpt lat="49.8817393" lon="19.5046685"/>
      <trkpt lat="49.8815542" lon="19.5048504"/>
      <trkpt lat="49.8814635" lon="19.5049465"/>
      <trkpt lat="49.8813722" lon="19.5050421"/>
      <trkpt lat="49.8812869" lon="19.5051301"/>
      <trkpt lat="49.8811828" lon="19.5052348"/>
      <trkpt lat="49.8811037" lon="19.5053283"/>
      <trkpt lat="49.8810198" lon="19.5054097"/>
      <trkpt lat="49.8809406" lon="19.5054932"/>
      <trkpt lat="49.8808589" lon="19.5055808"/>
      <trkpt lat="49.8807907" lon="19.5056584"/>
      <trkpt lat="49.8807035" lon="19.5057466"/>
      <trkpt lat="49.8806278" lon="19.5058306"/>
      <trkpt lat="49.8804995" lon="19.5059661"/>
      <trkpt lat="49.8804346" lon="19.5060359"/>
      <trkpt lat="49.8803571" lon="19.5061095"/>
      <trkpt lat="49.8802909" lon="19.5061834"/>
      <trkpt lat="49.8802124" lon="19.5062684"/>
      <trkpt lat="49.8801318" lon="19.5063435"/>
      <trkpt lat="49.880049" lon="19.5064291"/>
      <trkpt lat="49.8799668" lon="19.5065075"/>
      <trkpt lat="49.8798769" lon="19.506598"/>
      <trkpt lat="49.879785" lon="19.5066979"/>
      <trkpt lat="49.8797068" lon="19.5067829"/>
      <trkpt lat="49.8796173" lon="19.5068703"/>
      <trkpt lat="49.8795312" lon="19.5069575"/>
      <trkpt lat="49.8794442" lon="19.5070484"/>
      <trkpt lat="49.8793524" lon="19.5071445"/>
      <trkpt lat="49.8792547" lon="19.5072491"/>
      <trkpt lat="49.8791698" lon="19.5073432"/>
      <trkpt lat="49.8790846" lon="19.5074345"/>
      <trkpt lat="49.8789873" lon="19.5075294"/>
      <trkpt lat="49.8788884" lon="19.5076277"/>
      <trkpt lat="49.8788023" lon="19.507712"/>
      <trkpt lat="49.8785963" lon="19.5078522"/>
      <trkpt lat="49.8784863" lon="19.5078965"/>
      <trkpt lat="49.8783939" lon="19.5079278"/>
      <trkpt lat="49.8782279" lon="19.5079397"/>
      <trkpt lat="49.8781671" lon="19.507937"/>
      <trkpt lat="49.8781048" lon="19.5079174"/>
      <trkpt lat="49.8775569" lon="19.507355"/>
      <trkpt lat="49.8775045" lon="19.5072308"/>
      <trkpt lat="49.8774434" lon="19.5072038"/>
      <trkpt lat="49.8773958" lon="19.5072032"/>
      <trkpt lat="49.8773388" lon="19.507261"/>
      <trkpt lat="49.8772966" lon="19.507325"/>
      <trkpt lat="49.8772755" lon="19.5074113"/>
      <trkpt lat="49.8772685" lon="19.5074965"/>
      <trkpt lat="49.8772636" lon="19.507584"/>
      <trkpt lat="49.8772425" lon="19.5076912"/>
      <trkpt lat="49.8771775" lon="19.5078725"/>
      <trkpt lat="49.8771504" lon="19.5079412"/>
      <trkpt lat="49.8771267" lon="19.5080265"/>
      <trkpt lat="49.8771008" lon="19.508124"/>
      <trkpt lat="49.8770488" lon="19.5083516"/>
      <trkpt lat="49.8770368" lon="19.5084211"/>
      <trkpt lat="49.8770023" lon="19.508598"/>
      <trkpt lat="49.8769849" lon="19.5086875"/>
      <trkpt lat="49.8769671" lon="19.5087815"/>
      <trkpt lat="49.8769516" lon="19.5088852"/>
      <trkpt lat="49.8769358" lon="19.5089701"/>
      <trkpt lat="49.8769036" lon="19.5091409"/>
      <trkpt lat="49.8768853" lon="19.5092368"/>
      <trkpt lat="49.8768611" lon="19.509351"/>
      <trkpt lat="49.8768377" lon="19.5094601"/>
      <trkpt lat="49.87681" lon="19.5096017"/>
      <trkpt lat="49.8767838" lon="19.5097249"/>
      <trkpt lat="49.8767594" lon="19.5098488"/>
      <trkpt lat="49.8767296" lon="19.5099991"/>
      <trkpt lat="49.8766674" lon="19.5102977"/>
      <trkpt lat="49.8766387" lon="19.5104347"/>
      <trkpt lat="49.8766072" lon="19.5105814"/>
      <trkpt lat="49.8765743" lon="19.5107407"/>
      <trkpt lat="49.8765422" lon="19.5108988"/>
      <trkpt lat="49.8765115" lon="19.5110428"/>
      <trkpt lat="49.8764779" lon="19.5112039"/>
      <trkpt lat="49.8764428" lon="19.5113694"/>
      <trkpt lat="49.8764114" lon="19.511524"/>
      <trkpt lat="49.8763823" lon="19.5116668"/>
      <trkpt lat="49.8763509" lon="19.5118339"/>
      <trkpt lat="49.8762985" lon="19.5121319"/>
      <trkpt lat="49.8762774" lon="19.5122629"/>
      <trkpt lat="49.8762544" lon="19.5124041"/>
      <trkpt lat="49.876233" lon="19.5125343"/>
      <trkpt lat="49.8762074" lon="19.5126861"/>
      <trkpt lat="49.8761615" lon="19.5129527"/>
      <trkpt lat="49.8761236" lon="19.513187"/>
      <trkpt lat="49.8761039" lon="19.5133194"/>
      <trkpt lat="49.8760855" lon="19.5134339"/>
      <trkpt lat="49.8760695" lon="19.5135416"/>
      <trkpt lat="49.8760514" lon="19.5136443"/>
      <trkpt lat="49.876036" lon="19.513754"/>
      <trkpt lat="49.8760227" lon="19.5138379"/>
      <trkpt lat="49.8760094" lon="19.5139235"/>
      <trkpt lat="49.8759985" lon="19.5139969"/>
      <trkpt lat="49.8759866" lon="19.5140736"/>
      <trkpt lat="49.8759752" lon="19.514144"/>
      <trkpt lat="49.8759655" lon="19.5142126"/>
      <trkpt lat="49.8759353" lon="19.5144066"/>
      <trkpt lat="49.8759157" lon="19.5145325"/>
      <trkpt lat="49.8759003" lon="19.514657"/>
      <trkpt lat="49.8758949" lon="19.5147795"/>
      <trkpt lat="49.8758359" lon="19.5151324"/>
      <trkpt lat="49.8758353" lon="19.5152043"/>
      <trkpt lat="49.8758273" lon="19.5152774"/>
      <trkpt lat="49.8758085" lon="19.515351"/>
      <trkpt lat="49.8757893" lon="19.5154382"/>
      <trkpt lat="49.8757762" lon="19.5155193"/>
      <trkpt lat="49.8757614" lon="19.5156226"/>
      <trkpt lat="49.8757507" lon="19.5157052"/>
      <trkpt lat="49.8757402" lon="19.5157948"/>
      <trkpt lat="49.8757201" lon="19.5159395"/>
      <trkpt lat="49.8756971" lon="19.5160959"/>
      <trkpt lat="49.8756695" lon="19.5162797"/>
      <trkpt lat="49.8756544" lon="19.5163821"/>
      <trkpt lat="49.8756373" lon="19.5164931"/>
      <trkpt lat="49.8756179" lon="19.5166148"/>
      <trkpt lat="49.8755986" lon="19.5167294"/>
      <trkpt lat="49.8755778" lon="19.5168727"/>
      <trkpt lat="49.8755551" lon="19.5170249"/>
      <trkpt lat="49.8755214" lon="19.5172927"/>
      <trkpt lat="49.8754988" lon="19.5174601"/>
      <trkpt lat="49.8754708" lon="19.5176314"/>
      <trkpt lat="49.8754428" lon="19.5178146"/>
      <trkpt lat="49.8753869" lon="19.5181695"/>
      <trkpt lat="49.8753568" lon="19.5183581"/>
      <trkpt lat="49.8753283" lon="19.5185488"/>
      <trkpt lat="49.8752927" lon="19.5187723"/>
      <trkpt lat="49.8752635" lon="19.5189813"/>
      <trkpt lat="49.8752319" lon="19.5191904"/>
      <trkpt lat="49.8752033" lon="19.5193905"/>
      <trkpt lat="49.8751687" lon="19.5196319"/>
      <trkpt lat="49.875132" lon="19.5198731"/>
      <trkpt lat="49.8750691" lon="19.5202699"/>
      <trkpt lat="49.8750352" lon="19.5204872"/>
      <trkpt lat="49.8749999" lon="19.5207198"/>
      <trkpt lat="49.8749393" lon="19.5211434"/>
      <trkpt lat="49.8749071" lon="19.5213545"/>
      <trkpt lat="49.8748741" lon="19.5215754"/>
      <trkpt lat="49.8748402" lon="19.5217991"/>
      <trkpt lat="49.8748094" lon="19.5220021"/>
      <trkpt lat="49.8747774" lon="19.5222037"/>
      <trkpt lat="49.8747454" lon="19.5224371"/>
      <trkpt lat="49.874712" lon="19.5226658"/>
      <trkpt lat="49.874679" lon="19.5228855"/>
      <trkpt lat="49.874648" lon="19.5231023"/>
      <trkpt lat="49.8746135" lon="19.5233254"/>
      <trkpt lat="49.8745804" lon="19.5235463"/>
      <trkpt lat="49.8745492" lon="19.5237604"/>
      <trkpt lat="49.8745192" lon="19.5239599"/>
      <trkpt lat="49.8744868" lon="19.5241825"/>
      <trkpt lat="49.8744279" lon="19.5245675"/>
      <trkpt lat="49.8743956" lon="19.5247768"/>
      <trkpt lat="49.8743655" lon="19.5249785"/>
      <trkpt lat="49.8743331" lon="19.52518"/>
      <trkpt lat="49.8743021" lon="19.5253863"/>
      <trkpt lat="49.8742486" lon="19.5257383"/>
      <trkpt lat="49.8742184" lon="19.5259322"/>
      <trkpt lat="49.8741888" lon="19.5261384"/>
      <trkpt lat="49.8741329" lon="19.5265003"/>
      <trkpt lat="49.8741056" lon="19.5266806"/>
      <trkpt lat="49.8740766" lon="19.5268759"/>
      <trkpt lat="49.8740459" lon="19.527075"/>
      <trkpt lat="49.8740194" lon="19.5272493"/>
      <trkpt lat="49.8739904" lon="19.5274429"/>
      <trkpt lat="49.8739593" lon="19.5276375"/>
      <trkpt lat="49.8739269" lon="19.527853"/>
      <trkpt lat="49.8738981" lon="19.5280423"/>
      <trkpt lat="49.8738648" lon="19.5282598"/>
      <trkpt lat="49.8738253" lon="19.5285276"/>
      <trkpt lat="49.8737633" lon="19.5289209"/>
      <trkpt lat="49.873702" lon="19.5293218"/>
      <trkpt lat="49.8736701" lon="19.5295299"/>
      <trkpt lat="49.8736359" lon="19.5297416"/>
      <trkpt lat="49.8736001" lon="19.5299495"/>
      <trkpt lat="49.8735654" lon="19.5301289"/>
      <trkpt lat="49.8735254" lon="19.5303355"/>
      <trkpt lat="49.8734834" lon="19.5305394"/>
      <trkpt lat="49.8734425" lon="19.530741"/>
      <trkpt lat="49.873393" lon="19.5309839"/>
      <trkpt lat="49.8733147" lon="19.5313659"/>
      <trkpt lat="49.8732793" lon="19.5315348"/>
      <trkpt lat="49.8732433" lon="19.5317161"/>
      <trkpt lat="49.8732156" lon="19.5318647"/>
      <trkpt lat="49.8731912" lon="19.5319835"/>
      <trkpt lat="49.8731696" lon="19.5320922"/>
      <trkpt lat="49.8731464" lon="19.5322032"/>
      <trkpt lat="49.8731022" lon="19.5324108"/>
      <trkpt lat="49.8730786" lon="19.5325196"/>
      <trkpt lat="49.8730537" lon="19.5326335"/>
      <trkpt lat="49.8730225" lon="19.5327861"/>
      <trkpt lat="49.8729684" lon="19.5330557"/>
      <trkpt lat="49.8729401" lon="19.5331966"/>
      <trkpt lat="49.8729084" lon="19.5333546"/>
      <trkpt lat="49.8728795" lon="19.5334916"/>
      <trkpt lat="49.872837" lon="19.5336894"/>
      <trkpt lat="49.8727753" lon="19.5339924"/>
      <trkpt lat="49.8727361" lon="19.5341813"/>
      <trkpt lat="49.8726973" lon="19.5343665"/>
      <trkpt lat="49.8726547" lon="19.5345723"/>
      <trkpt lat="49.8726164" lon="19.534757"/>
      <trkpt lat="49.8725813" lon="19.5349383"/>
      <trkpt lat="49.8725404" lon="19.5351364"/>
      <trkpt lat="49.8724943" lon="19.5353572"/>
      <trkpt lat="49.8724507" lon="19.53557"/>
      <trkpt lat="49.8724101" lon="19.535767"/>
      <trkpt lat="49.8723659" lon="19.5359832"/>
      <trkpt lat="49.8723233" lon="19.5361879"/>
      <trkpt lat="49.8722804" lon="19.5363994"/>
      <trkpt lat="49.8722414" lon="19.5365924"/>
      <trkpt lat="49.8721899" lon="19.5368475"/>
      <trkpt lat="49.8721049" lon="19.5372589"/>
      <trkpt lat="49.8720265" lon="19.5376293"/>
      <trkpt lat="49.8719843" lon="19.5378309"/>
      <trkpt lat="49.8719023" lon="19.5382281"/>
      <trkpt lat="49.8718589" lon="19.5384354"/>
      <trkpt lat="49.8718155" lon="19.5386384"/>
      <trkpt lat="49.8717637" lon="19.5388912"/>
      <trkpt lat="49.8716813" lon="19.5392953"/>
      <trkpt lat="49.871635" lon="19.5395206"/>
      <trkpt lat="49.8715919" lon="19.5397251"/>
      <trkpt lat="49.8715437" lon="19.5399517"/>
      <trkpt lat="49.8715009" lon="19.540148"/>
      <trkpt lat="49.8714577" lon="19.5403622"/>
      <trkpt lat="49.8714143" lon="19.5405698"/>
      <trkpt lat="49.8713724" lon="19.5407679"/>
      <trkpt lat="49.8713243" lon="19.5409872"/>
      <trkpt lat="49.871255" lon="19.541326"/>
      <trkpt lat="49.87121" lon="19.5415491"/>
      <trkpt lat="49.8711417" lon="19.5418797"/>
      <trkpt lat="49.871107" lon="19.5420488"/>
      <trkpt lat="49.8710719" lon="19.542217"/>
      <trkpt lat="49.8710339" lon="19.5423941"/>
      <trkpt lat="49.8709923" lon="19.5425514"/>
      <trkpt lat="49.8709438" lon="19.542696"/>
      <trkpt lat="49.8708801" lon="19.542829"/>
      <trkpt lat="49.870794" lon="19.5429532"/>
      <trkpt lat="49.8706055" lon="19.5431645"/>
      <trkpt lat="49.8705057" lon="19.5432744"/>
      <trkpt lat="49.8703767" lon="19.5435024"/>
      <trkpt lat="49.8703316" lon="19.5436969"/>
      <trkpt lat="49.8703471" lon="19.5438411"/>
      <trkpt lat="49.8704425" lon="19.5440919"/>
      <trkpt lat="49.8704864" lon="19.544225"/>
      <trkpt lat="49.8705197" lon="19.5443724"/>
      <trkpt lat="49.8705339" lon="19.5445486"/>
      <trkpt lat="49.8705232" lon="19.5447363"/>
      <trkpt lat="49.8704977" lon="19.5448927"/>
      <trkpt lat="49.8704641" lon="19.5450598"/>
      <trkpt lat="49.8704278" lon="19.5452484"/>
      <trkpt lat="49.8703943" lon="19.5454097"/>
      <trkpt lat="49.8703565" lon="19.5455991"/>
      <trkpt lat="49.8703217" lon="19.5457698"/>
      <trkpt lat="49.870287" lon="19.5459312"/>
      <trkpt lat="49.8702474" lon="19.5461142"/>
      <trkpt lat="49.870208" lon="19.5463004"/>
      <trkpt lat="49.8701731" lon="19.5464753"/>
      <trkpt lat="49.8701333" lon="19.546676"/>
      <trkpt lat="49.8700933" lon="19.5468562"/>
      <trkpt lat="49.8700557" lon="19.5470364"/>
      <trkpt lat="49.8700098" lon="19.5472487"/>
      <trkpt lat="49.8699728" lon="19.5474295"/>
      <trkpt lat="49.8699344" lon="19.5476098"/>
      <trkpt lat="49.8698869" lon="19.5478256"/>
      <trkpt lat="49.8698091" lon="19.5481816"/>
      <trkpt lat="49.8697695" lon="19.548379"/>
      <trkpt lat="49.8697317" lon="19.5485778"/>
      <trkpt lat="49.869697" lon="19.5487787"/>
      <trkpt lat="49.8696694" lon="19.5489754"/>
      <trkpt lat="49.8696426" lon="19.5491975"/>
      <trkpt lat="49.869626" lon="19.5493935"/>
      <trkpt lat="49.8696135" lon="19.5495923"/>
      <trkpt lat="49.8696008" lon="19.5497998"/>
      <trkpt lat="49.8695874" lon="19.5500126"/>
      <trkpt lat="49.8695572" lon="19.5504179"/>
      <trkpt lat="49.8695334" lon="19.5508135"/>
      <trkpt lat="49.8695051" lon="19.5512618"/>
      <trkpt lat="49.8694888" lon="19.5514586"/>
      <trkpt lat="49.8694656" lon="19.5516615"/>
      <trkpt lat="49.8694294" lon="19.5518915"/>
      <trkpt lat="49.8693855" lon="19.5520925"/>
      <trkpt lat="49.8693298" lon="19.5523088"/>
      <trkpt lat="49.8692658" lon="19.5525372"/>
      <trkpt lat="49.8692017" lon="19.5527543"/>
      <trkpt lat="49.8691321" lon="19.5529811"/>
      <trkpt lat="49.8690615" lon="19.553217"/>
      <trkpt lat="49.8689907" lon="19.5534574"/>
      <trkpt lat="49.8689168" lon="19.553713"/>
      <trkpt lat="49.8687879" lon="19.5541481"/>
      <trkpt lat="49.8687169" lon="19.5543934"/>
      <trkpt lat="49.868591" lon="19.5548232"/>
      <trkpt lat="49.8685197" lon="19.5550499"/>
      <trkpt lat="49.8684496" lon="19.5552788"/>
      <trkpt lat="49.8683914" lon="19.5554898"/>
      <trkpt lat="49.8683181" lon="19.5557322"/>
      <trkpt lat="49.8682548" lon="19.5559404"/>
      <trkpt lat="49.8681812" lon="19.556191"/>
      <trkpt lat="49.8680751" lon="19.5565749"/>
      <trkpt lat="49.8680172" lon="19.5567824"/>
      <trkpt lat="49.8679624" lon="19.5569717"/>
      <trkpt lat="49.8679037" lon="19.5571705"/>
      <trkpt lat="49.8678418" lon="19.5573704"/>
      <trkpt lat="49.8677869" lon="19.5575644"/>
      <trkpt lat="49.8677239" lon="19.557775"/>
      <trkpt lat="49.8676605" lon="19.557985"/>
      <trkpt lat="49.8675411" lon="19.5583964"/>
      <trkpt lat="49.8674378" lon="19.5587572"/>
      <trkpt lat="49.8673761" lon="19.558971"/>
      <trkpt lat="49.8673047" lon="19.5592049"/>
      <trkpt lat="49.867191" lon="19.5596049"/>
      <trkpt lat="49.867133" lon="19.5598039"/>
      <trkpt lat="49.8670751" lon="19.5600102"/>
      <trkpt lat="49.8670091" lon="19.5602383"/>
      <trkpt lat="49.8669177" lon="19.5606327"/>
      <trkpt lat="49.8668846" lon="19.5608418"/>
      <trkpt lat="49.8668613" lon="19.5610782"/>
      <trkpt lat="49.8668409" lon="19.5613111"/>
      <trkpt lat="49.8668227" lon="19.5615129"/>
      <trkpt lat="49.8668053" lon="19.5617202"/>
      <trkpt lat="49.8667856" lon="19.5619275"/>
      <trkpt lat="49.8667638" lon="19.562145"/>
      <trkpt lat="49.8667432" lon="19.5623639"/>
      <trkpt lat="49.8667241" lon="19.5625754"/>
      <trkpt lat="49.8667031" lon="19.5628033"/>
      <trkpt lat="49.8666854" lon="19.5630188"/>
      <trkpt lat="49.8666654" lon="19.5632618"/>
      <trkpt lat="49.8666481" lon="19.5634834"/>
      <trkpt lat="49.8666301" lon="19.563704"/>
      <trkpt lat="49.8666133" lon="19.5639222"/>
      <trkpt lat="49.8665941" lon="19.5641799"/>
      <trkpt lat="49.866558" lon="19.5646545"/>
      <trkpt lat="49.8665194" lon="19.5651352"/>
      <trkpt lat="49.8664989" lon="19.5654024"/>
      <trkpt lat="49.8664777" lon="19.5656716"/>
      <trkpt lat="49.8664582" lon="19.5659165"/>
      <trkpt lat="49.8664375" lon="19.5661939"/>
      <trkpt lat="49.8663967" lon="19.5667444"/>
      <trkpt lat="49.8663574" lon="19.5672419"/>
      <trkpt lat="49.8663378" lon="19.5674922"/>
      <trkpt lat="49.8663182" lon="19.5677517"/>
      <trkpt lat="49.8663012" lon="19.5679802"/>
      <trkpt lat="49.8662813" lon="19.5682302"/>
      <trkpt lat="49.8662599" lon="19.5684736"/>
      <trkpt lat="49.866238" lon="19.5687355"/>
      <trkpt lat="49.8662177" lon="19.569"/>
      <trkpt lat="49.866183" lon="19.5694832"/>
      <trkpt lat="49.8661657" lon="19.5697119"/>
      <trkpt lat="49.8661486" lon="19.5699595"/>
      <trkpt lat="49.8661325" lon="19.5701871"/>
      <trkpt lat="49.8661137" lon="19.5704397"/>
      <trkpt lat="49.8660968" lon="19.570681"/>
      <trkpt lat="49.866077" lon="19.5709207"/>
      <trkpt lat="49.8660603" lon="19.5711405"/>
      <trkpt lat="49.8660408" lon="19.5714024"/>
      <trkpt lat="49.8660232" lon="19.5716296"/>
      <trkpt lat="49.8660037" lon="19.5719012"/>
      <trkpt lat="49.8659712" lon="19.5723287"/>
      <trkpt lat="49.8659505" lon="19.5725957"/>
      <trkpt lat="49.8659306" lon="19.5728799"/>
      <trkpt lat="49.8658932" lon="19.5733535"/>
      <trkpt lat="49.8658757" lon="19.5736004"/>
      <trkpt lat="49.8658592" lon="19.5738341"/>
      <trkpt lat="49.8658416" lon="19.5740817"/>
      <trkpt lat="49.8658233" lon="19.5743517"/>
      <trkpt lat="49.8657934" lon="19.5747878"/>
      <trkpt lat="49.8657788" lon="19.5749852"/>
      <trkpt lat="49.865762" lon="19.5752148"/>
      <trkpt lat="49.865746" lon="19.5754194"/>
      <trkpt lat="49.8657299" lon="19.5756207"/>
      <trkpt lat="49.8657141" lon="19.5758529"/>
      <trkpt lat="49.8656853" lon="19.5763161"/>
      <trkpt lat="49.8656705" lon="19.5765373"/>
      <trkpt lat="49.865652" lon="19.5767761"/>
      <trkpt lat="49.865635" lon="19.5769962"/>
      <trkpt lat="49.865618" lon="19.5772286"/>
      <trkpt lat="49.8656001" lon="19.5774405"/>
      <trkpt lat="49.8655803" lon="19.577693"/>
      <trkpt lat="49.8655643" lon="19.5779141"/>
      <trkpt lat="49.865548" lon="19.5781337"/>
      <trkpt lat="49.8655284" lon="19.5783948"/>
      <trkpt lat="49.8654927" lon="19.5788725"/>
      <trkpt lat="49.8654614" lon="19.5792886"/>
      <trkpt lat="49.8654444" lon="19.5795251"/>
      <trkpt lat="49.8654296" lon="19.579721"/>
      <trkpt lat="49.8654124" lon="19.5799502"/>
      <trkpt lat="49.8653801" lon="19.5803605"/>
      <trkpt lat="49.8653608" lon="19.5805991"/>
      <trkpt lat="49.8653443" lon="19.5807992"/>
      <trkpt lat="49.8653244" lon="19.5810407"/>
      <trkpt lat="49.8652833" lon="19.5814835"/>
      <trkpt lat="49.8652621" lon="19.5817143"/>
      <trkpt lat="49.8652195" lon="19.5821507"/>
      <trkpt lat="49.8651946" lon="19.5824199"/>
      <trkpt lat="49.8651721" lon="19.582685"/>
      <trkpt lat="49.8651311" lon="19.5831303"/>
      <trkpt lat="49.865111" lon="19.5833406"/>
      <trkpt lat="49.8650904" lon="19.5835535"/>
      <trkpt lat="49.8650678" lon="19.5837696"/>
      <trkpt lat="49.8650489" lon="19.5839814"/>
      <trkpt lat="49.8650324" lon="19.5841886"/>
      <trkpt lat="49.8650149" lon="19.5843916"/>
      <trkpt lat="49.8649958" lon="19.5846023"/>
      <trkpt lat="49.864979" lon="19.5848029"/>
      <trkpt lat="49.8649595" lon="19.5849996"/>
      <trkpt lat="49.8649404" lon="19.5852056"/>
      <trkpt lat="49.8649192" lon="19.5854277"/>
      <trkpt lat="49.8649005" lon="19.5856383"/>
      <trkpt lat="49.8648776" lon="19.5858772"/>
      <trkpt lat="49.8648603" lon="19.5860791"/>
      <trkpt lat="49.8648424" lon="19.5862811"/>
      <trkpt lat="49.8648224" lon="19.5865155"/>
      <trkpt lat="49.8648065" lon="19.5869395"/>
      <trkpt lat="49.8648129" lon="19.5871573"/>
      <trkpt lat="49.8648275" lon="19.5873656"/>
      <trkpt lat="49.8648482" lon="19.5875852"/>
      <trkpt lat="49.8648677" lon="19.5877937"/>
      <trkpt lat="49.8649115" lon="19.5882473"/>
      <trkpt lat="49.8649436" lon="19.588667"/>
      <trkpt lat="49.8649626" lon="19.5888831"/>
      <trkpt lat="49.8649795" lon="19.5890805"/>
      <trkpt lat="49.8650016" lon="19.589297"/>
      <trkpt lat="49.8650201" lon="19.589523"/>
      <trkpt lat="49.8650406" lon="19.5897387"/>
      <trkpt lat="49.8650564" lon="19.589949"/>
      <trkpt lat="49.8650731" lon="19.590148"/>
      <trkpt lat="49.8650935" lon="19.5903768"/>
      <trkpt lat="49.8651138" lon="19.5905895"/>
      <trkpt lat="49.8651379" lon="19.5907859"/>
      <trkpt lat="49.8651668" lon="19.5910136"/>
      <trkpt lat="49.8651982" lon="19.5912172"/>
      <trkpt lat="49.8652346" lon="19.5914489"/>
      <trkpt lat="49.8652722" lon="19.5916479"/>
      <trkpt lat="49.8653507" lon="19.5920589"/>
      <trkpt lat="49.8653908" lon="19.5922615"/>
      <trkpt lat="49.8654296" lon="19.5924601"/>
      <trkpt lat="49.865471" lon="19.5926571"/>
      <trkpt lat="49.8655144" lon="19.5928828"/>
      <trkpt lat="49.8655925" lon="19.5932617"/>
      <trkpt lat="49.8656366" lon="19.5934863"/>
      <trkpt lat="49.8656799" lon="19.5938738"/>
      <trkpt lat="49.8656783" lon="19.5940446"/>
      <trkpt lat="49.8656626" lon="19.5942383"/>
      <trkpt lat="49.8656305" lon="19.5944347"/>
      <trkpt lat="49.8655978" lon="19.594609"/>
      <trkpt lat="49.8655281" lon="19.5949674"/>
      <trkpt lat="49.865495" lon="19.5951484"/>
      <trkpt lat="49.8654567" lon="19.5953512"/>
      <trkpt lat="49.8654207" lon="19.5955423"/>
      <trkpt lat="49.865383" lon="19.5957445"/>
      <trkpt lat="49.8653512" lon="19.5959169"/>
      <trkpt lat="49.865316" lon="19.5961183"/>
      <trkpt lat="49.8652859" lon="19.5963135"/>
      <trkpt lat="49.8652609" lon="19.5965149"/>
      <trkpt lat="49.8652432" lon="19.5967027"/>
      <trkpt lat="49.8652245" lon="19.5969103"/>
      <trkpt lat="49.8652057" lon="19.5971306"/>
      <trkpt lat="49.8651852" lon="19.5973299"/>
      <trkpt lat="49.8651731" lon="19.5975224"/>
      <trkpt lat="49.8651573" lon="19.5977399"/>
      <trkpt lat="49.8651457" lon="19.5979367"/>
      <trkpt lat="49.8651305" lon="19.5981445"/>
      <trkpt lat="49.8651131" lon="19.5983369"/>
      <trkpt lat="49.8650954" lon="19.5985448"/>
      <trkpt lat="49.8650826" lon="19.5987328"/>
      <trkpt lat="49.8650657" lon="19.5989432"/>
      <trkpt lat="49.8650496" lon="19.5991519"/>
      <trkpt lat="49.8650291" lon="19.5993807"/>
      <trkpt lat="49.8649947" lon="19.5998179"/>
      <trkpt lat="49.864979" lon="19.600039"/>
      <trkpt lat="49.8649598" lon="19.600258"/>
      <trkpt lat="49.8649447" lon="19.6004822"/>
      <trkpt lat="49.8649258" lon="19.6007238"/>
      <trkpt lat="49.8649075" lon="19.6009593"/>
      <trkpt lat="49.8648891" lon="19.6012132"/>
      <trkpt lat="49.8648698" lon="19.6014525"/>
      <trkpt lat="49.8648539" lon="19.6016851"/>
      <trkpt lat="49.8648353" lon="19.6019035"/>
      <trkpt lat="49.864816" lon="19.6021452"/>
      <trkpt lat="49.8647982" lon="19.6023855"/>
      <trkpt lat="49.8647644" lon="19.6028195"/>
      <trkpt lat="49.864748" lon="19.6030342"/>
      <trkpt lat="49.864736" lon="19.6032272"/>
      <trkpt lat="49.8647218" lon="19.6034421"/>
      <trkpt lat="49.8647068" lon="19.6036401"/>
      <trkpt lat="49.8646893" lon="19.6038803"/>
      <trkpt lat="49.8646742" lon="19.6040755"/>
      <trkpt lat="49.8646551" lon="19.6042884"/>
      <trkpt lat="49.864638" lon="19.6045186"/>
      <trkpt lat="49.864622" lon="19.6047239"/>
      <trkpt lat="49.8646032" lon="19.604979"/>
      <trkpt lat="49.8645843" lon="19.6052218"/>
      <trkpt lat="49.8645678" lon="19.6054354"/>
      <trkpt lat="49.864551" lon="19.6056397"/>
      <trkpt lat="49.8645383" lon="19.6058561"/>
      <trkpt lat="49.8645184" lon="19.6060952"/>
      <trkpt lat="49.8644833" lon="19.6065259"/>
      <trkpt lat="49.8644491" lon="19.6069318"/>
      <trkpt lat="49.8644292" lon="19.6071627"/>
      <trkpt lat="49.864412" lon="19.6073649"/>
      <trkpt lat="49.8643941" lon="19.6075725"/>
      <trkpt lat="49.8643787" lon="19.6077599"/>
      <trkpt lat="49.8643625" lon="19.6079563"/>
      <trkpt lat="49.8643434" lon="19.608191"/>
      <trkpt lat="49.8643158" lon="19.6085585"/>
      <trkpt lat="49.8643002" lon="19.6087781"/>
      <trkpt lat="49.8642708" lon="19.6091702"/>
      <trkpt lat="49.8642501" lon="19.6094054"/>
      <trkpt lat="49.8642347" lon="19.6095986"/>
      <trkpt lat="49.864217" lon="19.6098228"/>
      <trkpt lat="49.8642003" lon="19.6100537"/>
      <trkpt lat="49.8641868" lon="19.6102489"/>
      <trkpt lat="49.8641729" lon="19.6104434"/>
      <trkpt lat="49.8641493" lon="19.6107645"/>
      <trkpt lat="49.8641205" lon="19.6111172"/>
      <trkpt lat="49.8641064" lon="19.6113161"/>
      <trkpt lat="49.8640885" lon="19.6115321"/>
      <trkpt lat="49.8640737" lon="19.6117322"/>
      <trkpt lat="49.8640576" lon="19.6119552"/>
      <trkpt lat="49.8640424" lon="19.6121535"/>
      <trkpt lat="49.8640276" lon="19.6123622"/>
      <trkpt lat="49.8640141" lon="19.6125603"/>
      <trkpt lat="49.8640041" lon="19.6127573"/>
      <trkpt lat="49.8639953" lon="19.6129852"/>
      <trkpt lat="49.8639992" lon="19.613218"/>
      <trkpt lat="49.8640184" lon="19.6136351"/>
      <trkpt lat="49.8640513" lon="19.6140547"/>
      <trkpt lat="49.8640692" lon="19.6142451"/>
      <trkpt lat="49.8641081" lon="19.6146375"/>
      <trkpt lat="49.8641271" lon="19.6148639"/>
      <trkpt lat="49.864144" lon="19.6150628"/>
      <trkpt lat="49.8641674" lon="19.6152835"/>
      <trkpt lat="49.8641886" lon="19.6155273"/>
      <trkpt lat="49.864209" lon="19.6157459"/>
      <trkpt lat="49.8642487" lon="19.6161446"/>
      <trkpt lat="49.8642631" lon="19.6163652"/>
      <trkpt lat="49.8642782" lon="19.6165879"/>
      <trkpt lat="49.864292" lon="19.616819"/>
      <trkpt lat="49.8642929" lon="19.6172142"/>
      <trkpt lat="49.864269" lon="19.6176249"/>
      <trkpt lat="49.8642606" lon="19.6178503"/>
      <trkpt lat="49.8642548" lon="19.6180656"/>
      <trkpt lat="49.8642487" lon="19.6182579"/>
      <trkpt lat="49.8642399" lon="19.6184781"/>
      <trkpt lat="49.8642297" lon="19.6186997"/>
      <trkpt lat="49.8642178" lon="19.6189287"/>
      <trkpt lat="49.8642092" lon="19.6191337"/>
      <trkpt lat="49.8641976" lon="19.6193618"/>
      <trkpt lat="49.8641858" lon="19.6195547"/>
      <trkpt lat="49.864176" lon="19.619766"/>
      <trkpt lat="49.8641681" lon="19.6199652"/>
      <trkpt lat="49.8641672" lon="19.6201658"/>
      <trkpt lat="49.8642089" lon="19.6205519"/>
      <trkpt lat="49.864248" lon="19.620728"/>
      <trkpt lat="49.8643044" lon="19.6209105"/>
      <trkpt lat="49.8643707" lon="19.6210661"/>
      <trkpt lat="49.8644497" lon="19.6212149"/>
      <trkpt lat="49.8645407" lon="19.6213744"/>
      <trkpt lat="49.8646315" lon="19.6215304"/>
      <trkpt lat="49.864726" lon="19.6216862"/>
      <trkpt lat="49.864825" lon="19.6218559"/>
      <trkpt lat="49.8649182" lon="19.6220104"/>
      <trkpt lat="49.8650217" lon="19.6221856"/>
      <trkpt lat="49.8651178" lon="19.6223554"/>
      <trkpt lat="49.8652158" lon="19.62252"/>
      <trkpt lat="49.8653169" lon="19.6226824"/>
      <trkpt lat="49.8654207" lon="19.6228538"/>
      <trkpt lat="49.8655155" lon="19.6230138"/>
      <trkpt lat="49.8656222" lon="19.6231898"/>
      <trkpt lat="49.8657253" lon="19.6233574"/>
      <trkpt lat="49.8658388" lon="19.623548"/>
      <trkpt lat="49.8659548" lon="19.6237355"/>
      <trkpt lat="49.8660683" lon="19.6239261"/>
      <trkpt lat="49.8662749" lon="19.6242707"/>
      <trkpt lat="49.866385" lon="19.6244523"/>
      <trkpt lat="49.8665785" lon="19.6247754"/>
      <trkpt lat="49.866679" lon="19.6249517"/>
      <trkpt lat="49.8667711" lon="19.6251311"/>
      <trkpt lat="49.8668633" lon="19.6253303"/>
      <trkpt lat="49.866946" lon="19.6255366"/>
      <trkpt lat="49.8670226" lon="19.6257487"/>
      <trkpt lat="49.8670946" lon="19.6259729"/>
      <trkpt lat="49.8671526" lon="19.6261781"/>
      <trkpt lat="49.8672147" lon="19.6264002"/>
      <trkpt lat="49.8672732" lon="19.6266167"/>
      <trkpt lat="49.8673321" lon="19.6268267"/>
      <trkpt lat="49.8673973" lon="19.6270562"/>
      <trkpt lat="49.8674602" lon="19.6272852"/>
      <trkpt lat="49.8675185" lon="19.627499"/>
      <trkpt lat="49.8675727" lon="19.6276885"/>
      <trkpt lat="49.8676336" lon="19.6279075"/>
      <trkpt lat="49.8676872" lon="19.6281037"/>
      <trkpt lat="49.867742" lon="19.6283021"/>
      <trkpt lat="49.8678068" lon="19.628533"/>
      <trkpt lat="49.8679204" lon="19.6289503"/>
      <trkpt lat="49.8679952" lon="19.6292103"/>
      <trkpt lat="49.8680515" lon="19.6294115"/>
      <trkpt lat="49.8681647" lon="19.6298134"/>
      <trkpt lat="49.8682262" lon="19.6300308"/>
      <trkpt lat="49.8682831" lon="19.6302312"/>
      <trkpt lat="49.8683386" lon="19.6304288"/>
      <trkpt lat="49.8683952" lon="19.6306374"/>
      <trkpt lat="49.8684566" lon="19.6308703"/>
      <trkpt lat="49.868518" lon="19.6310737"/>
      <trkpt lat="49.8686302" lon="19.6314764"/>
      <trkpt lat="49.8686871" lon="19.6316849"/>
      <trkpt lat="49.868741" lon="19.6318902"/>
      <trkpt lat="49.8687966" lon="19.6320988"/>
      <trkpt lat="49.8688486" lon="19.6322996"/>
      <trkpt lat="49.8689028" lon="19.632499"/>
      <trkpt lat="49.868957" lon="19.6327096"/>
      <trkpt lat="49.8690099" lon="19.6329244"/>
      <trkpt lat="49.869057" lon="19.63316"/>
      <trkpt lat="49.8691032" lon="19.6333751"/>
      <trkpt lat="49.8691446" lon="19.6335887"/>
      <trkpt lat="49.8691885" lon="19.6338326"/>
      <trkpt lat="49.869231" lon="19.6340575"/>
      <trkpt lat="49.8692727" lon="19.6342849"/>
      <trkpt lat="49.8693118" lon="19.6344944"/>
      <trkpt lat="49.869351" lon="19.6347196"/>
      <trkpt lat="49.869391" lon="19.6349389"/>
      <trkpt lat="49.8694298" lon="19.6351644"/>
      <trkpt lat="49.8694667" lon="19.6353709"/>
      <trkpt lat="49.8695078" lon="19.6356113"/>
      <trkpt lat="49.8695784" lon="19.6360117"/>
      <trkpt lat="49.8696501" lon="19.6364079"/>
      <trkpt lat="49.8697176" lon="19.6367804"/>
      <trkpt lat="49.8697545" lon="19.6369767"/>
      <trkpt lat="49.8697907" lon="19.6371682"/>
      <trkpt lat="49.8698275" lon="19.6373646"/>
      <trkpt lat="49.8698574" lon="19.6375399"/>
      <trkpt lat="49.8698922" lon="19.6377356"/>
      <trkpt lat="49.8699278" lon="19.6379278"/>
      <trkpt lat="49.8699805" lon="19.6382126"/>
      <trkpt lat="49.8700048" lon="19.6383352"/>
    </trkseg>
  </trk>
</gpx>
