<?xml version="1.0" encoding="UTF-8"?>
<gpx version="1.1" creator="Where Am I App" xmlns="http://www.topografix.com/GPX/1/1">
  <metadata>
    <name>Trip on 2026-09-09 11:59</name>
    <time>2026-09-09T09:59:28Z</time>
  </metadata>
  <wpt lat="49.8685192" lon="19.6308631">
    <name>Barwałd Górny</name>
    <desc>pow. wadowicki • woj. małopolskie</desc>
    <time>2026-09-09T09:59:28Z</time>
  </wpt>
  <wpt lat="49.8655919" lon="19.6230534">
    <name>Kalwaria Zebrzydowska</name>
    <desc>pow. wadowicki • woj. małopolskie</desc>
    <time>2026-09-09T10:00:12Z</time>
  </wpt>
  <wpt lat="49.8651201" lon="19.6222677">
    <name>Barwałd Górny</name>
    <desc>pow. wadowicki • woj. małopolskie</desc>
    <time>2026-09-09T10:00:16Z</time>
  </wpt>
  <wpt lat="49.8645645" lon="19.6055962">
    <name>Klecza Górna</name>
    <desc>pow. wadowicki • woj. małopolskie</desc>
    <time>2026-09-09T10:01:33Z</time>
  </wpt>
  <wpt lat="49.8646547" lon="19.6044788">
    <name>Barwałd Średni</name>
    <desc>pow. wadowicki • woj. małopolskie</desc>
    <time>2026-09-09T10:01:38Z</time>
  </wpt>
  <wpt lat="49.8581213" lon="19.5923454">
    <name>Klecza Górna</name>
    <desc>pow. wadowicki • woj. małopolskie</desc>
    <time>2026-09-09T10:04:28Z</time>
  </wpt>
  <wpt lat="49.8568704" lon="19.5898727">
    <name>Barwałd Średni</name>
    <desc>pow. wadowicki • woj. małopolskie</desc>
    <time>2026-09-09T10:08:56Z</time>
  </wpt>
  <wpt lat="49.8772648" lon="19.5079972">
    <name>Wadowice</name>
    <desc>pow. wadowicki • woj. małopolskie</desc>
    <time>2026-09-09T10:20:31Z</time>
  </wpt>
  <wpt lat="49.8844038" lon="19.4738">
    <name>Chocznia</name>
    <desc>pow. wadowicki • woj. małopolskie</desc>
    <time>2026-09-09T10:29:25Z</time>
  </wpt>
  <wpt lat="49.8685856" lon="19.4229687">
    <name>Inwałd</name>
    <desc>pow. wadowicki • woj. małopolskie</desc>
    <time>2026-09-09T10:34:01Z</time>
  </wpt>
  <wpt lat="49.8552328" lon="19.3374033">
    <name>Andrychów</name>
    <desc>pow. wadowicki • woj. małopolskie</desc>
    <time>2026-09-09T10:43:00Z</time>
  </wpt>
  <wpt lat="49.8658316" lon="19.3113743">
    <name>Bulowice</name>
    <desc>pow. oświęcimski • woj. małopolskie</desc>
    <time>2026-09-09T10:56:11Z</time>
  </wpt>
  <wpt lat="49.8508032" lon="19.2851402">
    <name>Czaniec</name>
    <desc>pow. bielski • woj. śląskie</desc>
    <time>2026-09-09T11:37:05Z</time>
  </wpt>
  <trk>
    <name>Trip on 2026-09-09 11:59</name>
    <trkseg>
      <trkpt lat="49.8685192" lon="19.6308631"/>
      <trkpt lat="49.8684702" lon="19.63068"/>
      <trkpt lat="49.8684184" lon="19.630493"/>
      <trkpt lat="49.8683632" lon="19.6302991"/>
      <trkpt lat="49.8683175" lon="19.630134"/>
      <trkpt lat="49.8682606" lon="19.629931"/>
      <trkpt lat="49.8681689" lon="19.6296131"/>
      <trkpt lat="49.8681187" lon="19.6294423"/>
      <trkpt lat="49.8680637" lon="19.6292467"/>
      <trkpt lat="49.8680188" lon="19.6290848"/>
      <trkpt lat="49.8679693" lon="19.6289191"/>
      <trkpt lat="49.8679214" lon="19.6287554"/>
      <trkpt lat="49.8678737" lon="19.6285844"/>
      <trkpt lat="49.8678201" lon="19.6284066"/>
      <trkpt lat="49.8677287" lon="19.6280897"/>
      <trkpt lat="49.8676799" lon="19.62791"/>
      <trkpt lat="49.8676276" lon="19.6277263"/>
      <trkpt lat="49.8675698" lon="19.6275235"/>
      <trkpt lat="49.8674707" lon="19.6271534"/>
      <trkpt lat="49.8674203" lon="19.6269812"/>
      <trkpt lat="49.8673621" lon="19.6267772"/>
      <trkpt lat="49.8673058" lon="19.6265918"/>
      <trkpt lat="49.8672511" lon="19.6263803"/>
      <trkpt lat="49.8672004" lon="19.6261913"/>
      <trkpt lat="49.8671457" lon="19.6260021"/>
      <trkpt lat="49.867085" lon="19.6257889"/>
      <trkpt lat="49.8669626" lon="19.62544"/>
      <trkpt lat="49.8668816" lon="19.625242"/>
      <trkpt lat="49.8668022" lon="19.6250823"/>
      <trkpt lat="49.8667191" lon="19.6249239"/>
      <trkpt lat="49.8666257" lon="19.6247644"/>
      <trkpt lat="49.8665375" lon="19.6246238"/>
      <trkpt lat="49.8664369" lon="19.6244574"/>
      <trkpt lat="49.866345" lon="19.6243111"/>
      <trkpt lat="49.8662482" lon="19.6241503"/>
      <trkpt lat="49.8661565" lon="19.6239934"/>
      <trkpt lat="49.866056" lon="19.6238248"/>
      <trkpt lat="49.8659565" lon="19.6236569"/>
      <trkpt lat="49.8657706" lon="19.6233475"/>
      <trkpt lat="49.8656815" lon="19.6232121"/>
      <trkpt lat="49.8655919" lon="19.6230534"/>
      <trkpt lat="49.8654865" lon="19.6228847"/>
      <trkpt lat="49.8653971" lon="19.622732"/>
      <trkpt lat="49.8653064" lon="19.6225848"/>
      <trkpt lat="49.8652184" lon="19.6224376"/>
      <trkpt lat="49.8651201" lon="19.6222677"/>
      <trkpt lat="49.8650159" lon="19.6220903"/>
      <trkpt lat="49.8649302" lon="19.6219456"/>
      <trkpt lat="49.8648278" lon="19.6217766"/>
      <trkpt lat="49.8647387" lon="19.6216292"/>
      <trkpt lat="49.864647" lon="19.6214638"/>
      <trkpt lat="49.8645544" lon="19.6212946"/>
      <trkpt lat="49.8644734" lon="19.6211305"/>
      <trkpt lat="49.8643936" lon="19.6209631"/>
      <trkpt lat="49.8643097" lon="19.6207458"/>
      <trkpt lat="49.8642655" lon="19.6205662"/>
      <trkpt lat="49.8642277" lon="19.6203796"/>
      <trkpt lat="49.8642012" lon="19.6201237"/>
      <trkpt lat="49.8641984" lon="19.6197219"/>
      <trkpt lat="49.864206" lon="19.6195311"/>
      <trkpt lat="49.8642088" lon="19.619297"/>
      <trkpt lat="49.8642197" lon="19.6190214"/>
      <trkpt lat="49.864244" lon="19.618613"/>
      <trkpt lat="49.8642527" lon="19.6184148"/>
      <trkpt lat="49.8642626" lon="19.6181611"/>
      <trkpt lat="49.8642938" lon="19.6177185"/>
      <trkpt lat="49.8643074" lon="19.6172989"/>
      <trkpt lat="49.8643124" lon="19.6170788"/>
      <trkpt lat="49.8643072" lon="19.6168682"/>
      <trkpt lat="49.864306" lon="19.6166524"/>
      <trkpt lat="49.8642868" lon="19.6163998"/>
      <trkpt lat="49.8642666" lon="19.6161576"/>
      <trkpt lat="49.8642472" lon="19.6159432"/>
      <trkpt lat="49.8642229" lon="19.6156996"/>
      <trkpt lat="49.8642006" lon="19.6154507"/>
      <trkpt lat="49.864161" lon="19.6150647"/>
      <trkpt lat="49.8641399" lon="19.6147692"/>
      <trkpt lat="49.8641026" lon="19.6143887"/>
      <trkpt lat="49.864081" lon="19.6141696"/>
      <trkpt lat="49.8640414" lon="19.6137363"/>
      <trkpt lat="49.8640256" lon="19.6135189"/>
      <trkpt lat="49.8640155" lon="19.6132735"/>
      <trkpt lat="49.8640113" lon="19.6130575"/>
      <trkpt lat="49.8640117" lon="19.6128269"/>
      <trkpt lat="49.8640175" lon="19.6126112"/>
      <trkpt lat="49.8640318" lon="19.6123684"/>
      <trkpt lat="49.8640452" lon="19.6121213"/>
      <trkpt lat="49.8640658" lon="19.6118707"/>
      <trkpt lat="49.8640822" lon="19.6116573"/>
      <trkpt lat="49.8640996" lon="19.6114189"/>
      <trkpt lat="49.8641207" lon="19.6111742"/>
      <trkpt lat="49.8641402" lon="19.6109267"/>
      <trkpt lat="49.8641562" lon="19.6107112"/>
      <trkpt lat="49.8641723" lon="19.6104656"/>
      <trkpt lat="49.8641947" lon="19.6102472"/>
      <trkpt lat="49.8642126" lon="19.6100031"/>
      <trkpt lat="49.8642288" lon="19.6097623"/>
      <trkpt lat="49.8642485" lon="19.6095373"/>
      <trkpt lat="49.8642654" lon="19.6093062"/>
      <trkpt lat="49.864286" lon="19.6090677"/>
      <trkpt lat="49.8643074" lon="19.6088338"/>
      <trkpt lat="49.8643216" lon="19.6086147"/>
      <trkpt lat="49.8643413" lon="19.6083708"/>
      <trkpt lat="49.8643573" lon="19.6081534"/>
      <trkpt lat="49.864376" lon="19.6079133"/>
      <trkpt lat="49.8643979" lon="19.6076637"/>
      <trkpt lat="49.8644178" lon="19.6074515"/>
      <trkpt lat="49.8644335" lon="19.6071948"/>
      <trkpt lat="49.8644757" lon="19.6067315"/>
      <trkpt lat="49.8645117" lon="19.6062695"/>
      <trkpt lat="49.8645296" lon="19.6060503"/>
      <trkpt lat="49.8645459" lon="19.6058357"/>
      <trkpt lat="49.8645645" lon="19.6055962"/>
      <trkpt lat="49.8646017" lon="19.6051415"/>
      <trkpt lat="49.8646221" lon="19.6048881"/>
      <trkpt lat="49.8646547" lon="19.6044788"/>
      <trkpt lat="49.8646683" lon="19.6042733"/>
      <trkpt lat="49.8646868" lon="19.6040278"/>
      <trkpt lat="49.8647024" lon="19.6038209"/>
      <trkpt lat="49.8647171" lon="19.6036198"/>
      <trkpt lat="49.8647342" lon="19.6033899"/>
      <trkpt lat="49.8647515" lon="19.6031711"/>
      <trkpt lat="49.8647717" lon="19.6029136"/>
      <trkpt lat="49.864806" lon="19.6024859"/>
      <trkpt lat="49.8648258" lon="19.6022311"/>
      <trkpt lat="49.8648585" lon="19.6018261"/>
      <trkpt lat="49.8648742" lon="19.6016267"/>
      <trkpt lat="49.8648918" lon="19.6014141"/>
      <trkpt lat="49.8649075" lon="19.6012096"/>
      <trkpt lat="49.8649241" lon="19.6010168"/>
      <trkpt lat="49.8649356" lon="19.6008384"/>
      <trkpt lat="49.864948" lon="19.6006509"/>
      <trkpt lat="49.8649613" lon="19.6004919"/>
      <trkpt lat="49.8649723" lon="19.600311"/>
      <trkpt lat="49.8649871" lon="19.6001374"/>
      <trkpt lat="49.8650006" lon="19.5999607"/>
      <trkpt lat="49.8650281" lon="19.5996589"/>
      <trkpt lat="49.8650409" lon="19.5995042"/>
      <trkpt lat="49.8650509" lon="19.5993694"/>
      <trkpt lat="49.8650704" lon="19.5990893"/>
      <trkpt lat="49.865079" lon="19.5989717"/>
      <trkpt lat="49.8650894" lon="19.5988582"/>
      <trkpt lat="49.8650958" lon="19.5987672"/>
      <trkpt lat="49.8650204" lon="19.5986097"/>
      <trkpt lat="49.8649741" lon="19.5986318"/>
      <trkpt lat="49.8648906" lon="19.5986945"/>
      <trkpt lat="49.8648442" lon="19.5987249"/>
      <trkpt lat="49.864795" lon="19.5987548"/>
      <trkpt lat="49.8647514" lon="19.5987764"/>
      <trkpt lat="49.8646905" lon="19.5988045"/>
      <trkpt lat="49.8646352" lon="19.5988189"/>
      <trkpt lat="49.8645746" lon="19.5988376"/>
      <trkpt lat="49.8645016" lon="19.5988584"/>
      <trkpt lat="49.8643768" lon="19.5988884"/>
      <trkpt lat="49.864312" lon="19.5989094"/>
      <trkpt lat="49.864238" lon="19.5989291"/>
      <trkpt lat="49.8641629" lon="19.5989487"/>
      <trkpt lat="49.8640914" lon="19.598972"/>
      <trkpt lat="49.8640079" lon="19.5989934"/>
      <trkpt lat="49.8639108" lon="19.5990211"/>
      <trkpt lat="49.8638284" lon="19.5990469"/>
      <trkpt lat="49.8636699" lon="19.5990926"/>
      <trkpt lat="49.8635762" lon="19.5991183"/>
      <trkpt lat="49.8635006" lon="19.5991383"/>
      <trkpt lat="49.8634074" lon="19.5991663"/>
      <trkpt lat="49.8632502" lon="19.5992158"/>
      <trkpt lat="49.8631658" lon="19.5992453"/>
      <trkpt lat="49.8630746" lon="19.5992703"/>
      <trkpt lat="49.8629782" lon="19.5992949"/>
      <trkpt lat="49.8628976" lon="19.5993199"/>
      <trkpt lat="49.8628075" lon="19.5993426"/>
      <trkpt lat="49.8627227" lon="19.5993635"/>
      <trkpt lat="49.862632" lon="19.5993839"/>
      <trkpt lat="49.862534" lon="19.5993949"/>
      <trkpt lat="49.8624501" lon="19.5994049"/>
      <trkpt lat="49.8623066" lon="19.5994123"/>
      <trkpt lat="49.8622315" lon="19.5994043"/>
      <trkpt lat="49.8621569" lon="19.5993855"/>
      <trkpt lat="49.862077" lon="19.5993578"/>
      <trkpt lat="49.8619077" lon="19.5992471"/>
      <trkpt lat="49.8618144" lon="19.5991732"/>
      <trkpt lat="49.861641" lon="19.5989646"/>
      <trkpt lat="49.8614811" lon="19.5987485"/>
      <trkpt lat="49.8613986" lon="19.5986382"/>
      <trkpt lat="49.861319" lon="19.5985165"/>
      <trkpt lat="49.8612255" lon="19.5983925"/>
      <trkpt lat="49.861142" lon="19.5982876"/>
      <trkpt lat="49.8610575" lon="19.5981406"/>
      <trkpt lat="49.8609896" lon="19.5980041"/>
      <trkpt lat="49.8609223" lon="19.597832"/>
      <trkpt lat="49.8608733" lon="19.5976802"/>
      <trkpt lat="49.860838" lon="19.5975165"/>
      <trkpt lat="49.8607985" lon="19.5973053"/>
      <trkpt lat="49.8607444" lon="19.5970018"/>
      <trkpt lat="49.8607089" lon="19.5968553"/>
      <trkpt lat="49.8606526" lon="19.5966927"/>
      <trkpt lat="49.8605785" lon="19.5964597"/>
      <trkpt lat="49.86054" lon="19.5963458"/>
      <trkpt lat="49.8605157" lon="19.5962486"/>
      <trkpt lat="49.860486" lon="19.5961364"/>
      <trkpt lat="49.8604143" lon="19.5959923"/>
      <trkpt lat="49.8603708" lon="19.5959466"/>
      <trkpt lat="49.8603056" lon="19.5959317"/>
      <trkpt lat="49.8602312" lon="19.5959534"/>
      <trkpt lat="49.8601538" lon="19.5959648"/>
      <trkpt lat="49.8600778" lon="19.5959902"/>
      <trkpt lat="49.8599891" lon="19.5960169"/>
      <trkpt lat="49.8598888" lon="19.5960303"/>
      <trkpt lat="49.8597892" lon="19.5960349"/>
      <trkpt lat="49.8596729" lon="19.5960308"/>
      <trkpt lat="49.8594701" lon="19.5959736"/>
      <trkpt lat="49.8593636" lon="19.595929"/>
      <trkpt lat="49.859248" lon="19.595871"/>
      <trkpt lat="49.8591588" lon="19.5958119"/>
      <trkpt lat="49.8590483" lon="19.5957443"/>
      <trkpt lat="49.8589126" lon="19.5955218"/>
      <trkpt lat="49.8588429" lon="19.5953783"/>
      <trkpt lat="49.8587788" lon="19.5952581"/>
      <trkpt lat="49.8587136" lon="19.5951471"/>
      <trkpt lat="49.8586402" lon="19.5950275"/>
      <trkpt lat="49.8585711" lon="19.5949172"/>
      <trkpt lat="49.8585049" lon="19.5948345"/>
      <trkpt lat="49.858426" lon="19.5947488"/>
      <trkpt lat="49.8583319" lon="19.5947072"/>
      <trkpt lat="49.8582326" lon="19.5946995"/>
      <trkpt lat="49.8580688" lon="19.5946767"/>
      <trkpt lat="49.8579874" lon="19.594669"/>
      <trkpt lat="49.8579098" lon="19.5946237"/>
      <trkpt lat="49.8578545" lon="19.5945274"/>
      <trkpt lat="49.8578673" lon="19.5943365"/>
      <trkpt lat="49.8578895" lon="19.5942508"/>
      <trkpt lat="49.857914" lon="19.5941715"/>
      <trkpt lat="49.8579469" lon="19.5940761"/>
      <trkpt lat="49.8579766" lon="19.5939813"/>
      <trkpt lat="49.8580105" lon="19.5938703"/>
      <trkpt lat="49.8580393" lon="19.5937822"/>
      <trkpt lat="49.858071" lon="19.5936896"/>
      <trkpt lat="49.858102" lon="19.593581"/>
      <trkpt lat="49.8581281" lon="19.5934824"/>
      <trkpt lat="49.8581559" lon="19.5933659"/>
      <trkpt lat="49.8581782" lon="19.5932627"/>
      <trkpt lat="49.8582092" lon="19.5931454"/>
      <trkpt lat="49.8582326" lon="19.5930397"/>
      <trkpt lat="49.8582627" lon="19.5929529"/>
      <trkpt lat="49.8583155" lon="19.5927815"/>
      <trkpt lat="49.8583424" lon="19.5926947"/>
      <trkpt lat="49.8583677" lon="19.592611"/>
      <trkpt lat="49.858392" lon="19.5925346"/>
      <trkpt lat="49.8584182" lon="19.592445"/>
      <trkpt lat="49.8582324" lon="19.5923288"/>
      <trkpt lat="49.8581213" lon="19.5923454"/>
      <trkpt lat="49.8580576" lon="19.5923528"/>
      <trkpt lat="49.8579852" lon="19.5923603"/>
      <trkpt lat="49.8579252" lon="19.5923516"/>
      <trkpt lat="49.8578717" lon="19.5923411"/>
      <trkpt lat="49.8578176" lon="19.5923098"/>
      <trkpt lat="49.8577618" lon="19.5922622"/>
      <trkpt lat="49.8577253" lon="19.5921926"/>
      <trkpt lat="49.8576836" lon="19.5921385"/>
      <trkpt lat="49.8576428" lon="19.5919687"/>
      <trkpt lat="49.8576075" lon="19.591881"/>
      <trkpt lat="49.8575321" lon="19.5917698"/>
      <trkpt lat="49.8574914" lon="19.5917111"/>
      <trkpt lat="49.8574113" lon="19.5916618"/>
      <trkpt lat="49.8573559" lon="19.5916071"/>
      <trkpt lat="49.8572995" lon="19.5915353"/>
      <trkpt lat="49.8568704" lon="19.5898727"/>
      <trkpt lat="49.8582819" lon="19.5905377"/>
      <trkpt lat="49.8583296" lon="19.5905579"/>
      <trkpt lat="49.8583961" lon="19.5905526"/>
      <trkpt lat="49.8584759" lon="19.5905531"/>
      <trkpt lat="49.8585513" lon="19.5905769"/>
      <trkpt lat="49.8586273" lon="19.5905861"/>
      <trkpt lat="49.858694" lon="19.5905826"/>
      <trkpt lat="49.8587478" lon="19.5905963"/>
      <trkpt lat="49.8588016" lon="19.5906029"/>
      <trkpt lat="49.8588925" lon="19.5904234"/>
      <trkpt lat="49.858908" lon="19.5903464"/>
      <trkpt lat="49.858921" lon="19.5902686"/>
      <trkpt lat="49.8589395" lon="19.5901769"/>
      <trkpt lat="49.8589486" lon="19.5900811"/>
      <trkpt lat="49.8589886" lon="19.589871"/>
      <trkpt lat="49.8772648" lon="19.5079972"/>
      <trkpt lat="49.8772963" lon="19.5079259"/>
      <trkpt lat="49.8775324" lon="19.5077202"/>
      <trkpt lat="49.8775988" lon="19.5077381"/>
      <trkpt lat="49.8776672" lon="19.5077871"/>
      <trkpt lat="49.8777374" lon="19.5078389"/>
      <trkpt lat="49.8778865" lon="19.507927"/>
      <trkpt lat="49.8779608" lon="19.5079604"/>
      <trkpt lat="49.8780427" lon="19.5079894"/>
      <trkpt lat="49.8781358" lon="19.50801"/>
      <trkpt lat="49.8782258" lon="19.5080064"/>
      <trkpt lat="49.8783254" lon="19.5080003"/>
      <trkpt lat="49.8784377" lon="19.5079788"/>
      <trkpt lat="49.8785345" lon="19.507945"/>
      <trkpt lat="49.8786313" lon="19.5079004"/>
      <trkpt lat="49.8787371" lon="19.5078333"/>
      <trkpt lat="49.8788317" lon="19.5077497"/>
      <trkpt lat="49.8789351" lon="19.5076549"/>
      <trkpt lat="49.8790317" lon="19.5075555"/>
      <trkpt lat="49.8791273" lon="19.5074562"/>
      <trkpt lat="49.8792317" lon="19.5073499"/>
      <trkpt lat="49.87943" lon="19.5071377"/>
      <trkpt lat="49.8795337" lon="19.5070348"/>
      <trkpt lat="49.8796597" lon="19.5069127"/>
      <trkpt lat="49.8798687" lon="19.5067011"/>
      <trkpt lat="49.8799751" lon="19.5065936"/>
      <trkpt lat="49.8800787" lon="19.5064912"/>
      <trkpt lat="49.8801963" lon="19.5063675"/>
      <trkpt lat="49.8803072" lon="19.5062507"/>
      <trkpt lat="49.8804249" lon="19.5061304"/>
      <trkpt lat="49.8805715" lon="19.5059717"/>
      <trkpt lat="49.8807484" lon="19.5057838"/>
      <trkpt lat="49.8808736" lon="19.5056458"/>
      <trkpt lat="49.8810846" lon="19.5054211"/>
      <trkpt lat="49.8811944" lon="19.5053086"/>
      <trkpt lat="49.8813131" lon="19.5051844"/>
      <trkpt lat="49.8815367" lon="19.5049452"/>
      <trkpt lat="49.8816442" lon="19.5048353"/>
      <trkpt lat="49.8817666" lon="19.5047159"/>
      <trkpt lat="49.8818809" lon="19.5046016"/>
      <trkpt lat="49.8819973" lon="19.5044956"/>
      <trkpt lat="49.8821096" lon="19.5044004"/>
      <trkpt lat="49.882259" lon="19.5042736"/>
      <trkpt lat="49.8824704" lon="19.5040835"/>
      <trkpt lat="49.88259" lon="19.5039857"/>
      <trkpt lat="49.8826767" lon="19.503901"/>
      <trkpt lat="49.8827581" lon="19.5038119"/>
      <trkpt lat="49.8828335" lon="19.5037221"/>
      <trkpt lat="49.8829077" lon="19.5036427"/>
      <trkpt lat="49.8829563" lon="19.5035753"/>
      <trkpt lat="49.8830016" lon="19.5035237"/>
      <trkpt lat="49.883179" lon="19.5032734"/>
      <trkpt lat="49.8832143" lon="19.5032279"/>
      <trkpt lat="49.8832537" lon="19.5031783"/>
      <trkpt lat="49.88329" lon="19.503134"/>
      <trkpt lat="49.8833889" lon="19.5030324"/>
      <trkpt lat="49.8834471" lon="19.5029664"/>
      <trkpt lat="49.8835506" lon="19.5028459"/>
      <trkpt lat="49.8836149" lon="19.5027633"/>
      <trkpt lat="49.8836753" lon="19.502686"/>
      <trkpt lat="49.8837438" lon="19.5026081"/>
      <trkpt lat="49.883811" lon="19.5025277"/>
      <trkpt lat="49.8838809" lon="19.5024461"/>
      <trkpt lat="49.8839496" lon="19.5023627"/>
      <trkpt lat="49.8840256" lon="19.5022677"/>
      <trkpt lat="49.884106" lon="19.5021653"/>
      <trkpt lat="49.8841795" lon="19.5020727"/>
      <trkpt lat="49.8842637" lon="19.5019704"/>
      <trkpt lat="49.8843447" lon="19.5018621"/>
      <trkpt lat="49.884422" lon="19.5017723"/>
      <trkpt lat="49.8845889" lon="19.5015652"/>
      <trkpt lat="49.8846727" lon="19.5014584"/>
      <trkpt lat="49.8848529" lon="19.501253"/>
      <trkpt lat="49.8849575" lon="19.5011448"/>
      <trkpt lat="49.8850592" lon="19.5010411"/>
      <trkpt lat="49.8851627" lon="19.5009309"/>
      <trkpt lat="49.8852749" lon="19.5008142"/>
      <trkpt lat="49.8854749" lon="19.500624"/>
      <trkpt lat="49.8855927" lon="19.5005116"/>
      <trkpt lat="49.8857297" lon="19.5003813"/>
      <trkpt lat="49.8858707" lon="19.5002417"/>
      <trkpt lat="49.8860725" lon="19.5000434"/>
      <trkpt lat="49.886188" lon="19.4999352"/>
      <trkpt lat="49.8863" lon="19.4998283"/>
      <trkpt lat="49.8864198" lon="19.4997115"/>
      <trkpt lat="49.8865339" lon="19.4995985"/>
      <trkpt lat="49.8866666" lon="19.4994776"/>
      <trkpt lat="49.886803" lon="19.4993606"/>
      <trkpt lat="49.8870603" lon="19.4991897"/>
      <trkpt lat="49.887298" lon="19.4990211"/>
      <trkpt lat="49.8874366" lon="19.4989323"/>
      <trkpt lat="49.8875605" lon="19.4988419"/>
      <trkpt lat="49.8877777" lon="19.4986721"/>
      <trkpt lat="49.8878936" lon="19.4985781"/>
      <trkpt lat="49.8879955" lon="19.4984838"/>
      <trkpt lat="49.8880948" lon="19.498398"/>
      <trkpt lat="49.8881895" lon="19.4983111"/>
      <trkpt lat="49.8882841" lon="19.4982235"/>
      <trkpt lat="49.8884317" lon="19.4980897"/>
      <trkpt lat="49.8885342" lon="19.4979975"/>
      <trkpt lat="49.8886125" lon="19.4979248"/>
      <trkpt lat="49.8886953" lon="19.4978526"/>
      <trkpt lat="49.8887515" lon="19.497798"/>
      <trkpt lat="49.8889485" lon="19.4976195"/>
      <trkpt lat="49.8892005" lon="19.4972584"/>
      <trkpt lat="49.889395" lon="19.4969783"/>
      <trkpt lat="49.8894253" lon="19.4969197"/>
      <trkpt lat="49.8895718" lon="19.4966323"/>
      <trkpt lat="49.8898292" lon="19.4960383"/>
      <trkpt lat="49.889944" lon="19.4956892"/>
      <trkpt lat="49.8902059" lon="19.4939518"/>
      <trkpt lat="49.8902025" lon="19.4934917"/>
      <trkpt lat="49.8902035" lon="19.4934187"/>
      <trkpt lat="49.8901877" lon="19.4931349"/>
      <trkpt lat="49.8901639" lon="19.4928851"/>
      <trkpt lat="49.890139" lon="19.492712"/>
      <trkpt lat="49.890126" lon="19.4926269"/>
      <trkpt lat="49.8901124" lon="19.4925303"/>
      <trkpt lat="49.8900797" lon="19.4923464"/>
      <trkpt lat="49.8900651" lon="19.492265"/>
      <trkpt lat="49.890046" lon="19.4921725"/>
      <trkpt lat="49.8900352" lon="19.4920986"/>
      <trkpt lat="49.8899994" lon="19.4919561"/>
      <trkpt lat="49.8899832" lon="19.4918874"/>
      <trkpt lat="49.889964" lon="19.4918203"/>
      <trkpt lat="49.889904" lon="19.4915575"/>
      <trkpt lat="49.8898753" lon="19.491233"/>
      <trkpt lat="49.8898627" lon="19.4910918"/>
      <trkpt lat="49.8898118" lon="19.4910258"/>
      <trkpt lat="49.8897735" lon="19.4909597"/>
      <trkpt lat="49.8897003" lon="19.4907504"/>
      <trkpt lat="49.8896869" lon="19.4906477"/>
      <trkpt lat="49.8896612" lon="19.4905205"/>
      <trkpt lat="49.889631" lon="19.4903967"/>
      <trkpt lat="49.8896061" lon="19.490282"/>
      <trkpt lat="49.8895776" lon="19.4901582"/>
      <trkpt lat="49.8895431" lon="19.4900141"/>
      <trkpt lat="49.8895104" lon="19.4898897"/>
      <trkpt lat="49.8894627" lon="19.4897158"/>
      <trkpt lat="49.8894188" lon="19.4895267"/>
      <trkpt lat="49.8893822" lon="19.4893713"/>
      <trkpt lat="49.8893449" lon="19.489214"/>
      <trkpt lat="49.8893064" lon="19.489054"/>
      <trkpt lat="49.88924" lon="19.4887801"/>
      <trkpt lat="49.889192" lon="19.4885843"/>
      <trkpt lat="49.8891384" lon="19.4883786"/>
      <trkpt lat="49.889064" lon="19.4880834"/>
      <trkpt lat="49.8889699" lon="19.4877222"/>
      <trkpt lat="49.8889189" lon="19.4875219"/>
      <trkpt lat="49.8888764" lon="19.487342"/>
      <trkpt lat="49.8888375" lon="19.4871709"/>
      <trkpt lat="49.8887868" lon="19.4869716"/>
      <trkpt lat="49.8887423" lon="19.4867856"/>
      <trkpt lat="49.8886933" lon="19.4865979"/>
      <trkpt lat="49.8886495" lon="19.4864127"/>
      <trkpt lat="49.8885667" lon="19.4860818"/>
      <trkpt lat="49.8884928" lon="19.4857859"/>
      <trkpt lat="49.8884533" lon="19.4856365"/>
      <trkpt lat="49.8884107" lon="19.485465"/>
      <trkpt lat="49.8883652" lon="19.4852742"/>
      <trkpt lat="49.8883217" lon="19.4851111"/>
      <trkpt lat="49.8882806" lon="19.4849435"/>
      <trkpt lat="49.8882291" lon="19.4847227"/>
      <trkpt lat="49.8881594" lon="19.4844413"/>
      <trkpt lat="49.8881145" lon="19.4842494"/>
      <trkpt lat="49.888062" lon="19.4840659"/>
      <trkpt lat="49.8879718" lon="19.483692"/>
      <trkpt lat="49.8879231" lon="19.4834935"/>
      <trkpt lat="49.8878779" lon="19.4833143"/>
      <trkpt lat="49.8878255" lon="19.4830947"/>
      <trkpt lat="49.8877518" lon="19.4828032"/>
      <trkpt lat="49.8877049" lon="19.4826122"/>
      <trkpt lat="49.8876439" lon="19.4823591"/>
      <trkpt lat="49.8876076" lon="19.4822155"/>
      <trkpt lat="49.887577" lon="19.4820915"/>
      <trkpt lat="49.8875265" lon="19.4818762"/>
      <trkpt lat="49.8875091" lon="19.4818022"/>
      <trkpt lat="49.8874902" lon="19.4817308"/>
      <trkpt lat="49.8874171" lon="19.4815192"/>
      <trkpt lat="49.8873981" lon="19.4814253"/>
      <trkpt lat="49.887363" lon="19.4810691"/>
      <trkpt lat="49.8873391" lon="19.480816"/>
      <trkpt lat="49.8873002" lon="19.4807518"/>
      <trkpt lat="49.8872571" lon="19.4806734"/>
      <trkpt lat="49.8872215" lon="19.4805764"/>
      <trkpt lat="49.8871898" lon="19.4804618"/>
      <trkpt lat="49.8871274" lon="19.4802052"/>
      <trkpt lat="49.887095" lon="19.4800773"/>
      <trkpt lat="49.8870631" lon="19.4799179"/>
      <trkpt lat="49.8870274" lon="19.4797552"/>
      <trkpt lat="49.8869944" lon="19.4796059"/>
      <trkpt lat="49.8869558" lon="19.4794356"/>
      <trkpt lat="49.8868841" lon="19.4791075"/>
      <trkpt lat="49.8868395" lon="19.4789131"/>
      <trkpt lat="49.8867974" lon="19.4787147"/>
      <trkpt lat="49.886705" lon="19.4783332"/>
      <trkpt lat="49.8866666" lon="19.478141"/>
      <trkpt lat="49.8865711" lon="19.47773"/>
      <trkpt lat="49.8864862" lon="19.4773276"/>
      <trkpt lat="49.88643" lon="19.4771115"/>
      <trkpt lat="49.8863271" lon="19.4767533"/>
      <trkpt lat="49.8862481" lon="19.476534"/>
      <trkpt lat="49.8861846" lon="19.4763637"/>
      <trkpt lat="49.8861041" lon="19.4761935"/>
      <trkpt lat="49.8860237" lon="19.4760417"/>
      <trkpt lat="49.8859354" lon="19.4759038"/>
      <trkpt lat="49.8858393" lon="19.4757426"/>
      <trkpt lat="49.8857379" lon="19.4756267"/>
      <trkpt lat="49.8856369" lon="19.4754749"/>
      <trkpt lat="49.885519" lon="19.4753232"/>
      <trkpt lat="49.8854157" lon="19.4751773"/>
      <trkpt lat="49.8853157" lon="19.4750443"/>
      <trkpt lat="49.8852078" lon="19.4748936"/>
      <trkpt lat="49.8850982" lon="19.4747577"/>
      <trkpt lat="49.8850063" lon="19.4746295"/>
      <trkpt lat="49.8849165" lon="19.4745039"/>
      <trkpt lat="49.8848097" lon="19.4743537"/>
      <trkpt lat="49.8847005" lon="19.4742021"/>
      <trkpt lat="49.8845053" lon="19.4739404"/>
      <trkpt lat="49.8844038" lon="19.4738"/>
      <trkpt lat="49.8843076" lon="19.4736554"/>
      <trkpt lat="49.8842149" lon="19.4735284"/>
      <trkpt lat="49.8841162" lon="19.4733892"/>
      <trkpt lat="49.88401" lon="19.4732337"/>
      <trkpt lat="49.883902" lon="19.4730822"/>
      <trkpt lat="49.8837996" lon="19.472958"/>
      <trkpt lat="49.883692" lon="19.472838"/>
      <trkpt lat="49.8834375" lon="19.4726413"/>
      <trkpt lat="49.8833166" lon="19.4725725"/>
      <trkpt lat="49.8831838" lon="19.4724996"/>
      <trkpt lat="49.8830733" lon="19.4724481"/>
      <trkpt lat="49.8829606" lon="19.4724013"/>
      <trkpt lat="49.8828336" lon="19.472334"/>
      <trkpt lat="49.8827252" lon="19.4722636"/>
      <trkpt lat="49.8826155" lon="19.4721971"/>
      <trkpt lat="49.882491" lon="19.4720855"/>
      <trkpt lat="49.8823982" lon="19.4719734"/>
      <trkpt lat="49.8822941" lon="19.4718443"/>
      <trkpt lat="49.8822088" lon="19.4717161"/>
      <trkpt lat="49.8821369" lon="19.4715874"/>
      <trkpt lat="49.8820656" lon="19.4714506"/>
      <trkpt lat="49.881981" lon="19.4712714"/>
      <trkpt lat="49.8818627" lon="19.4709865"/>
      <trkpt lat="49.8817982" lon="19.4708426"/>
      <trkpt lat="49.8817244" lon="19.4706849"/>
      <trkpt lat="49.8816656" lon="19.4705289"/>
      <trkpt lat="49.8815948" lon="19.4703662"/>
      <trkpt lat="49.8815206" lon="19.4701921"/>
      <trkpt lat="49.8814461" lon="19.4700251"/>
      <trkpt lat="49.8813813" lon="19.4698659"/>
      <trkpt lat="49.8813046" lon="19.4696804"/>
      <trkpt lat="49.8812425" lon="19.4695316"/>
      <trkpt lat="49.8810992" lon="19.4691875"/>
      <trkpt lat="49.8810141" lon="19.4689925"/>
      <trkpt lat="49.8809324" lon="19.4688078"/>
      <trkpt lat="49.8807895" lon="19.4684529"/>
      <trkpt lat="49.880709" lon="19.4682559"/>
      <trkpt lat="49.8806353" lon="19.4680857"/>
      <trkpt lat="49.8805623" lon="19.4679042"/>
      <trkpt lat="49.8804834" lon="19.4677183"/>
      <trkpt lat="49.8803979" lon="19.4675223"/>
      <trkpt lat="49.8802932" lon="19.4672735"/>
      <trkpt lat="49.8801609" lon="19.4669551"/>
      <trkpt lat="49.8800862" lon="19.4667884"/>
      <trkpt lat="49.8799998" lon="19.4665853"/>
      <trkpt lat="49.8799219" lon="19.466394"/>
      <trkpt lat="49.8798386" lon="19.4661973"/>
      <trkpt lat="49.8796843" lon="19.4658266"/>
      <trkpt lat="49.8795311" lon="19.4654666"/>
      <trkpt lat="49.8794252" lon="19.4652324"/>
      <trkpt lat="49.8793579" lon="19.4650532"/>
      <trkpt lat="49.8792812" lon="19.4648748"/>
      <trkpt lat="49.8792032" lon="19.4646935"/>
      <trkpt lat="49.8791286" lon="19.464517"/>
      <trkpt lat="49.8790428" lon="19.4643382"/>
      <trkpt lat="49.8789568" lon="19.4641543"/>
      <trkpt lat="49.878875" lon="19.4639468"/>
      <trkpt lat="49.8787925" lon="19.4637502"/>
      <trkpt lat="49.8787086" lon="19.4635561"/>
      <trkpt lat="49.8786335" lon="19.4633725"/>
      <trkpt lat="49.8785448" lon="19.4631714"/>
      <trkpt lat="49.8784639" lon="19.462985"/>
      <trkpt lat="49.8783102" lon="19.4626262"/>
      <trkpt lat="49.8782288" lon="19.4624335"/>
      <trkpt lat="49.8780917" lon="19.4621033"/>
      <trkpt lat="49.8780156" lon="19.461922"/>
      <trkpt lat="49.8779433" lon="19.4617555"/>
      <trkpt lat="49.8778071" lon="19.4614155"/>
      <trkpt lat="49.8777381" lon="19.4612553"/>
      <trkpt lat="49.8776636" lon="19.461081"/>
      <trkpt lat="49.8775894" lon="19.4609117"/>
      <trkpt lat="49.8775209" lon="19.4607526"/>
      <trkpt lat="49.877444" lon="19.4605646"/>
      <trkpt lat="49.8773729" lon="19.4603981"/>
      <trkpt lat="49.8772987" lon="19.4602193"/>
      <trkpt lat="49.8772212" lon="19.460039"/>
      <trkpt lat="49.8771478" lon="19.4598846"/>
      <trkpt lat="49.8770095" lon="19.4595357"/>
      <trkpt lat="49.8768639" lon="19.4592083"/>
      <trkpt lat="49.8767919" lon="19.459029"/>
      <trkpt lat="49.8767194" lon="19.45885"/>
      <trkpt lat="49.876642" lon="19.4586645"/>
      <trkpt lat="49.8765654" lon="19.4584826"/>
      <trkpt lat="49.8764151" lon="19.4581375"/>
      <trkpt lat="49.8763368" lon="19.4579503"/>
      <trkpt lat="49.8761956" lon="19.4576036"/>
      <trkpt lat="49.8761182" lon="19.4574187"/>
      <trkpt lat="49.8759519" lon="19.4570282"/>
      <trkpt lat="49.8758178" lon="19.4567149"/>
      <trkpt lat="49.8757332" lon="19.4565187"/>
      <trkpt lat="49.8756559" lon="19.4563379"/>
      <trkpt lat="49.8755784" lon="19.4561539"/>
      <trkpt lat="49.8754414" lon="19.4558323"/>
      <trkpt lat="49.8753613" lon="19.4556356"/>
      <trkpt lat="49.875215" lon="19.4553011"/>
      <trkpt lat="49.875149" lon="19.4551404"/>
      <trkpt lat="49.8750721" lon="19.4549624"/>
      <trkpt lat="49.875009" lon="19.4548047"/>
      <trkpt lat="49.8749332" lon="19.4546363"/>
      <trkpt lat="49.8748654" lon="19.4544623"/>
      <trkpt lat="49.8747893" lon="19.4543008"/>
      <trkpt lat="49.8747234" lon="19.4541316"/>
      <trkpt lat="49.8746523" lon="19.4539702"/>
      <trkpt lat="49.8745791" lon="19.4537876"/>
      <trkpt lat="49.874512" lon="19.4536348"/>
      <trkpt lat="49.8744468" lon="19.4534804"/>
      <trkpt lat="49.87437" lon="19.4533099"/>
      <trkpt lat="49.8743093" lon="19.4531538"/>
      <trkpt lat="49.8742316" lon="19.4529773"/>
      <trkpt lat="49.8741566" lon="19.4527982"/>
      <trkpt lat="49.8740305" lon="19.4524992"/>
      <trkpt lat="49.8739499" lon="19.4523031"/>
      <trkpt lat="49.8738146" lon="19.4519947"/>
      <trkpt lat="49.87375" lon="19.4518357"/>
      <trkpt lat="49.8736804" lon="19.4516746"/>
      <trkpt lat="49.8736129" lon="19.4515106"/>
      <trkpt lat="49.8734816" lon="19.4511994"/>
      <trkpt lat="49.8734147" lon="19.4510446"/>
      <trkpt lat="49.8732896" lon="19.4507624"/>
      <trkpt lat="49.8732214" lon="19.4506016"/>
      <trkpt lat="49.8730985" lon="19.4503079"/>
      <trkpt lat="49.8730306" lon="19.4501581"/>
      <trkpt lat="49.8729722" lon="19.4500126"/>
      <trkpt lat="49.8728983" lon="19.4498337"/>
      <trkpt lat="49.872833" lon="19.4496813"/>
      <trkpt lat="49.8727645" lon="19.4495115"/>
      <trkpt lat="49.8726953" lon="19.4493448"/>
      <trkpt lat="49.8725576" lon="19.4490265"/>
      <trkpt lat="49.8724231" lon="19.4487107"/>
      <trkpt lat="49.8723523" lon="19.4485437"/>
      <trkpt lat="49.8722806" lon="19.4483832"/>
      <trkpt lat="49.8722062" lon="19.4482008"/>
      <trkpt lat="49.872141" lon="19.4480447"/>
      <trkpt lat="49.8720699" lon="19.4478868"/>
      <trkpt lat="49.8719901" lon="19.4476866"/>
      <trkpt lat="49.8719088" lon="19.4475043"/>
      <trkpt lat="49.8718223" lon="19.4472906"/>
      <trkpt lat="49.8716982" lon="19.4469971"/>
      <trkpt lat="49.8716285" lon="19.4468328"/>
      <trkpt lat="49.8715441" lon="19.4466313"/>
      <trkpt lat="49.8714676" lon="19.4464522"/>
      <trkpt lat="49.8713126" lon="19.446085"/>
      <trkpt lat="49.8712323" lon="19.445894"/>
      <trkpt lat="49.8710773" lon="19.4455201"/>
      <trkpt lat="49.8710066" lon="19.445356"/>
      <trkpt lat="49.870843" lon="19.4449741"/>
      <trkpt lat="49.8707777" lon="19.4448092"/>
      <trkpt lat="49.870692" lon="19.4446094"/>
      <trkpt lat="49.8705443" lon="19.4442597"/>
      <trkpt lat="49.8704763" lon="19.4441002"/>
      <trkpt lat="49.8703902" lon="19.4439078"/>
      <trkpt lat="49.8703201" lon="19.4437376"/>
      <trkpt lat="49.8702402" lon="19.4435434"/>
      <trkpt lat="49.8701567" lon="19.4433457"/>
      <trkpt lat="49.870007" lon="19.4429884"/>
      <trkpt lat="49.8698658" lon="19.4426609"/>
      <trkpt lat="49.8697968" lon="19.442492"/>
      <trkpt lat="49.8697258" lon="19.442311"/>
      <trkpt lat="49.8696507" lon="19.4421175"/>
      <trkpt lat="49.8695926" lon="19.441935"/>
      <trkpt lat="49.8695287" lon="19.4417107"/>
      <trkpt lat="49.8694857" lon="19.4414995"/>
      <trkpt lat="49.869447" lon="19.4412988"/>
      <trkpt lat="49.8694214" lon="19.4411047"/>
      <trkpt lat="49.869397" lon="19.4408926"/>
      <trkpt lat="49.8693792" lon="19.4406641"/>
      <trkpt lat="49.8693645" lon="19.4404452"/>
      <trkpt lat="49.8693565" lon="19.4402416"/>
      <trkpt lat="49.8693324" lon="19.4397615"/>
      <trkpt lat="49.8693291" lon="19.4395536"/>
      <trkpt lat="49.8693204" lon="19.4393212"/>
      <trkpt lat="49.8693053" lon="19.4390906"/>
      <trkpt lat="49.8692921" lon="19.4388887"/>
      <trkpt lat="49.8692821" lon="19.438678"/>
      <trkpt lat="49.8692712" lon="19.4384727"/>
      <trkpt lat="49.869265" lon="19.4382423"/>
      <trkpt lat="49.8692589" lon="19.4380428"/>
      <trkpt lat="49.8692513" lon="19.4378444"/>
      <trkpt lat="49.869241" lon="19.437604"/>
      <trkpt lat="49.8692322" lon="19.4373971"/>
      <trkpt lat="49.8692221" lon="19.4371721"/>
      <trkpt lat="49.8692125" lon="19.4369656"/>
      <trkpt lat="49.8692043" lon="19.4367472"/>
      <trkpt lat="49.8691819" lon="19.4363196"/>
      <trkpt lat="49.869173" lon="19.4361044"/>
      <trkpt lat="49.8691531" lon="19.4356795"/>
      <trkpt lat="49.8691452" lon="19.4354596"/>
      <trkpt lat="49.8691345" lon="19.4352238"/>
      <trkpt lat="49.8691265" lon="19.4350203"/>
      <trkpt lat="49.8691125" lon="19.4348165"/>
      <trkpt lat="49.8690917" lon="19.4343323"/>
      <trkpt lat="49.8690835" lon="19.4341261"/>
      <trkpt lat="49.8690732" lon="19.4339167"/>
      <trkpt lat="49.8690613" lon="19.433682"/>
      <trkpt lat="49.8690543" lon="19.4334647"/>
      <trkpt lat="49.8690437" lon="19.4332069"/>
      <trkpt lat="49.8690377" lon="19.4329947"/>
      <trkpt lat="49.8690215" lon="19.4327739"/>
      <trkpt lat="49.8690154" lon="19.4325569"/>
      <trkpt lat="49.8690028" lon="19.4323272"/>
      <trkpt lat="49.8689959" lon="19.4320936"/>
      <trkpt lat="49.8689829" lon="19.4318702"/>
      <trkpt lat="49.868972" lon="19.4316107"/>
      <trkpt lat="49.868961" lon="19.4313832"/>
      <trkpt lat="49.8689471" lon="19.431126"/>
      <trkpt lat="49.8689395" lon="19.4308992"/>
      <trkpt lat="49.8689197" lon="19.4304247"/>
      <trkpt lat="49.8689004" lon="19.4299364"/>
      <trkpt lat="49.8688842" lon="19.42962"/>
      <trkpt lat="49.8688684" lon="19.4291928"/>
      <trkpt lat="49.8688558" lon="19.4289609"/>
      <trkpt lat="49.8688493" lon="19.4287267"/>
      <trkpt lat="49.8688356" lon="19.4284819"/>
      <trkpt lat="49.8688255" lon="19.4282372"/>
      <trkpt lat="49.8688117" lon="19.4279566"/>
      <trkpt lat="49.8687951" lon="19.4276183"/>
      <trkpt lat="49.8687778" lon="19.4272301"/>
      <trkpt lat="49.8687641" lon="19.4269684"/>
      <trkpt lat="49.8687581" lon="19.4267076"/>
      <trkpt lat="49.8687429" lon="19.4264616"/>
      <trkpt lat="49.868726" lon="19.426026"/>
      <trkpt lat="49.8687176" lon="19.4258174"/>
      <trkpt lat="49.8687029" lon="19.4255819"/>
      <trkpt lat="49.8686991" lon="19.4253226"/>
      <trkpt lat="49.8686769" lon="19.4249247"/>
      <trkpt lat="49.8686643" lon="19.4246855"/>
      <trkpt lat="49.8686535" lon="19.4244572"/>
      <trkpt lat="49.8686433" lon="19.4242504"/>
      <trkpt lat="49.8686342" lon="19.4240384"/>
      <trkpt lat="49.8686251" lon="19.4238354"/>
      <trkpt lat="49.8686126" lon="19.4236102"/>
      <trkpt lat="49.8686038" lon="19.4233747"/>
      <trkpt lat="49.8685949" lon="19.4231864"/>
      <trkpt lat="49.8685856" lon="19.4229687"/>
      <trkpt lat="49.8685787" lon="19.4227712"/>
      <trkpt lat="49.8685706" lon="19.4225615"/>
      <trkpt lat="49.8685567" lon="19.4223357"/>
      <trkpt lat="49.8685489" lon="19.4221168"/>
      <trkpt lat="49.8685355" lon="19.4218986"/>
      <trkpt lat="49.8685257" lon="19.4216687"/>
      <trkpt lat="49.8685129" lon="19.4214379"/>
      <trkpt lat="49.868501" lon="19.4210349"/>
      <trkpt lat="49.8684905" lon="19.4207971"/>
      <trkpt lat="49.8684839" lon="19.4205558"/>
      <trkpt lat="49.8684737" lon="19.4203302"/>
      <trkpt lat="49.8684561" lon="19.4200309"/>
      <trkpt lat="49.8684484" lon="19.4197422"/>
      <trkpt lat="49.8684354" lon="19.4193574"/>
      <trkpt lat="49.8684231" lon="19.4190908"/>
      <trkpt lat="49.8684118" lon="19.4188215"/>
      <trkpt lat="49.8683832" lon="19.4182968"/>
      <trkpt lat="49.8683713" lon="19.418026"/>
      <trkpt lat="49.8683605" lon="19.4177587"/>
      <trkpt lat="49.8683389" lon="19.4172293"/>
      <trkpt lat="49.8683249" lon="19.4169814"/>
      <trkpt lat="49.8683118" lon="19.4167054"/>
      <trkpt lat="49.8683028" lon="19.4164085"/>
      <trkpt lat="49.8682881" lon="19.416143"/>
      <trkpt lat="49.8682719" lon="19.4158845"/>
      <trkpt lat="49.8682665" lon="19.4156059"/>
      <trkpt lat="49.868251" lon="19.4153038"/>
      <trkpt lat="49.8682251" lon="19.4147808"/>
      <trkpt lat="49.8682097" lon="19.414362"/>
      <trkpt lat="49.8681991" lon="19.4141228"/>
      <trkpt lat="49.8681897" lon="19.4138937"/>
      <trkpt lat="49.8681796" lon="19.4136411"/>
      <trkpt lat="49.8681698" lon="19.4133988"/>
      <trkpt lat="49.8552328" lon="19.3374033"/>
      <trkpt lat="49.855478" lon="19.3363211"/>
      <trkpt lat="49.8555453" lon="19.3360223"/>
      <trkpt lat="49.8555976" lon="19.3358098"/>
      <trkpt lat="49.855634" lon="19.3356631"/>
      <trkpt lat="49.8556643" lon="19.3355414"/>
      <trkpt lat="49.8556947" lon="19.3354088"/>
      <trkpt lat="49.855729" lon="19.3352543"/>
      <trkpt lat="49.8557616" lon="19.3351163"/>
      <trkpt lat="49.8557981" lon="19.3349693"/>
      <trkpt lat="49.8558352" lon="19.3348308"/>
      <trkpt lat="49.8558696" lon="19.3346851"/>
      <trkpt lat="49.855904" lon="19.3345319"/>
      <trkpt lat="49.8559412" lon="19.3343821"/>
      <trkpt lat="49.8559842" lon="19.3342057"/>
      <trkpt lat="49.8560254" lon="19.3340483"/>
      <trkpt lat="49.8560654" lon="19.3338751"/>
      <trkpt lat="49.8561065" lon="19.3337143"/>
      <trkpt lat="49.8561575" lon="19.3335325"/>
      <trkpt lat="49.8561983" lon="19.3333326"/>
      <trkpt lat="49.8562803" lon="19.3329869"/>
      <trkpt lat="49.8563688" lon="19.332636"/>
      <trkpt lat="49.8564095" lon="19.3324515"/>
      <trkpt lat="49.856488" lon="19.3321116"/>
      <trkpt lat="49.8565231" lon="19.3319671"/>
      <trkpt lat="49.856557" lon="19.3318203"/>
      <trkpt lat="49.8565891" lon="19.331665"/>
      <trkpt lat="49.856627" lon="19.3315126"/>
      <trkpt lat="49.8566597" lon="19.3313766"/>
      <trkpt lat="49.8566881" lon="19.3312406"/>
      <trkpt lat="49.8567261" lon="19.3310945"/>
      <trkpt lat="49.8567618" lon="19.3309369"/>
      <trkpt lat="49.8568018" lon="19.3307798"/>
      <trkpt lat="49.8568363" lon="19.330631"/>
      <trkpt lat="49.8568765" lon="19.3304686"/>
      <trkpt lat="49.8569247" lon="19.3302752"/>
      <trkpt lat="49.8570211" lon="19.3298997"/>
      <trkpt lat="49.8571078" lon="19.3295604"/>
      <trkpt lat="49.8571468" lon="19.3293863"/>
      <trkpt lat="49.8571988" lon="19.3291966"/>
      <trkpt lat="49.8572501" lon="19.3289891"/>
      <trkpt lat="49.8573028" lon="19.3288295"/>
      <trkpt lat="49.857347" lon="19.3286458"/>
      <trkpt lat="49.8573995" lon="19.3284458"/>
      <trkpt lat="49.8574449" lon="19.3282706"/>
      <trkpt lat="49.8574934" lon="19.3280786"/>
      <trkpt lat="49.8575366" lon="19.3279034"/>
      <trkpt lat="49.8575854" lon="19.3277047"/>
      <trkpt lat="49.8576316" lon="19.3275037"/>
      <trkpt lat="49.8577302" lon="19.3270881"/>
      <trkpt lat="49.8578076" lon="19.3267592"/>
      <trkpt lat="49.857853" lon="19.3265729"/>
      <trkpt lat="49.8578911" lon="19.3264196"/>
      <trkpt lat="49.8579298" lon="19.3262756"/>
      <trkpt lat="49.8579664" lon="19.3261397"/>
      <trkpt lat="49.8579981" lon="19.3260345"/>
      <trkpt lat="49.858037" lon="19.3259306"/>
      <trkpt lat="49.8580789" lon="19.3258128"/>
      <trkpt lat="49.8581049" lon="19.3257228"/>
      <trkpt lat="49.8581458" lon="19.325633"/>
      <trkpt lat="49.8581987" lon="19.3255639"/>
      <trkpt lat="49.8582534" lon="19.3255416"/>
      <trkpt lat="49.8583126" lon="19.3255594"/>
      <trkpt lat="49.8583672" lon="19.3255935"/>
      <trkpt lat="49.8584323" lon="19.3256436"/>
      <trkpt lat="49.8584886" lon="19.3256796"/>
      <trkpt lat="49.8585466" lon="19.3257198"/>
      <trkpt lat="49.8586051" lon="19.3257432"/>
      <trkpt lat="49.8586552" lon="19.3257139"/>
      <trkpt lat="49.8586849" lon="19.3256385"/>
      <trkpt lat="49.8587094" lon="19.3255568"/>
      <trkpt lat="49.858734" lon="19.325472"/>
      <trkpt lat="49.8587885" lon="19.3252818"/>
      <trkpt lat="49.8588133" lon="19.3251876"/>
      <trkpt lat="49.8588373" lon="19.3250979"/>
      <trkpt lat="49.8588726" lon="19.3249851"/>
      <trkpt lat="49.8589212" lon="19.324827"/>
      <trkpt lat="49.8589494" lon="19.32474"/>
      <trkpt lat="49.8589775" lon="19.3246459"/>
      <trkpt lat="49.8590033" lon="19.3245643"/>
      <trkpt lat="49.8590766" lon="19.3244694"/>
      <trkpt lat="49.8592233" lon="19.3245474"/>
      <trkpt lat="49.859267" lon="19.3245792"/>
      <trkpt lat="49.8593125" lon="19.3246118"/>
      <trkpt lat="49.8593619" lon="19.3246525"/>
      <trkpt lat="49.8594122" lon="19.3246909"/>
      <trkpt lat="49.8594972" lon="19.3247531"/>
      <trkpt lat="49.8595452" lon="19.3247862"/>
      <trkpt lat="49.8596003" lon="19.3248224"/>
      <trkpt lat="49.8596472" lon="19.3248542"/>
      <trkpt lat="49.8596953" lon="19.324887"/>
      <trkpt lat="49.8597461" lon="19.3249258"/>
      <trkpt lat="49.8597997" lon="19.3249637"/>
      <trkpt lat="49.8598607" lon="19.3250091"/>
      <trkpt lat="49.8599631" lon="19.3250819"/>
      <trkpt lat="49.8600449" lon="19.3251201"/>
      <trkpt lat="49.8601469" lon="19.3251342"/>
      <trkpt lat="49.8602038" lon="19.3251369"/>
      <trkpt lat="49.8602705" lon="19.3251395"/>
      <trkpt lat="49.8603815" lon="19.3251592"/>
      <trkpt lat="49.8604288" lon="19.3251669"/>
      <trkpt lat="49.860475" lon="19.3251527"/>
      <trkpt lat="49.8605182" lon="19.3251038"/>
      <trkpt lat="49.8605455" lon="19.3250371"/>
      <trkpt lat="49.8605629" lon="19.3249593"/>
      <trkpt lat="49.8605838" lon="19.3248756"/>
      <trkpt lat="49.8606059" lon="19.3247982"/>
      <trkpt lat="49.8606248" lon="19.3247277"/>
      <trkpt lat="49.8606517" lon="19.3246592"/>
      <trkpt lat="49.860711" lon="19.3246559"/>
      <trkpt lat="49.8608247" lon="19.3247485"/>
      <trkpt lat="49.8608665" lon="19.3247831"/>
      <trkpt lat="49.8609143" lon="19.3248233"/>
      <trkpt lat="49.8609714" lon="19.3248667"/>
      <trkpt lat="49.8611008" lon="19.3248146"/>
      <trkpt lat="49.8612899" lon="19.3253183"/>
      <trkpt lat="49.8616076" lon="19.323387"/>
      <trkpt lat="49.8615298" lon="19.323341"/>
      <trkpt lat="49.8614541" lon="19.3232831"/>
      <trkpt lat="49.8613774" lon="19.3232226"/>
      <trkpt lat="49.861301" lon="19.3231601"/>
      <trkpt lat="49.8612204" lon="19.3231017"/>
      <trkpt lat="49.8611065" lon="19.3229537"/>
      <trkpt lat="49.8610127" lon="19.3228871"/>
      <trkpt lat="49.8608321" lon="19.3227655"/>
      <trkpt lat="49.8606671" lon="19.3226407"/>
      <trkpt lat="49.8605358" lon="19.3225486"/>
      <trkpt lat="49.8604553" lon="19.3224958"/>
      <trkpt lat="49.8603868" lon="19.3224459"/>
      <trkpt lat="49.8603107" lon="19.3223907"/>
      <trkpt lat="49.8601972" lon="19.322285"/>
      <trkpt lat="49.8601118" lon="19.3221643"/>
      <trkpt lat="49.860084" lon="19.3220795"/>
      <trkpt lat="49.8600932" lon="19.3218653"/>
      <trkpt lat="49.8601193" lon="19.3217577"/>
      <trkpt lat="49.8601903" lon="19.3216239"/>
      <trkpt lat="49.8603032" lon="19.3214313"/>
      <trkpt lat="49.8604299" lon="19.3212075"/>
      <trkpt lat="49.8605372" lon="19.3209996"/>
      <trkpt lat="49.8606002" lon="19.3208924"/>
      <trkpt lat="49.8606629" lon="19.3207769"/>
      <trkpt lat="49.8607366" lon="19.3206448"/>
      <trkpt lat="49.8607984" lon="19.3205284"/>
      <trkpt lat="49.8608708" lon="19.32039"/>
      <trkpt lat="49.8609321" lon="19.3202757"/>
      <trkpt lat="49.8609997" lon="19.3201509"/>
      <trkpt lat="49.8610833" lon="19.3200028"/>
      <trkpt lat="49.8611599" lon="19.3198615"/>
      <trkpt lat="49.8612396" lon="19.3197233"/>
      <trkpt lat="49.8613121" lon="19.3195884"/>
      <trkpt lat="49.861397" lon="19.3194365"/>
      <trkpt lat="49.8614893" lon="19.3192652"/>
      <trkpt lat="49.8615787" lon="19.3191077"/>
      <trkpt lat="49.8616621" lon="19.318952"/>
      <trkpt lat="49.8617645" lon="19.3187776"/>
      <trkpt lat="49.8618411" lon="19.3186402"/>
      <trkpt lat="49.8619214" lon="19.3184969"/>
      <trkpt lat="49.8620077" lon="19.3183333"/>
      <trkpt lat="49.8620967" lon="19.3181766"/>
      <trkpt lat="49.862183" lon="19.3180162"/>
      <trkpt lat="49.8622814" lon="19.3178342"/>
      <trkpt lat="49.8623707" lon="19.3176753"/>
      <trkpt lat="49.8624678" lon="19.3174896"/>
      <trkpt lat="49.8625647" lon="19.3173116"/>
      <trkpt lat="49.8626658" lon="19.3171335"/>
      <trkpt lat="49.8627744" lon="19.3169286"/>
      <trkpt lat="49.862997" lon="19.3165252"/>
      <trkpt lat="49.8631906" lon="19.3161851"/>
      <trkpt lat="49.8632955" lon="19.3159922"/>
      <trkpt lat="49.8634016" lon="19.3157848"/>
      <trkpt lat="49.8635122" lon="19.3155968"/>
      <trkpt lat="49.8636157" lon="19.3154015"/>
      <trkpt lat="49.8637228" lon="19.3152081"/>
      <trkpt lat="49.8638398" lon="19.314991"/>
      <trkpt lat="49.8639408" lon="19.3148133"/>
      <trkpt lat="49.8640346" lon="19.3146369"/>
      <trkpt lat="49.8641583" lon="19.3144202"/>
      <trkpt lat="49.8642609" lon="19.3142278"/>
      <trkpt lat="49.8643687" lon="19.3140416"/>
      <trkpt lat="49.8644706" lon="19.3138542"/>
      <trkpt lat="49.8645766" lon="19.313657"/>
      <trkpt lat="49.8646853" lon="19.3134579"/>
      <trkpt lat="49.8648951" lon="19.3130679"/>
      <trkpt lat="49.8649949" lon="19.3128805"/>
      <trkpt lat="49.8651871" lon="19.312542"/>
      <trkpt lat="49.8652967" lon="19.312341"/>
      <trkpt lat="49.8654363" lon="19.3120955"/>
      <trkpt lat="49.8656321" lon="19.3117405"/>
      <trkpt lat="49.8657293" lon="19.3115673"/>
      <trkpt lat="49.8658316" lon="19.3113743"/>
      <trkpt lat="49.8659292" lon="19.3112001"/>
      <trkpt lat="49.8660391" lon="19.3110009"/>
      <trkpt lat="49.8661474" lon="19.3108039"/>
      <trkpt lat="49.8662437" lon="19.3106357"/>
      <trkpt lat="49.8663356" lon="19.3104602"/>
      <trkpt lat="49.8664348" lon="19.3102869"/>
      <trkpt lat="49.866541" lon="19.3100823"/>
      <trkpt lat="49.866658" lon="19.3098745"/>
      <trkpt lat="49.8668512" lon="19.3095189"/>
      <trkpt lat="49.8669475" lon="19.309348"/>
      <trkpt lat="49.8670538" lon="19.3091499"/>
      <trkpt lat="49.8671588" lon="19.3089646"/>
      <trkpt lat="49.8673611" lon="19.3085892"/>
      <trkpt lat="49.8674896" lon="19.308372"/>
      <trkpt lat="49.8675846" lon="19.3081886"/>
      <trkpt lat="49.8676883" lon="19.3079993"/>
      <trkpt lat="49.8677931" lon="19.3078111"/>
      <trkpt lat="49.8679074" lon="19.3076008"/>
      <trkpt lat="49.8680052" lon="19.3074234"/>
      <trkpt lat="49.8681083" lon="19.307233"/>
      <trkpt lat="49.8682542" lon="19.3069694"/>
      <trkpt lat="49.8683239" lon="19.3068534"/>
      <trkpt lat="49.8683769" lon="19.3067506"/>
      <trkpt lat="49.8683917" lon="19.3066716"/>
      <trkpt lat="49.8683714" lon="19.3066066"/>
      <trkpt lat="49.8683308" lon="19.3065493"/>
      <trkpt lat="49.8682826" lon="19.3064727"/>
      <trkpt lat="49.8682443" lon="19.3063957"/>
      <trkpt lat="49.8682034" lon="19.3063127"/>
      <trkpt lat="49.8681639" lon="19.306227"/>
      <trkpt lat="49.8681189" lon="19.3061296"/>
      <trkpt lat="49.868078" lon="19.3060433"/>
      <trkpt lat="49.8680324" lon="19.3059443"/>
      <trkpt lat="49.8679845" lon="19.3058397"/>
      <trkpt lat="49.8679411" lon="19.3057458"/>
      <trkpt lat="49.8678915" lon="19.3056462"/>
      <trkpt lat="49.8677875" lon="19.3054365"/>
      <trkpt lat="49.8676732" lon="19.3052063"/>
      <trkpt lat="49.8675603" lon="19.3049801"/>
      <trkpt lat="49.8674768" lon="19.3048167"/>
      <trkpt lat="49.8673407" lon="19.3045542"/>
      <trkpt lat="49.8671918" lon="19.3042536"/>
      <trkpt lat="49.8670217" lon="19.3039825"/>
      <trkpt lat="49.8668089" lon="19.3037638"/>
      <trkpt lat="49.8666873" lon="19.3036486"/>
      <trkpt lat="49.8665413" lon="19.3035103"/>
      <trkpt lat="49.8662956" lon="19.3032751"/>
      <trkpt lat="49.8660315" lon="19.3030421"/>
      <trkpt lat="49.8657783" lon="19.3028193"/>
      <trkpt lat="49.8655655" lon="19.3026353"/>
      <trkpt lat="49.8654193" lon="19.3025095"/>
      <trkpt lat="49.8652943" lon="19.3023949"/>
      <trkpt lat="49.8651791" lon="19.3022845"/>
      <trkpt lat="49.8650543" lon="19.3021644"/>
      <trkpt lat="49.8649435" lon="19.3020555"/>
      <trkpt lat="49.8648328" lon="19.3019371"/>
      <trkpt lat="49.8647308" lon="19.301812"/>
      <trkpt lat="49.8646382" lon="19.301689"/>
      <trkpt lat="49.8645439" lon="19.3015501"/>
      <trkpt lat="49.8644448" lon="19.3013954"/>
      <trkpt lat="49.8643557" lon="19.3012559"/>
      <trkpt lat="49.8642769" lon="19.3011232"/>
      <trkpt lat="49.864166" lon="19.3009386"/>
      <trkpt lat="49.8639945" lon="19.30065"/>
      <trkpt lat="49.8639133" lon="19.3005108"/>
      <trkpt lat="49.8638201" lon="19.300353"/>
      <trkpt lat="49.8637394" lon="19.3002185"/>
      <trkpt lat="49.8636445" lon="19.3000607"/>
      <trkpt lat="49.8635602" lon="19.2999152"/>
      <trkpt lat="49.8634629" lon="19.2997452"/>
      <trkpt lat="49.8633009" lon="19.2994674"/>
      <trkpt lat="49.86322" lon="19.2993272"/>
      <trkpt lat="49.8630472" lon="19.2990367"/>
      <trkpt lat="49.8628889" lon="19.2987812"/>
      <trkpt lat="49.8628086" lon="19.2986463"/>
      <trkpt lat="49.8626722" lon="19.2984285"/>
      <trkpt lat="49.8625904" lon="19.2982978"/>
      <trkpt lat="49.8625066" lon="19.2981599"/>
      <trkpt lat="49.8624414" lon="19.2980387"/>
      <trkpt lat="49.8623761" lon="19.2979109"/>
      <trkpt lat="49.8623193" lon="19.2977848"/>
      <trkpt lat="49.8622555" lon="19.2976474"/>
      <trkpt lat="49.8622007" lon="19.2975086"/>
      <trkpt lat="49.8621269" lon="19.2973559"/>
      <trkpt lat="49.8620541" lon="19.2972331"/>
      <trkpt lat="49.8619728" lon="19.2971449"/>
      <trkpt lat="49.8618792" lon="19.2970637"/>
      <trkpt lat="49.861784" lon="19.2970109"/>
      <trkpt lat="49.8616603" lon="19.2969583"/>
      <trkpt lat="49.8615551" lon="19.296911"/>
      <trkpt lat="49.8614554" lon="19.2968535"/>
      <trkpt lat="49.8613489" lon="19.2967797"/>
      <trkpt lat="49.8612536" lon="19.2966892"/>
      <trkpt lat="49.8611623" lon="19.2965831"/>
      <trkpt lat="49.8610866" lon="19.2964766"/>
      <trkpt lat="49.8610021" lon="19.2963565"/>
      <trkpt lat="49.8609131" lon="19.296236"/>
      <trkpt lat="49.8607261" lon="19.2960275"/>
      <trkpt lat="49.8606311" lon="19.2959418"/>
      <trkpt lat="49.8605182" lon="19.2958483"/>
      <trkpt lat="49.8603976" lon="19.2957547"/>
      <trkpt lat="49.8602985" lon="19.29568"/>
      <trkpt lat="49.8601982" lon="19.2956034"/>
      <trkpt lat="49.8600845" lon="19.2955185"/>
      <trkpt lat="49.8599758" lon="19.2954359"/>
      <trkpt lat="49.8598675" lon="19.2953516"/>
      <trkpt lat="49.8597438" lon="19.2952577"/>
      <trkpt lat="49.8596256" lon="19.2951646"/>
      <trkpt lat="49.8595122" lon="19.295078"/>
      <trkpt lat="49.8594062" lon="19.2949976"/>
      <trkpt lat="49.8592935" lon="19.294912"/>
      <trkpt lat="49.8591809" lon="19.294824"/>
      <trkpt lat="49.8590557" lon="19.2947313"/>
      <trkpt lat="49.8589213" lon="19.2946244"/>
      <trkpt lat="49.8587093" lon="19.2944629"/>
      <trkpt lat="49.8585864" lon="19.294371"/>
      <trkpt lat="49.8583475" lon="19.2941869"/>
      <trkpt lat="49.858236" lon="19.2941005"/>
      <trkpt lat="49.8581268" lon="19.2940169"/>
      <trkpt lat="49.8580158" lon="19.293933"/>
      <trkpt lat="49.8578602" lon="19.2938165"/>
      <trkpt lat="49.8576485" lon="19.2936711"/>
      <trkpt lat="49.8575176" lon="19.2935761"/>
      <trkpt lat="49.8573131" lon="19.2934244"/>
      <trkpt lat="49.8572269" lon="19.2933529"/>
      <trkpt lat="49.8570944" lon="19.2932438"/>
      <trkpt lat="49.8569407" lon="19.2931049"/>
      <trkpt lat="49.856841" lon="19.2930272"/>
      <trkpt lat="49.8567475" lon="19.2929539"/>
      <trkpt lat="49.8566332" lon="19.2928666"/>
      <trkpt lat="49.8565201" lon="19.29278"/>
      <trkpt lat="49.8563956" lon="19.2926911"/>
      <trkpt lat="49.8508032" lon="19.2851402"/>
      <trkpt lat="49.8508003" lon="19.2851608"/>
    </trkseg>
  </trk>
</gpx>
